City,Location Name,Latitude,Longitude,Address
Chennai,TASMAC,12.9812505,80.1475975,"X4JX+G25, Mallika Nagar, Meenambakkam, Chennai, Tamil Nadu 600016, India"
Chennai,TASMAC Government Wine Shop,13.2606756,80.2895995,"R S, Main Road, Attipattu, Chennai, Nandiambakkam, Tamil Nadu 600120, India"
Chennai,TASMAC - Tamil Nadu State Marketing Corporation Limited,13.0700237,80.2712231,"Shop No, 34, Wallers Rd, Mount Road, Chintadripet, Chennai, Tamil Nadu 600002, India"
Chennai,Tamil Nadu State Marketing Corporation Limited,13.0772206,80.26506119999999,"37G8+V2M, IV Floor, CMDA Tower-II, Gandhi Irwin Bridge Road, Triplicane, Egmore, Chennai, Tamil Nadu 600008, India"
Chennai,TASMAC,13.0582702,80.2242449,"15, Shanmuganar Salai, Sree Ram Puram, Kamaraj Nagar, Kodambakkam, Vada Agaram Rd, Sree Ram Puram, Kamaraj Nagar, Kodambakkam, Chennai, Tamil Nadu 600024, India"
Chennai,Tasmac,13.0999214,80.22601689999999,"36XG+X97, Parasurama Eswaran Koil Main St, Ramanuja Nagar, United India Nagar, Ayanavaram, Chennai, Tamil Nadu 600023, India"
Chennai,Tasmac,13.0656166,80.2738241,"No. 19, Triplicane High Rd, Ellis Puram, Padupakkam, Triplicane, Chennai, Tamil Nadu 600005, India"
Chennai,TASMAC Wine shop,13.0373992,80.2341586,"26PM+XM3, Dhandapani St, T. Nagar, Chennai, Tamil Nadu 600017, India"
Chennai,TASMAC,13.0360302,80.2674153,"27P8+CX7, Canal Bank Rd, Kapali Thottam, Mylapore, Chennai, Tamil Nadu 600004, India"
Chennai,Tasmac 513,13.0487698,80.2036845,"26X3+GF3, Arunachalam Rd, Velayutham Colony, Saligramam, Chennai, Tamil Nadu 600093, India"
Chennai,Tasmac Egmore,13.0691929,80.256849,"Shop No.6, Alsa Mall, Red Cross Rd, Egmore, Chennai, Tamil Nadu 600008, India"
Chennai,Elite TASMAC,12.9750646,80.2202502,"Vighnesh, 92, Velachery - Tambaram Main Rd, First Segment, Vijaya Nagar, Velachery, Chennai, Tamil Nadu 600042, India"
Chennai,TASMAC,12.9874621,80.2555627,"X7P4+X6P, SH 49, Ranganatha Puram, Thiruvanmiyur, Chennai, Tamil Nadu 600041, India"
Chennai,TASMAC Elite,12.9204586,80.2511784,"2, 86, SH 49, Cholamandal Artists Village, Injambakkam, Chennai, Tamil Nadu 600115, India"
Chennai,TASMAC,13.1160588,80.2249107,"468F+CXG, Kandasamy St, Masakkalipalayam, Periyar Nagar West, Perambur, Chennai, Tamil Nadu 600082, India"
Chennai,Tasmac,13.0086749,80.2121645,"735, 4th Floor, LLA Building, Anna Salai, Race View Colony, Guindy, Chennai, Tamil Nadu 600032, India"
Chennai,TASMAC,13.0545481,80.1445653,"343V+RR8, Rajiv Nagar, Vanagaram, Chennai, Adayalampattu, Tamil Nadu 600095, India"
Chennai,TASMAC,13.0778978,80.2634238,"4654, Egmore, Chennai, Tamil Nadu 600026, India"
Chennai,TASMAC Agasthya,13.123357,80.2877961,"47FQ+84M, Sanjeevarayanpet, Old Washermanpet, Chennai, Tamil Nadu 600021, India"
Chennai,TASMAC,13.0374909,80.25125489999999,"Shop No. 894, 20/1, Tiruvalluvar Salai, Seethammal Colony, Lubdhi Colony, Teynampet, Chennai, Tamil Nadu 600018, India"
Chennai,Elite Tasmac,13.0533183,80.2493307,"Gemini Parson Complex, 1, Dr MGR Salai, Tirumurthy Nagar, Nungambakkam, Chennai, Tamil Nadu 600006, India"
Chennai,Tasmac,13.0261465,80.1749519,"NO.4, Mount Poonamallee Rd, Park Dugar, Ramapuram, Chennai, Tamil Nadu 600089, India"
Chennai,Elite TASMAC Adyar,13.00386,80.25179539999999,"9, Kasturba Nagar 3rd Cross St, Old Narasingapuram, Rukmani Nagar, Adyar, Chennai, Tamil Nadu 600020, India"
Chennai,TASMAC,12.9914849,80.21632029999999,"142, Phoenix Market City St, Indira Gandhi Nagar, Velachery, Chennai, Tamil Nadu 600042, India"
Chennai,TASMAC Wine Shop,13.0476298,80.2455253,"T. Nagar, Chennai, Tamil Nadu 600017, India"
Chennai,Tasmac Elite,13.0825167,80.21381769999999,"147, 2nd Ave, Block AC, AB Block, AC Block, Anna Nagar, Chennai, Tamil Nadu 600040, India"
Chennai,Tasmac,12.9245388,80.12613809999999,"144, Bharathamadha St, Railway Colony, East Tambaram, Tambaram, Chennai, Tamil Nadu 600059, India"
Chennai,Tasmac elite shop,13.027222,80.2588203,"2nd Main Road, opposite to Not Just Brown, Raja Annamalai Puram, RA Puram, Trustpakkam, Mandaveli, Chennai, Tamil Nadu 600028, India"
Chennai,Tasmac elite shop,12.9762175,80.258871,"68, SH 49, ecr road, Valmiki Nagar, Netaji Nagar, Thiruvanmiyur, Chennai, Tamil Nadu 600041, India"
Chennai,Tasmac Wine and Bar,13.0717887,80.20230509999999,"36C2+PW7, Unnamed Road, Koyambedu, Chennai, Tamil Nadu 600107, India"
Chennai,Elite Tasmac shanthi colony,13.0824096,80.2164398,"123AA, 4th Ave, Shanthi Colony, Anna Nagar, Chennai, Tamil Nadu 600040, India"
Chennai,Tasmac outlet,13.0646695,80.2117463,"72, A , 1st floor, 100 Feet Rd, Vadapalani, Chennai, Tamil Nadu 600026, India"
Chennai,Elite TASMAC,13.1002231,80.2939583,"472V+3JJ, Seethakadi Nagar, George Town, Chennai, Tamil Nadu 600001, India"
Chennai,Tasmac,13.0834148,80.2259438,"36MG+998, 1st Main Rd, Chinthamani, D Block, Annanagar East, Chennai, Tamil Nadu 600102, India"
Chennai,Tasmac,13.0561596,80.25589640000001,"3744+F96, Greams Rd, Thousand Lights East, Thousand Lights, Chennai, Tamil Nadu 600006, India"
Chennai,TASMAC,12.986597,80.2228481,"80, Velachery Main Rd, Lakshmi Puram, Velachery, Chennai, Tamil Nadu 600042, India"
Chennai,Tasmac Bar,13.0843345,80.221352,"36MC+PGQ, 2nd Ave, B Block, Annanagar East, Chennai, Tamil Nadu 600030, India"
Chennai,TASMAC Wine Shop & Bar,12.8479882,80.22176139999999,"R6XC+5PR, Thalambur Rd, Navalur, Tamil Nadu 600130, India"
Chennai,Tasmac Elite,12.9043066,80.2283095,"shop(1st Floor, Rajiv Gandhi Salai, above Moda men's ware, Sholinganallur, Chennai, Tamil Nadu 600097, India"
Chennai,Tasmac,13.0573451,80.2038237,"26, Dasarathapuram Main Rd, Saligrammam, Mathiazhagan Nagar, Shanthi Nagar, Vadapalani, Chennai, Tamil Nadu 600026, India"
Chennai,Tasmac AC Bar,13.1148978,80.2315656,"Shop No: 13/33, S.R.P Koil Street South, SRP Koil St N, Agaram, Perambur, Chennai, Tamil Nadu 600082, India"
Chennai,Tasmac,12.979007,80.24302860000002,"Plot No 592 & 593, Ground Floor, near, Pammal Nallathambi St, Thanthai Periyar Nagar, Tharamani, Chennai, Tamil Nadu 600113, India"
Chennai,Tasmac,12.9881266,80.2045492,"X6Q3+7R3, Lakeview Rd, Mohanapuri, New Colony, Adambakkam, Chennai, Tamil Nadu 600088, India"
Chennai,TASMAC,13.0766813,80.22527029999999,"36GG+M4C, Shenoy Nagar, Chennai, Tamil Nadu 600030, India"
Chennai,TASMAC Bar,13.0553609,80.1834287,"354M+49V, Ganapathy St, Dhanalakshmi Nagar, Bhuvaneswari Nagar, Valasaravakkam, Chennai, Tamil Nadu 600095, India"
Chennai,TASMAC,12.905751,80.14267869999999,"W44V+833, New Agaram Road, Yeswanth Nagar, Tambaram, Padmavathi Nagar, Selaiyur, Chennai, Tamil Nadu 600126, India"
Chennai,TAsmac wines,13.0629433,80.2435422,"367V+5CJ, Valluvar Kottam High Rd, Ponnangipuram, Ambal Nagar, Seetha Nagar, Nungambakkam, Chennai, Tamil Nadu 600034, India"
Chennai,Tasmac Tamilnadu Government,13.4307246,79.97324840000002,"CXJF+78J, Dalavai Agraharam, Andhra Pradesh 601202, India"
Chennai,Tasmac Wine Shop,12.9894555,80.1859352,"2, Thurairaj St, Teachers Colony, Pazavanthangal, Chennai, Tamil Nadu 600114, India"
Chennai,Tamilnadu Government Tasmac,13.084099,80.1703352,"35MC+J4P, முகப்பேர், 1st Ave, Mogappair West, Ambattur Industrial Estate, Chennai, Tamil Nadu 600037, India"
Chennai,Tasmac,13.0344945,80.2152651,"31/39, 10th Ave, Sarvamangala Colony, Manthope Colony, Ashok Nagar, Chennai, Tamil Nadu 600083, India"
Coimbatore,Govt Tasmac,11.0231055,76.9510951,"7, Alagesan Rd, Nesavaalar Colony, Saibaba Colony, Coimbatore, Tamil Nadu 641043, India"
Coimbatore,Tasmac Wine Shop,11.0212214,76.9826496,"18, Dr Rajendra Prasad Rd, Parmeshwaran Layout, Venugopal Layout, Pappanaickenpalayam, Coimbatore, Tamil Nadu 641044, India"
Coimbatore,Tasmac Wine Shop,11.0022054,76.94849289999999,"523, Thadagam Main Rd, R.S. Puram, Coimbatore, Tamil Nadu 641002, India"
Coimbatore,Tasmac -Elite,11.0141011,76.9852094,"2X7P+J3W, Bharathiyar Rd, Pappanaickenpalayam, Coimbatore, Tamil Nadu 641037, India"
Coimbatore,TASMAC,11.013552,77.0125487,"2, Subbakonar St, Masakalipalayam, Ram Lakshman Nagar, Masakali Palayam, Coimbatore, Tamil Nadu 641015, India"
Coimbatore,Tasmac Ukkadam,10.9863276,76.9543592,"XXP3+GPH, Perur Bypass Rd, Kempatty Colony, Town Hall, Coimbatore, Tamil Nadu 641008, India"
Coimbatore,Tasmac,10.990988,76.9771438,"XXRG+9VV, Unnamed Road, Shanmuga Nagar, Ramanathapuram, Coimbatore, Tamil Nadu 641018, India"
Coimbatore,Tasmac,10.9920882,76.9606502,"Near, N.h Road, Town Hall, India"
Coimbatore,Elite Tasmac R S Puram Covai,11.0102576,76.9497588,"115, Thiruvenkatasamy Rd W, R.S. Puram, Coimbatore, Tamil Nadu 641002, India"
Coimbatore,Tasmac,11.0339234,76.9748776,"438, Ganapathy, Coimbatore, Tamil Nadu 641006, India"
Coimbatore,TASMAC Liqueur Shop. Wine Shop,11.0910894,76.99676769999999,"3XRW+CPJ, Sahara City, Saravanampatti, Coimbatore, Tamil Nadu 641035, India"
Coimbatore,Elite tasmac,11.0214792,76.9782896,"First floor, Vue Grande, 339, Chinnasamy Naidu Rd, Siddhapudur, Balasundaram Layout, B.K.R Nagar, Coimbatore, Tamil Nadu 641044, India"
Coimbatore,Tasmac Wine Shop,11.0134988,76.9402774,"Shop No, 1690, Marudhamalai Rd, Lawley Rd, Coimbatore, Tamil Nadu 641003, India"
Coimbatore,TASMAC Regional Office,11.046445,76.9458411,"131, 132 Dhayalan Street , Koundampalayam, Coimbatore, Tamil Nadu 641030, India"
Coimbatore,Tasmac,10.9594749,76.9806715,"XX5J+Q7W, Teachers Colony, Sakthi Nagar, Podanur, Tamil Nadu 641024, India"
Coimbatore,Tasmac Bar,11.0395695,76.99539,"32, FCI Rd, Yogi Ram Nagar, VG Rao Nagar, Ganapathy, Coimbatore, Tamil Nadu 641006, India"
Coimbatore,TASMAC Wine shop,11.0205211,76.9676295,"100, 4th St Ext, Tatabad, Gandhipuram, Coimbatore, Tamil Nadu 641012, India"
Coimbatore,Tasmac Bar Wine Shop,10.8827467,76.91316499999999,"VWM7+37V, Nagapattinam - Coimbatore - Gundlupet Hwy, Kollupuram, Sukrawar Pettai, R.S. Puram, Coimbatore, Tamil Nadu 641105, India"
Coimbatore,Tasmac,11.0646958,77.0371006,"327P+VVC, Sharp Nagar, Nehru Nagar West, Coimbatore, Tamil Nadu 641004, India"
Coimbatore,Tasmac Bar,10.9981135,76.9923144,"XXXR+6WV, Police Kandasamy St, Olymbus, Ramasamy Nagar, Puliakulam, Coimbatore, Tamil Nadu 641045, India"
Coimbatore,Tasmac Bar,11.0056247,76.9579542,"2X45+65V, V.C.V Layout, Near to United Traders, Poo Market, VCV Rd, Kaderpet, Coimbatore, Tamil Nadu 641002, India"
Coimbatore,TASMAC,11.0462401,76.94753229999999,"2WWX+G22, Mettupalayam Rd, Venkateswara Nagar, Koundampalayam, Coimbatore, Tamil Nadu 641030, India"
Coimbatore,Tasmac,10.9506089,77.00042289999999,"X222+65V, Sri Krishna Nagar, Chettypalayam, Road, Coimbatore, 641023, India"
Coimbatore,Tasmac,11.1428862,76.95974269999999,"4XV5+5V5, Coimbatore, Tamil Nadu 641022, India"
Coimbatore,Tasmac,11.0342249,77.0040709,"1, Peelamedu Railway Over Brg, Peelamedu, Karrupana Layout, Coimbatore, Tamil Nadu 641004, India"
Coimbatore,TASMAC Regional Office - Coimbatore,11.0339469,77.0004249,"22M2+J53, Coimbatore, Tamil Nadu 641004, India"
Coimbatore,Tasmac,10.9433027,76.9972162,"WXVW+7WV, Srinivasa Nagar, Coimbatore, Podanur, Tamil Nadu 641021, India"
Coimbatore,Tasmac,11.0659078,76.9488501,"3W8X+9G9, Thiruvalluvar St, Pallakattu Thottam, Vellakinar Village, Coimbatore, Tamil Nadu 641029, India"
Coimbatore,TASMAC BAR NEW,11.0315362,77.0165554,"22J8+JJ7, Thaneerpandal Rd, Peelamedu, B.R. Puram Industrial Estate, Coimbatore, Tamil Nadu 641004, India"
Coimbatore,Tasmac,11.0060733,76.992099,"5, PN Palayam Rd, Dhamu Nagar, Puliakulam, Coimbatore, Tamil Nadu 641045, India"
Coimbatore,TASMAC Wine Shop,11.0255424,76.96493339999999,"22/1, Sanganoor Main Rd, Rathinapuri, Tatabad, Coimbatore, Tamil Nadu 641027, India"
Coimbatore,TASMAC,11.0460208,76.98867469999999,"2XWQ+CF7, FCI Rd, Prashakthi Nagar, Ganapathy, Coimbatore, Tamil Nadu 641006, India"
Coimbatore,Tasmac,11.0377546,77.0082153,"22Q5+474, Peelamedu, Gauthama Puri Nagar, Coimbatore, Tamil Nadu 641004, India"
Coimbatore,TASMAC With A/C Bar,11.0435487,77.0471772,"22VW+CV7, Peelamedu, Goldwins, Civil Aerodrome Post, Tamil Nadu 641014, India"
Coimbatore,Elite Tasmac,11.0155558,76.9673376,"2X88+6WG, Nehru St, Ram Nagar, Coimbatore, Tamil Nadu 641009, India"
Coimbatore,TASMAC Goverment Bar,11.191198,76.8504009,"5VR2+F5C, Coimbatore, Tamil Nadu 641113, India"
Coimbatore,Tasmac,11.0224259,77.0218691,"1663, Kamarajar Rd, Near Mani's Theater, Lakshmi Ammal Layout, Hope College, Coimbatore, Tamil Nadu 641004, India"
Madurai,Govt Tasmac,9.9057271,78.13363559999999,"W44M+7FR, West Anuppanadi, Tamil Nadu Housing Board Colony, Anuppanadi, Madurai, Tamil Nadu 625009, India"
Madurai,TASMAC,9.921206399999999,78.1276031,"1st Floors, 157 VJ Towers Munichalai Main Road, opp. to Saratha Ceramic, Madurai, Tamil Nadu 625009, India"
Madurai,TASMAC,9.9345929,78.10488889999999,"W4M3+RXJ, Old Arppalayam, West Ponnagaram, Arappalayam, Madurai, Tamil Nadu 625016, India"
Madurai,Tasmac,9.9156367,78.1200679,"No. 172/A, S Masi St, near Indian Overseas Bank, Valaiyal Kadai, Madurai Main, Madurai, Tamil Nadu 625001, India"
Madurai,TASMAC REGIONAL MANAGERS OFFICES,9.9222915,78.14293579999999,"Plot no.100, Anna Nagar, Sathamangalam, Madurai, Tamil Nadu 625020, India"
Madurai,Tasmac Wine Shop,9.916327599999999,78.15007949999999,"W582+G28, Vandiyur Main Rd, Anna Nagar, Sathamangalam, Madurai, Tamil Nadu 625020, India"
Madurai,Tasmac Wine Shop,9.9377056,78.1451968,"W4QW+33P, Melur Main Rd, KK Nagar, Madurai, Tamil Nadu 625020, India"
Madurai,Tasmac,9.909527899999999,78.12009499999999,"1, Pavukkara St, Mahalipatti, Madurai, Tamil Nadu 625001, India"
Madurai,Tasmac,9.927172599999999,78.09947079999999,"47c T B road, Main Road, opposite to solamalai threatre, arasaradi, Madurai, Tamil Nadu 625016, India"
Madurai,Tasmac,9.945502699999999,78.15588760000001,"W5W4+69, Industrial Estate, Madurai, Tamil Nadu 625007, India"
Madurai,TASMAC,9.9574631,78.0985614,"X34X+XCM, Appathurai Nagar, Koodal Nagar, Madurai, Tamil Nadu 625018, India"
Madurai,Tasmac,9.9440247,78.0993641,"W3VX+JP5, Thikathir, Vilangudi, Madurai, Tamil Nadu 625018, India"
Madurai,Tasmac wineshop,9.917098099999999,78.1056373,"W484+R7J, 9th St, Ponmeni, Mahapupalayam, Madurai, Tamil Nadu 625016, India"
Madurai,TASMAC,9.8829691,78.0993752,"V3MX+5QJ, Avaniyapuram - Thirupparankundram Rd, Madurai, Tamil Nadu 625015, India"
Madurai,TASMAC,9.932409,78.1327572,"W4JM+X46, Chinna Chokikulam, Madurai, Tamil Nadu 625002, India"
Madurai,Tasmac Wines Shop,9.9321407,78.0937512,"216, Opposite P T R Bakery, P P Charadi, Chavadi, Bethaniapuram, Tamil Nadu 625016, India"
Madurai,Tasmac Wine shop,9.922145,78.1295659,"47, 6th St, Meenakshipuram, Madurai, Tamil Nadu 625002, India"
Madurai,TASMAC WINE SHOP,9.9666894,78.1263147,"X48G+MGJ, P and T Nagar Ext Rd, Thabaal Thanthi Nagar, Bama Nagar, Madurai, Tamil Nadu 625017, India"
Madurai,Tasmac Wine Shop,9.9207513,78.1323706,"20, Ponmeni Narayanan St, Meenakshipuram, Navalar Nagar, Madurai, Tamil Nadu 625016, India"
Madurai,Tasmac- wineshop,9.916910699999999,78.13221829999999,"W48J+QV8 signal, Munichalai, Old Kuyavar Palayam Rd, Madurai, Tamil Nadu 625009, India"
Madurai,ELITE SHOP FORIGN LIQUOR,9.9194462,78.1485383,"80 Feet Rd, near Hdfc bank, Anna Nagar, Madurai, Tamil Nadu 625020, India"
Madurai,TASMAC - Anna Bus Stand,9.924276299999999,78.13871619999999,"#1 Subburaman street, Kuruvikkaran Salai, Shenoy Nagar, Madurai, Tamil Nadu 625020, India"
Madurai,Elite shop,9.9179649,78.1127089,"W497+53P, Central Periyar Bus Stand, W Perumal Maistry St, Periyar, Madurai Main, Madurai, Tamil Nadu 625001, India"
Madurai,Government TASMAC Wine Shop,9.8240115,78.0851703,"R3FP+J33, Soorakkulam, Tamil Nadu 625022, India"
Madurai,Tasmac Wines Shop - Kurinji Bar,9.936745499999999,78.1368464,"W4PP+MPX, Alagar Kovil Main Rd, Outpost, Chinna Chokikulam, Madurai, Tamil Nadu 625301, India"
Madurai,Tasmac wines shop,9.9738855,78.0973207,"X3FW+HW5, Alanganallur Main Road, Sikkandar Savadi, Koodal Nagar, Madurai, Tamil Nadu 625018, India"
Madurai,TASMAC Wine Shop,9.929765,78.1668779,"W5H8+WQ6, Karuppayurani, Madurai, Tamil Nadu 625020, India"
Madurai,TASMAC Wine Shop,9.9535171,78.1323639,"X43J+CW5, Reserve Line, Mahalakshmi Nagar, KVR Nagar, Madurai, Tamil Nadu 625014, India"
Madurai,Govt Tasmsc,9.8753212,78.14855539999999,"3, Samanatham, Tamil Nadu 625009, India"
Madurai,Tasmac - Wineshop,9.878860399999999,78.02896849999999,"V2HH+HH2, Fourway Line.Under the Bridge, Service Rd, Thoppur, Tamil Nadu 625008, India"
Madurai,Tasmac,9.908496999999999,78.1219383,"Nagamma Temple, 22-14A, Koil S St, Mahalipatti, Tamil Nadu 625001, India"
Madurai,Elite,9.9305457,78.09502289999999,"Kochi - Madurai - Dhanushkodi Rd, Kalavasal, Madurai, Tamil Nadu 625016, India"
Madurai,Tasmac HeadOffice Madurai,9.850197699999999,78.2272833,"V62G+3W6, Kalugerkadai, Tamil Nadu 630611, India"
Madurai,Tasmac,9.9336574,78.0558348,"W3M4+F89, NH 44, Nagamalaipudukottai, Tamil Nadu 625019, India"
Madurai,govt tasmac,9.9923001,77.934995,"XWRP+W2J, Mudalaikulam, Tamil Nadu 625207, India"
Madurai,TASMAC,9.9153515,78.0957261,"W38W+47X, State Bank Supervisors Colony, Madurai, Tamil Nadu 625016, India"
Madurai,Tasmac Wine Shop,9.932514500000002,78.0962206,"7A, Bypass Rd, near A Maruthi Body Shop, Fathima Nagar, B T, Bethaniapuram, Madurai, Tamil Nadu 625016, India"
Tiruchirappalli,Tasmac (Wine Shop / Bar),10.7962297,78.6842956,"138 Near Daily Thanthi, Junction, Bharathiyar Salai, Sangillyandapuram, Tiruchirappalli, Tamil Nadu 620001, India"
Tiruchirappalli,TASMAC SRM OFFICE TRICHY,10.8002063,78.670307,"RM2C+34M, Ponnagar Extension, Sangillyandapuram, Tiruchirappalli, Tamil Nadu 620020, India"
Tiruchirappalli,TASMAC Elite Shop,10.7706024,78.664561,"78, Ramachandra Nagar, Karumandapam, Tiruchirappalli, Tamil Nadu 620012, India"
Tiruchirappalli,Tasmac Wine Shop,10.7982766,78.6820846,"QMXJ+8R8, McDonalds Rd, near Hotel Annamalai, Melapudur, Sangillyandapuram, Tiruchirappalli, Tamil Nadu 620001, India"
Tiruchirappalli,TASMAC,10.8141204,78.70161519999999,"27, M.P.J. Complex, Thanjavur Rd, Varaganeri, Tiruchirappalli, Tamil Nadu 620008, India"
Tiruchirappalli,Chinthamani Tasmac Elite shop,10.8135718,78.6776964,"RM7H+C3G, Aruna Nagar, Puthur, Bharthi Nagar, Tiruchirappalli, Tamil Nadu 620017, India"
Tiruchirappalli,TASMAC Paalpannai Karumandapam,10.7902735,78.66199979999999,"QMR6+4Q5, Karumandapam, Tiruchirappalli, Tamil Nadu 620001, India"
Tiruchirappalli,Tasmac Wine Shop Asath Nagar,10.764274,78.682732,"QM7M+P35, Sathanur Main Rd, Ayyappa Nagar, K K Nagar, Tiruchirappalli, Tamil Nadu 620021, India"
Tiruchirappalli,TASMAC DEPO,10.7572012,78.8108252,"QR46+V94, Trichy Nit, Tamil Nadu 620014, India"
Tiruchirappalli,TASMAC,10.8253745,78.70003659999999,"7, Babu Rd, Singarathope, Devathanam, Tiruchirappalli, Tamil Nadu 620008, India"
Tiruchirappalli,Tasmac Wine ShopKamaraj Nagar,10.7544634,78.69691929999999,"7, Wireless Rd, Vasantha Nagar, Thendral Nagar, Tiruchirappalli, Tamil Nadu 620007, India"
Tiruchirappalli,Tasmac wine shop,10.8176256,78.6841699,"20C, Tennur Rd Srinivasapuram, St Joseph College Area, Tamil Nadu 620018, India"
Tiruchirappalli,Tasmac,10.7611276,78.68231860000002,"QM6J+FW4, LIC Colony, K K Nagar, Tiruchirappalli, Tamil Nadu 620021, India"
Tiruchirappalli,Tasmac,10.8155737,78.6781749,"RM8H+67F, Bishop Rd, Tennur, Tiruchirappalli, Tamil Nadu 620017, India"
Tiruchirappalli,Tasmac,10.7724788,78.7037381,"45, New Golden Nagar Rd, near Raja Nursery Garden, Thirunagar, Tiruchirappalli, Tamil Nadu 620020, India"
Tiruchirappalli,TASMAC,10.8110292,78.7123713,"No. 44 Old palpannai Dindigul Madurai, 10, Service Rd, Ariyamangalam Area, Tiruchirappalli, Tamil Nadu 620010, India"
Tiruchirappalli,TASMAC,10.8005961,78.7063886,"RP24+6HJ, Sangliandapuram, Sangaliandalpuram, Tiruchirappalli, Tamil Nadu 620001, India"
Tiruchirappalli,TASMAC,10.8061485,78.6253174,"RJ4G+F46, Allithurai, Tamil Nadu 620102, India"
Tiruchirappalli,Moon Bar(Govt Wine Shop),10.805186,78.7055922,"RP44+37C, Mahalakshmi Nagar, Tiruchirappalli, Tamil Nadu, India"
Tiruchirappalli,TASMAC,10.8750878,78.7073042,"VPF4+XWR, No 1 Tollgate, Bikshandarkoil, Tamil Nadu 621216, India"
Tiruchirappalli,TASMAC BAR,10.8187405,78.6969572,"RM9W+FQV, Tharanallur, Tiruchirappalli, Tamil Nadu 620008, India"
Tiruchirappalli,TASMAC,10.7299583,78.72525440000001,"PPHG+X4C, Anna Nagar - Tiruchy IT Park Rd, Gundur, Tamil Nadu 620007, India"
Tiruchirappalli,Tasmac wine shop,10.7916503,78.81731460000002,"QRR8+MW4, thondaimaan patty road, Tiruchirappalli, Tamil Nadu 620013, India"
Tiruchirappalli,Tasmac/Bar/wine shop,10.8137432,78.687249,"NEXA Show Room, No.7, Sivaprakasam Salai, Near PL.A, Anna Nagar Main Road,, Hidayath Nagar, Anna Nagar, Tennur, Tiruchirappalli, Tamil Nadu 620026, India"
Tiruchirappalli,Tasmac Wine Shop,10.8427666,78.6079918,"RJV5+455, Kulumani Main Rd, Tiruchirappalli, Mullikarumbur, Tamil Nadu 639103, India"
Tiruchirappalli,Tasmac wine shop,10.7427803,78.83434369999999,"PRVM+4P3, Trichy - Tanjore Rd, Tamil Nadu 620015, India"
Tiruchirappalli,டாஸ்மாக்,10.796853,78.6802824,"Bus Bay, Rockins Rd, Cantonment, Chennai, Tiruchirappalli, Tamil Nadu 620001, India"
Tiruchirappalli,TASMAC,10.9184093,78.7325307,"VSK Jayanthi Complex, MDR823, Samayapuram, Tamil Nadu 621112, India"
Tiruchirappalli,TASMAC,10.7889065,78.6657426,"Alpha Nagar, Karumandapam, Tiruchirappalli, Tamil Nadu 620001, India"
Salem,Tamil Nadu Tasmac,11.7008026,78.101989,"P422+8RV, Burn's Colony, Salem, Tamil Nadu 636011, India"
Salem,Tasmac,11.6286318,78.16108009999999,"J5H6+FC4, K R Nagar, Seelanaickenpatti, Salem, Tamil Nadu 636006, India"
Salem,TASMAC,11.6678618,78.1375106,"M49Q+42R, Meyyanur, Salem, Tamil Nadu 636005, India"
Salem,Elite TASMAC,11.6675746,78.1498379,"M49X+2WG, Peramanur, Salem, Tamil Nadu 636007, India"
Salem,Tasmac wine shop,11.7118294,78.1764547,"105, Yercaud Main Rd, Kondappanayaganpatty, Salem, Tamil Nadu 636008, India"
Salem,TASMAC Elite,11.659525,78.160388,"M556+R56, Town Railway Station Rd, I Agraharam, Salem, Tamil Nadu 636001, India"
Salem,TASMAC,11.6674082,78.1377038,"M48Q+X38, Swarnapuri, Salem, Tamil Nadu 636016, India"
Salem,Tasmac,11.6513746,78.1084305,"Siddhar Kovil Rd, Sivathapuram, Salem, Tamil Nadu 636307, India"
Salem,Tasmac,11.6803819,78.1294113,"230, Srinagar Main Rd, Narasothipatti, Nedunchalai Nagar, Salem, Tamil Nadu 636005, India"
Salem,Tasmac,11.635055,78.1296313,"1/18, Sankagiri - Salem Main Rd, Kathayammal Nagar, Maniyanur, Salem, Tamil Nadu 636006, India"
Salem,Tasmac wineshop Kondalampatti,11.6303776,78.1245703,"181/254, Coimbatore Rd, South, Sandaipet, Kondalampatti, Salem, Tamil Nadu 636010, India"
Salem,TASMAC,11.5921347,78.07395989999999,"H3RF+VH4, Salem, Tamil Nadu 636308, India"
Salem,TASMAC,11.6698393,78.1904989,"M59R+W5H, Chinnammapet, Allikuttai, Salem, Tamil Nadu 636014, India"
Salem,Tasmac,11.6938151,78.16363609999999,"M5V7+GFF, Yercaud Main Rd, Pon Nagar, Periyakollappatty, Salem, Tamil Nadu 636008, India"
Salem,TASMAC wine shop,11.6741372,78.1042712,"34/22-B periyar Nagar, pud road, near periyandichi kovil, Salem, 636005, India"
Salem,TASMAC,11.648326,78.1183631,"J4X9+899, TNHB Colony, Chengikottai, Kandhampatty, Tamil Nadu 636005, India"
Salem,TASMAC,11.5740536,78.0528853,"H3F3+J5C, Chinnasiragapadi, Salem, Tamil Nadu 636308, India"
Salem,TASMAC,11.7334624,78.05484419999999,"P3M3+9WP, Kullamanickenpatti, Tamil Nadu 636011, India"
Salem,Tamil Nadu Tasmak bar,11.6501058,78.15496399999999,"48, Pillaiyar Kovil 4th St, I Agraharam, Salem, Tamil Nadu 636001, India"
Salem,Tasmac godown,11.6496596,78.1155354,"J4X8+V66, Chengikottai, Salem, Tamil Nadu 636010, India"
Salem,TASMAC Mall shop,11.7812605,78.1997779,"Q5JX+GW2, Mundagapadi, Tamil Nadu 636601, India"
Salem,TASMAC,11.8757432,77.9322327,"VWGJ+7VX, Salem, Tamil Nadu 636451, India"
Salem,Tasmac,11.6116944,78.0004968,"J262+M6C, MDR134, Elampillai, Tamil Nadu 637502, India"
Salem,govt Tasmac,11.2578678,78.15988399999999,"7555+5X2, Swamy Nagar, M. K. Ramasamy Nagar, Tamil Nadu 637001, India"
Salem,"Govt,TASMAC",12.0962897,78.2897007,"37WQ+GV8, Dharmapuri, Tamil Nadu 635303, India"
Salem,Tasmac wine shop,11.5357878,78.1432651,"G4PV+886, Namakkal - Rasipuram - Salem Rd, Mallur, Tamil Nadu 636203, India"
Salem,Tasmac,11.5515793,77.9968361,"HX2W+JPP, NH544, Magudanchavadi, Kanagagiri, Tamil Nadu 637103, India"
Salem,GOVT TASMAC,11.2511989,78.101185,"7422+FFJ, Namakkal, Tamil Nadu 637003, India"
Salem,Wine Shop,11.6595186,78.1573933,"26, Bretts Rd, I Agraharam, Salem, Tamil Nadu 636001, India"
Salem,Tasmac,11.6982874,77.9667722,"MXX8+8P7, Tharamangalam, Tamil Nadu 636502, India"
Salem,TASMAC OFFICE,11.5669846,78.14073929999999,"H48R+QCF, Sandiyur Attayampatti, Tamil Nadu 636203, India"
Salem,Tasmac Government,11.4539846,77.67971829999999,"FM3H+HVW, taluk, Bhavani, Tamil Nadu 638301, India"
Salem,Tasmac,11.7439041,78.0484254,"P2VX+H97, Omalur, Tamil Nadu 636455, India"
Tirunelveli,Government tasmac,8.7296702,77.7100147,"PPH5+VX6, Vannarpettai, Tirunelveli, Tamil Nadu 627001, India"
Erode,ELITE TASMAC,11.3303872,77.6750143,"8MJG+526, Maruthi Nagar, Thindal, Erode, Tamil Nadu 638004, India"
Erode,Tasmac Wine Shop,11.345626,77.719214,"8PW9+6MW, Erode Fort, Erode, Tamil Nadu 638001, India"
Erode,Tasmac,11.3326608,77.7196179,"8PM9+3R9, Periyar Nagar, Erode, Tamil Nadu 638001, India"
Erode,Tasmac Wine Shop,11.3261341,77.70112329999999,"8PG2+FF2, EB Officer's Colony, Palayapalayam, Erode, Tamil Nadu 638011, India"
Erode,Tasmac Veerappampalayam,11.3301988,77.69148779999999,"8MJR+4HQ, Maruthi Nagar, Thindal, Erode, Tamil Nadu 638011, India"
Erode,TASMAC BAR,11.3191089,77.7297858,"8P9H+JWF, Erode Main Rd, Housing Unit, Moolapalayam, Nadarmedu, Erode, Tamil Nadu 638002, India"
Erode,TASMAC,11.3216059,77.7508732,"8QC2+M93, Solar Pirivu, Erode, Tamil Nadu 638002, India"
Erode,Tasmac.Wine Shop,11.3670286,77.696955,"Ganirauttar Kulam, Sathyamangalam road, Asokapuram, Erode, Tamil Nadu 638005, India"
Erode,TASMAC,11.3333312,77.76080569999999,"Erode to Kokkarayanpettai road (Kaveri river) Bridge, Erode-Kokkarayanpettai Rd, Tamil Nadu 638007, India"
Erode,TASMAC,11.3574763,77.69071620000001,"9M4Q+VX4, Erode, Tamil Nadu 638004, India"
Erode,Tasmac,11.3447894,77.7185495,"8PV9+WC7, Erode Fort, Erode, Tamil Nadu 638001, India"
Erode,Tasmac Government,11.4539846,77.67971829999999,"FM3H+HVW, taluk, Bhavani, Tamil Nadu 638301, India"
Erode,Tasmac Bar,11.3261262,77.70112329999999,"8PG2+FF2, EB Officer's Colony, Palayapalayam, Erode, Tamil Nadu 638011, India"
Erode,Tasmac,11.3737539,77.70522799999999,"9PF4+G38, Bhavani Main Rd, Erode, Tamil Nadu 638005, India"
Erode,TASMAC,11.3600415,77.7129652,"9P67+253, Bhavani Main Rd, Veerappanchatram, Erode, Tamil Nadu 638001, India"
Erode,Govt. Wine Shop 3477,11.3484331,77.72002169999999,"8PXC+92C, Thirunagar Colony, Erode, Tamil Nadu 638001, India"
Erode,Tasmac,11.3297998,77.72473579999999,"Bus Stop, Erode Railway Station, Erode-Chennimalai Rd, Periyar Nagar, Erode, Tamil Nadu 638001, India"
Erode,Tasmac Wine Shop,11.2806925,77.58784179999999,"7HJQ+749, chunnamboo oodai, Bhavani Main Rd, Erode, India"
Erode,Tasmac,11.3829242,77.6506797,"9MM2+57F, Ganapathi nagar sellappanpalayam, Chithode, Tamil Nadu 638102, India"
Erode,Tasmac,11.4427808,77.66965859999999,"CMV9+4RQ, Kalingarayanpalayam, Moolapalayam, Bhavani, Tamil Nadu 638316, India"
Erode,TASMAC wineshop BAR,11.4092414,77.4292462,"CC5H+MMX, Erode, Tamil Nadu 638456, India"
Erode,Wine Shop Govt,11.5678736,77.60213639999999,"HJ92+5V2, Erode, Tamil Nadu 638314, India"
Erode,TASMAC Government Wine Shop,11.3236333,77.6812246,"8MFJ+FF9, Maruthi Nagar, Nalliyampalayam, Erode, Tamil Nadu 638012, India"
Erode,TASMAC,11.3084134,77.72590009999999,"8P5G+996, State Highway 37, Chettipalayam, Erode, Kurikaranpalayam, Tamil Nadu 638002, India"
Tiruppur,Goverment Tasmac,11.1434313,77.3417493,"48VR+9MF, Vengamedu, Poyampalayam, Tiruppur, Chettipalayam, Tamil Nadu 641603, India"
Vellore,Tasmac,12.93723,79.1461827,"W4PW+VFV, Tamil Nadu Housing Board, Vellore, Tamil Nadu 632012, India"
Vellore,Tasmac Wine Shop Updated,12.9337652,79.1351025,"W4MP+G25, Vevekanandar Nagar, Thottapalayam, Vellore, Tamil Nadu 632012, India"
Vellore,Vellor Tasmac Office,12.9291899,79.1342702,"W4HM+MPC, Thottapalayam, Vellore, Tamil Nadu 632012, India"
Vellore,"Tasmac Mall Shop, Vellore, N/Srinivasa Theatre",12.93303,79.1484583,"W4MX+58P, Kagithapatarai, Vellore, Tamil Nadu 632012, India"
Vellore,Tasmac,12.9117603,79.0747572,"W36F+PW6, Unnamed Road, Abdullah Puram, Vellore, Tamil Nadu 632010, India"
Vellore,TASMAC,12.8105402,79.1329637,"R46M+65P, Kaniyambadi, Vellore, Tamil Nadu 632102, India"
Vellore,TASMAC wine shop,12.9600029,79.1593412,"Phase 3 St, Vaibhav Nagar, Katpadi, Vellore, Tamil Nadu 632014, India"
Vellore,Tasmac,12.8436803,79.1099582,"R4V5+FXH, Amirthi Rd, Pennathur, Tamil Nadu 632058, India"
Vellore,Tasmak Wineshop With Bar,12.8564292,79.0910608,"V34R+HCF, Vellore, Tamil Nadu 632058, India"
Vellore,Wine shop,12.9671099,79.1283605,"X48H+R8X, Unnamed Road, Katpadi, Vellore, Tamil Nadu 632006, India"
Vellore,Tasmac,12.8717632,79.048003,"V2CX+P62, SH 207, Thellur, Tamil Nadu 632105, India"
Vellore,"IMFS Depot, TASMAC Ltd.,",12.9162583,79.13423709999999,"39/4, Filter Bed Road, Vellore, Tamil Nadu 632001, India"
Thoothukudi,Tasmac Govt,8.8376421,78.1421847,"R4QR+3V3, Davis Puram, Thoothukudi, Tamil Nadu 628002, India"
Thoothukudi,Wine Shop TASMAC,8.8216553,78.1474544,"R4CW+MXG, Thalamuthu Nagar, Thoothukudi, Tamil Nadu 628002, India"
Thoothukudi,Tasmac,8.8122422,78.1426559,"R46V+V3R, TMC Colony, Ezhil Nagar, Thoothukudi, Tamil Nadu 628002, India"
Thoothukudi,TASMAC,8.799347,78.13229799999999,"Q4XJ+PWM, Chidambara Nagar, Subbiah Puram, Thoothukudi, Tamil Nadu 628008, India"
Thoothukudi,Wines Shop TASMAC,8.810191699999999,78.13914630000001,"R46Q+3MC, Polpettai East, Thoothukudi, Tamil Nadu 628002, India"
Thoothukudi,TASMAC WINE SHOP,8.8040203,78.15392229999999,"R533+JH3, Thoothukudi, Tamil Nadu 628001, India"
Thoothukudi,TASMAC SPICNAGAR,8.7395921,78.12205019999999,"P4QC+RRM, Spic Nagar, Muthiahpuram, Thoothukudi, Tamil Nadu 628005, India"
Thoothukudi,Thoothukudi Tasmac godown,8.8070623,78.0894228,"R34Q+RQF, Madathur, Thoothukudi, Tamil Nadu 628002, India"
Thoothukudi,Tasmac District Manager Office,8.807153699999999,78.089563,"R34Q+VR8, Udumalapetai, Madathur, Thoothukudi, Tamil Nadu 628002, India"
Nagercoil,TASMAC Time Pass Bar,8.1886873,77.4346868,"Avai Shanmugam Salai, Ozhuginasery, Nagercoil, Tamil Nadu 629001, India"
Nagercoil,TASMAC ELITE SHOP,8.1935335,77.4270058,"SP Plaza Mall, Nagercoil, Tamil Nadu 629001, India"
Nagercoil,TASMAC BAR,8.1957532,77.40906849999999,"5CW5+8J4, Railway Crossing, Parvathipuram, Nagercoil, Tamil Nadu 629502, India"
Nagercoil,TASMAC Government Wine Shop,8.0820809,77.53834189999999,"3GJQ+R8F, Kovalam Rd, Puthugramam, Kanniyakumari, Tamil Nadu 629702, India"
Nagercoil,Tasmac bar,8.190321899999999,77.436911,"King Nagar, 86/88A, Police Station Rd, Ozhuginasery, Nagercoil, Tamil Nadu 629001, India"
Nagercoil,TASMAC BAR,8.1636159,77.4294156,"5C6H+67W, Vattakarai, Melmidalam, Nagercoil, Tamil Nadu 629002, India"
Nagercoil,TASMAC,8.147531899999999,77.5487472,"4GXX+2F9, Anjugramam - Nagercoil Rd, Azhagappapuram, Tamil Nadu 629401, India"
Nagercoil,TASMAC,8.1598641,77.4704505,"5F5C+W5W, E Coast Rd, Marungur, Tamil Nadu 623406, India"
Nagercoil,TASMAC LIQUOR SHOP,8.1226412,77.53732579999999,"4GFP+3W8, Vattakottai Rd, Kottaram, Nari Kulam, Tamil Nadu 629401, India"
Nagercoil,Tasmac,8.109983999999999,77.4878342,"4F6Q+244, Kaliakkavilai, Thamaraikulam, Tamil Nadu 629701, India"
Nagercoil,TASMAC BAR,8.1865127,77.4304366,"5CPJ+J53, Puthukudierupu, Nagercoil, Tamil Nadu 629001, India"
Nagercoil,TASMAC BAR,8.1747269,77.43081280000001,"362 A, First floor, opposite to Rajas Mall, Chetti Kulam, Simon Nagar, Nagercoil, Tamil Nadu 629001, India"
Thanjavur,Government tasmac,10.7624246,79.14006429999999,"Q46R+X28, Philomina Nagar, Thanjavur, Tamil Nadu 613007, India"
Thanjavur,Govt Tasmac,10.7477303,79.0626322,"P3X7+33V, Thanjavur, Tamil Nadu 613403, India"
Thanjavur,TASMAC,10.748994,79.1129941,"Bus Stand, Thanjavur New, New Bus Stand Rd, AVP Azhagammal Nagar, Thanjavur, Tamil Nadu 613004, India"
Thanjavur,Govt TASMAC,10.760482,79.1036444,"Q463+6C5, Gandhipuram, Thanjavur, Tamil Nadu 613004, India"
Dindigul,TASMAC Wine Shop,10.374992,77.9760191,"9XFG+XCR, RM Colony, Dindigul, Tamil Nadu 624004, India"
Dindigul,Tasmac Wine Shop,10.3657041,77.9665964,"9X88+7JH, NH-209, Begambur, Tamil Nadu 624001, India"
Dindigul,Tasmac,10.388727,77.9782872,"9XQH+F86, Chinniahpuram, Dindigul, Tamil Nadu 624004, India"
Dindigul,Tasmac,10.3643802,77.9728865,"13c, N Kaliamman Koil St, New Agraharam, Ashok Nagar, Dindigul, Begambur, Tamil Nadu 624001, India"
Dindigul,Tamil Nadu State Marketing Corporation Limited,13.0772206,80.26506119999999,"37G8+V2M, IV Floor, CMDA Tower-II, Gandhi Irwin Bridge Road, Triplicane, Egmore, Chennai, Tamil Nadu 600008, India"
Dindigul,Tasmac 4,10.3620824,77.97882129999999,"9X6H+RGP, Spencer Compound, Dindigul, Tamil Nadu 624001, India"
Dindigul,Tasmac shop,10.4422506,77.5482354,"CGRX+W75, Dindigul, Tamil Nadu 624601, India"
Dindigul,TNMSC District Drug Warehouse,10.3646157,77.9751926,"Gobala Samudram Tank, near Government Head Quarters Hospital, New Agraharam, Dindigul, Begambur, Tamil Nadu 624001, India"
Dindigul,Tasmac govt,10.239175,77.49773929999999,"6FQX+M46, Kodaikanal, Tamil Nadu 624101, India"
Dindigul,Government Tasmac,10.0082371,77.3626548,"2957+732, Meenakshipuram, Tamil Nadu 625513, India"
Dindigul,Tasmac outlet,13.0646695,80.2117463,"72, A , 1st floor, 100 Feet Rd, Vadapalani, Chennai, Tamil Nadu 600026, India"
Dindigul,TASMAC,10.2935917,77.8711758,"7VVC+CFV, MDR687, Jivalsaragu, Tamil Nadu 624707, India"
Dindigul,Government TASMAC Wine Shop,9.8240115,78.0851703,"R3FP+J33, Soorakkulam, Tamil Nadu 625022, India"
Dindigul,Tasmac,10.2826483,77.91901849999999,"7WM9+3J2, Poonjolai, Chinnalapatti, Tamil Nadu 624301, India"
Dindigul,Tasmac,10.3338605,77.97513289999999,"8XMG+G3R, Unnamed Road, Nallama Nayakkan Patti, Tamil Nadu 624003, India"
Ranipet,Tasmac,12.9545879,79.3276893,"X83H+R3Q, Ranipet, Tamil Nadu 632401, India"
Ranipet,Tasmac,12.9492001,79.3104831,"W8X6+M5Q, Sipcot, Ranipet, Tamil Nadu 632401, India"
Ranipet,TASMAC SHOP,12.9658806,79.33564,"X88P+972, Unnamed Road, Ammoor, Tamil Nadu 632404, India"
Ranipet,"Tasmac wine shop, Lalapettai",12.9920114,79.2969348,"X7RW+RQ4, Ranipet, Tamil Nadu 632405, India"
Ranipet,Ranipet wine shop,12.9200126,79.3297673,"W8CH+2W2, Palar Bridge, Ranipet, Tamil Nadu 632401, India"
Ranipet,Arakonam Tasmac godown,12.9567456,79.31428880000001,"X847+MPV, Ranipet, Tamil Nadu 632401, India"
Karur,Tasmac,10.9532796,78.0952527,"X33W+846, Kulantha Goundanoor, Karur, Tamil Nadu 639004, India"
Karur,Tasmac,10.7114608,78.002752,"P263+H3Q, Karur, Tamil Nadu 639203, India"
Karur,Karur Tasmac godown,10.9593482,78.1089819,"X455+PHQ, Thozilpettai, Karur, Tamil Nadu 639004, India"
Karur,TASMAC ELITE SHOP,10.96063,78.0727747,"X36F+742, Karur, Tamil Nadu 639002, India"
Karur,Tasmac Wines,10.9404511,78.0911338,"W3RR+5FJ, Jeeva Nagar, Karur, Tamil Nadu 639007, India"
Karur,TASMAC Elite,10.9597785,78.0800563,"257, Jawahar Bazaar Rd, Madavilagam, Karur, Tamil Nadu 639001, India"
Karur,Wine shop Tasmac,10.9645712,78.04898229999999,"Kongu Nagar, 251/2, Reddipalayam, Karur, Tamil Nadu 639002, India"
Karur,TASMAC,10.947119,78.1030691,"W4W3+R67, Trichy Rd, Tamil Nadu Housing Board Colony, Gandhigramam, Karur, Tamil Nadu 639004, India"
Karur,TASMAC 5025,10.9474709,78.0756708,"W3WG+X7V, Thirumanchanalur, Karur, Tamil Nadu 639007, India"
Karur,TASMAC,10.9282402,78.09232109999999,"W3HR+7WW, SH74, Bharathidasan Nagar, Karur, Tamil Nadu 639007, India"
Karur,Tasmac,10.9395833,78.1458244,"W4QW+R83, Trichy - Karur Main Rd, Puliyur, Tamil Nadu 639114, India"
Karur,Tasmac,10.9393257,78.2335966,"W6QM+PCQ, Trichy - Karur Main Rd, Mayanur, Tamil Nadu 639108, India"
Karur,Tasmac Karur Rod,10.9893841,77.5831828,"XHQM+Q73, Tamil Nadu 638701, India"
Karur,Tasmac,10.9487803,77.90505189999999,"WWX4+G27, Tamil Nadu 639111, India"
Karur,govt Tasmac,11.2578678,78.15988399999999,"7555+5X2, Swamy Nagar, M. K. Ramasamy Nagar, Tamil Nadu 637001, India"
Karur,GOVT TASMAC,11.2511989,78.101185,"7422+FFJ, Namakkal, Tamil Nadu 637003, India"
Karur,Tasmac,11.0595852,77.9467592,"3W5W+RPJ, SH 172A, Vettamangalam East, Tamil Nadu 639117, India"
Udhagamandalam,TASMAC Wine Shop,11.4127506,76.7049622,"CP73+4X4, Summer House Colony, Upper Bazar, Ooty, Tamil Nadu 643001, India"
Udhagamandalam,Ooty Govt Tasmac retailoutlet,11.4114076,76.7028046,"37, Hospital Rd, Upper Bazar, Ooty, Tamil Nadu 643001, India"
Udhagamandalam,Tasmac shop 8258,11.4052061,76.6962162,"Peyton's, Peytons Hill Rd, Kathadimattam, Ooty, Tamil Nadu 643001, India"
Udhagamandalam,Govt Wine Shop,11.4050263,76.69671009999999,"CM4W+2M8, Upper Bazar, Ooty, Tamil Nadu 643001, India"
Udhagamandalam,TASMAC Wine Shop,11.4041006,76.70031569999999,"CP32+J4P, Commercial Rd, Upper Bazar, Ooty, Tamil Nadu 643001, India"
Udhagamandalam,TASMAC Godown,11.4131624,76.6982799,"CM7X+67X, Bunk Rd, Upper Bazar, Baran, Ooty, Tamil Nadu 325205, India"
Udhagamandalam,Liquor shop,11.4029957,76.70321899999999,"CP33+57W, Elk Hill Rd, Davisdale, Ooty, Tamil Nadu 643001, India"
Udhagamandalam,Tasmac,11.4081317,76.7050477,"CP53+8WQ, Upper Bazar, Ooty, Tamil Nadu 643001, India"
Hosur,TASMAC,12.7849142,77.80238589999999,"QRM2+XX6, Sikiraman circle, Begepalli, Hosur, Tamil Nadu 635126, India"
Hosur,Tasmac,12.7242036,77.8451681,"PRFW+M3M, SLV Layout, Sanasandiram, Hosur, Tamil Nadu 635109, India"
Hosur,Wine shop (TASMAC),12.7377417,77.8154696,"PRQ8+35P, New ASTC Hudco, SBM Colony, Anthivadi, Appavu Nagar, Hosur, Tamil Nadu 635109, India"
Hosur,Tasmac,12.7085597,77.8412085,"PR5R+CFX, Old Rayakottah Hudco, Hosur, Tamil Nadu 635109, India"
Hosur,Tasmac Wine Shop,12.7275144,77.8552277,"PVH4+235, Moranapalli, Hosur, Tamil Nadu 635109, India"
Hosur,Basthi TASMAC wines,12.7463928,77.8392382,"PRWQ+HP3, Avalapalli Hudco, Tamil Nadu 635109, India"
Hosur,TASMAC,12.7046182,77.7825932,"PQ3M+V25, Hosur - Thally Rd, Karnoor, Tamil Nadu 635126, India"
Hosur,Tasmac,12.7161909,77.8951306,"PV8W+F3C, Bukkasandiram Road, Perandapalli, Moranapalli, Tamil Nadu 635109, India"
Kanchipuram,Tasmac - Govt. Wine Shop,12.4261919,79.8408527,"CRGR+F8H, Kanchipuram, Tamil Nadu 603301, India"
Kanchipuram,Tasmac Wine Shop,12.8428739,79.7025573,"RPV3+63Q, Periya, Kanchipuram, Tamil Nadu 631502, India"
Kanchipuram,TASMAC,12.3898556,79.88925549999999,"9VQQ+WPR, Kanchipuram, Tamil Nadu 603313, India"
Kanchipuram,"Tasmac, Thiruporur",12.7329535,80.1812317,"P5MJ+5FQ, Kanchipuram, Tamil Nadu 603110, India"
Kanchipuram,TASMAC,12.8121449,79.6999183,"sitco estate, Gem Nagar, Sevlimedu, Kanchipuram, Tamil Nadu 631502, India"
Kanchipuram,TASMAC Government Wine Shop,13.2606756,80.2895995,"R S, Main Road, Attipattu, Chennai, Nandiambakkam, Tamil Nadu 600120, India"
Kanchipuram,Tasmac,12.5557508,80.13481949999999,"H44M+8W2, Kanchipuram, Tamil Nadu 603127, India"
Kanchipuram,TASMAC,13.0153928,80.2472665,"268W+5W2, Ellaiamman Koil St, Kotturpuram, Chennai, Tamil Nadu 600085, India"
Kanchipuram,Tasmac wine Shop,12.8040836,79.68016109999999,"No 55 sri ganga nager Sevilimedu, palaru bridge, Kanchipuram, Tamil Nadu 631502, India"
Kanchipuram,Tasmac,13.0656166,80.2738241,"No. 19, Triplicane High Rd, Ellis Puram, Padupakkam, Triplicane, Chennai, Tamil Nadu 600005, India"
Kanchipuram,TASMAC,12.9812505,80.1475975,"X4JX+G25, Mallika Nagar, Meenambakkam, Chennai, Tamil Nadu 600016, India"
Kanchipuram,TASMAC(Shop No:4188),12.8143303,79.6883241,"RM7Q+P8P, Gem Nagar, Kanchipuram, Tamil Nadu 631502, India"
Kumbakonam,Tasmack,10.9564117,79.38535069999999,"43/746, Rajapondy Nagar, Kumbakonam, Tamil Nadu 612001, India"
Kumbakonam,Tasmac,10.9647623,79.4308436,"XC7J+W89, Thirunageswaram, Thepperumanallur, Tamil Nadu 612204, India"
Kumbakonam,TASMAC,10.9624472,79.2981057,"ThiruAarooraan Sugar Factory, Thiruvaigavur, Umayalpuram, Tamil Nadu 612301, India"
Kumbakonam,TASMAC,10.9297568,79.30354489999999,"W8H3+WC3, Nallur, Tamil Nadu 614207, India"
Kumbakonam,Government tasmac,10.7624246,79.14006429999999,"Q46R+X28, Philomina Nagar, Thanjavur, Tamil Nadu 613007, India"
Kumbakonam,TASMAC Bar,10.8925321,79.4000629,"VCV2+228, SH 66, Valangaiman, Tamil Nadu 612402, India"
Kumbakonam,Tasmac,10.933888,79.2814844,"W7MJ+HH5, Uththani, Tamil Nadu 614205, India"
Kumbakonam,TASMAC Godown,10.9902349,79.4299747,"XCRH+3XX, Thirubuvanam, Tamil Nadu 612103, India"
Kumbakonam,Govt tasmac,10.9490852,79.32621089999999,"W8XG+JFP, Thiruvalanjuli, Kumbakonam, Tamil Nadu 612302, India"
Kumbakonam,Tasmac,10.955323,79.3911756,"132c, Kamaraj Rd, John Selvaraj Nagar, Kumbakonam, Tamil Nadu 612001, India"
Nagapattinam,Government tasmac,10.7710198,79.7397768,"QPCQ+CW2, Aniamangalam - Vadakkuveli - Kizha Velur Rd, Vadakkuveli, Tamil Nadu 611104, India"
Nagapattinam,TASMAC,11.0675461,79.8126417,"3R97+236, Nagapattinam, Tamil Nadu 609311, India"
Nagapattinam,TASMAC,10.6818075,79.8330015,"29 east coast road 611111, Velankanni, Tamil Nadu, India"
Nagapattinam,Tasmac,10.6860628,79.77031989999999,"MQPC+C4G, Sembiyamahadevi, Tamil Nadu 611109, India"
Pudukkottai,TASMAC SHOP,10.3682593,78.81268659999999,"9R97+833, Poonga Nagar, Pudukkottai, Tamil Nadu 622003, India"
Pudukkottai,TASMAC SHOP,10.3786852,78.8148059,"5/B1, Sipcot Phase II Industrial Complex, Santhanathapuram, Pudukkottai, Tamil Nadu 622002, India"
Pudukkottai,TASMAC Shop,10.2711847,78.81764919999999,"7RC9+F3R, Pudukkottai, Tamil Nadu 622506, India"
Pudukkottai,Veerathamizhan sports club tasmac,10.3674793,78.8130742,"7/A1, Poonga Nagar, Pudukkottai, Tamil Nadu 622003, India"
Pudukkottai,Government tasmac,10.7624246,79.14006429999999,"Q46R+X28, Philomina Nagar, Thanjavur, Tamil Nadu 613007, India"
Pudukkottai,TASMAC Cauvery Nagar,10.475434,78.7955844,"Cauvery Nagar, Tamil Nadu 622501, India"
Pudukkottai,Government tasmac,10.541548,79.28063209999999,"G7RJ+J76, Pappanadu, Nemilithippiakudi, Tamil Nadu 614626, India"
Pudukkottai,TASMAC WINE SHOP,10.3861618,78.81916609999999,"9RP9+FM7, Wadair Santha, Brindavan, Pudukkottai, Tamil Nadu 622001, India"
Sivakasi,Tasmac,9.44741,77.80156989999999,"12-C/6, Gandhi Rd, Parapatti, Sivakasi, Tamil Nadu 626123, India"
Sivakasi,TASMAC,9.451624899999999,77.80010720000001,"FR22+J2X, Old Virudhunagar Rd, Senayapuram Colony, Sivakasi, Tamil Nadu 626123, India"
Sivakasi,TASMAC,9.4611514,77.7723456,"FQ6C+FW5, Gandhinagar, Sivakasi, Tamil Nadu 626124, India"
Sivakasi,Tasmac,9.4613993,77.8062254,"86, Srivilliputhur - Sivakasi - Virudhunagar - Aruppukottai - Tiruchuli - Narikudi - Parthibanoor Rd, National Colony, Kamarajapuram Colony, Sivakasi, Tamil Nadu 623501, India"
Sivakasi,TASMAC with New Hi-tech bar,9.480682,77.82510660000001,"62, Alamarathupatti Road, near periyar colony, Thiruthangal, Sivakasi, Tamil Nadu 626130, India"
Sivakasi,TASMAC,9.388898,77.90719229999999,"9WQ4+HV4, Sattur - Sivakasi - Kalugumalai Rd, N Mettupatti, Tamil Nadu 626203, India"
Sivakasi,Ge Kay Oyasis Club,9.4460914,77.8019954,"Bus stand, 5B Gandhi road, back side of Sivakasi main, Sivakasi, Tamil Nadu 626123, India"
Cuddalore,TASMAC Wine Shop,11.7444317,79.756676,"PQV4+QMF, Thirupapuliyur, Cuddalore, Tamil Nadu 607002, India"
Cuddalore,Govt tasmac,11.9147774,79.4888498,"WF7Q+WGX, Durai Arasan Nagar, Sri Ram Nagar, Viluppuram, Tamil Nadu 605602, India"
Cuddalore,Govt Tasmac,11.6272711,79.6712826,"JMGC+VGR, Kullanchavadi Rd, Kullanchavadi, Tamil Nadu 607301, India"
Cuddalore,Govt.Tasmac,11.9566052,79.4959693,"ware Housing Corporation, 59 A, Compartment No.II, Chennai Trunk Rd, Viluppuram, Tamil Nadu 605602, India"
Cuddalore,TASMAC,11.684085,79.7563662,"MQM4+MH7, Kudikadu, Tamil Nadu 607003, India"
Ambur,Tasmac,12.7816186,78.71509089999999,"#22 kpj complex, rajagopal achari street, Ambur Bypass Rd, Ambur, Tamil Nadu 635802, India"
Tiruvannamalai,Government,12.2267544,79.0667124,"63G8+MMV, Pavazhakundur, Tiruvannamalai, Tamil Nadu 606601, India"
Tiruvannamalai,Premium Tasmac,12.2761384,79.07371169999999,"73GF+FF4, Tiruvannamalai Bypass, Vengikkal, Tiruvannamalai, Tamil Nadu 606604, India"
Tiruvannamalai,New Tasmac godown,12.2062458,79.0252342,"624G+G35, Tiruvannamalai, Tamil Nadu 606603, India"
Tiruvannamalai,Tasmac depot,12.2058034,79.02526139999999,"624G+84C, Tiruvannamalai, Tamil Nadu 606603, India"
Tiruvannamalai,TASMAC Godown,12.2382421,79.085663,"63QP+77V, Kilnathur, Tiruvannamalai, Tamil Nadu 606601, India"
Tiruvannamalai,TASMAC (GOVERNMENT WINE SHOP),12.2666869,78.7406735,"7P8R+M7F, Tiruvannamalai, Tamil Nadu 606703, India"
Rajapalayam,TASMAC,9.436138699999999,77.5554938,"CHP4+C6M, PSK Nagar, Indra Nagar, Rajapalayam, Tamil Nadu 626117, India"
Rajapalayam,Tasmac,9.4648168,77.5353858,"FG7P+W56, Ayyanar Kovil Rd, Thiruvalluvar Nagar, Rajapalayam, Tamil Nadu 626117, India"
Rajapalayam,TASMAC,9.4520833,77.5599525,"FH25+RXP, T.P. Mills Rd, Rajapalayam, Tamil Nadu 626117, India"
Rajapalayam,TASMAC,9.454788899999999,77.556241,"FH34+WF5, RJPM Bus Station to Bypass Rd, Rajapalayam, Tamil Nadu 626117, India"
Rajapalayam,TASMAC,9.462343599999999,77.5329252,"FG6M+W5M, Vadakku Venganallur, Tamil Nadu 626117, India"
Pollachi,TASMAC,10.661144,77.0020248,"30, Municipal Office Rd, Palaghat, Pollachi, Tamil Nadu 642001, India"
Pollachi,Tasmac,10.648177,77.0073815,"122, Kottur Road, Alagappa Colony, Pollachi, Tamil Nadu 642001, India"
Pollachi,TASMAC,10.6610194,76.9769465,"MX6G+CQ7, Zamin Uthukuli, Tamil Nadu 642005, India"
Pollachi,Tasmac Depot Pollachi,10.6904288,77.01148789999999,"M2R6+5GQ, Guruvayoor Appan Nagar, Sundaram Nagar, Jeeva Nagar, Tamil Nadu 642002, India"
Pollachi,Tasmac,10.6559512,77.0035326,"Vinayagar Kovil, Tamil Nadu 642001, India"
Pollachi,TASMAC,10.550905,76.9974624,"HX2W+8XW, Thensangampalayam, Tamil Nadu 642007, India"
Pollachi,TASMAC,10.5390015,76.99480969999999,"GXQV+JW3, Angalakuruchi Rd, Tamil Nadu 642007, India"
Pollachi,Tasmac,10.6947244,77.0531385,"M3V3+V7J, Vellalapalayam, Thoppampatti, Tamil Nadu 642120, India"
Pollachi,TASMAC,10.6568824,77.0118449,"M246+QP5, Pollachi - Udumalpet Rd, Marapettai, Pollachi, Tamil Nadu 642001, India"
Gudiyatham,Tasmac wine shop,12.9368531,78.8881718,"WVPQ+P7M, Unnamed Road, Vaidheeswaran Nagar, Gudiyatham, Tamil Nadu 632602, India"
Gudiyatham,Wine shop,12.9393654,78.8704248,"WVQC+P5V, Bosepet, Gudiyatham, Tamil Nadu 632602, India"
Gudiyatham,Tasmac,12.9590192,78.8781,"XV5H+H6G, Tharanampet, Gudiyatham, Tamil Nadu 635803, India"
Dharmapuri,"Govt,TASMAC",12.0962897,78.2897007,"37WQ+GV8, Dharmapuri, Tamil Nadu 635303, India"
Dharmapuri,government Tasmac,12.2959386,78.2173801,"76W8+9XC, Dharmapuri, Tamil Nadu 635111, India"
Dharmapuri,TASMAC WINE SHOP,12.1366774,78.1612837,"Dharmapuri, Tamil Nadu 636701, India"
Dharmapuri,GOVERMENT WINE SHOP MAIN UNIT DPI,12.097505,78.11710599999999,"34X8+2R5, Dharmapuri - Jarugu - Hogenakkal Rd, Thadangam, Tamil Nadu 636803, India"
Dharmapuri,Tasmac,12.2623779,78.0664158,"7368+XH3, Dharmapuri, Tamil Nadu 636808, India"
Arakkonam,Wine Shops,13.0752392,79.6558242,"3MG4+38W, SH 61, Winterpet, Arakkonam, Tamil Nadu 631001, India"
Arakkonam,Tasmac - Govt. Wine Shop,12.4261919,79.8408527,"CRGR+F8H, Kanchipuram, Tamil Nadu 603301, India"
Arakkonam,TASMAC,13.1585624,79.6204255,"5J5C+F5P, Thiruttani, Tamil Nadu 631211, India"
Arakkonam,Tasmac kumilipettai,13.0905386,79.6238906,"3JRF+6H6, Unnamed Road, Thandalam, Tamil Nadu 631003, India"
Arakkonam,Tasmac Tamilnadu Government,13.4307246,79.97324840000002,"CXJF+78J, Dalavai Agraharam, Andhra Pradesh 601202, India"
Arakkonam,tasmac,12.9890285,79.6014115,"XJQ2+JH7, MDR577, Kilkalathur, Tamil Nadu 631005, India"
Arakkonam,Tasmac,12.9711214,79.609483,"XJC5+CQX, Vettangulam, Tamil Nadu 631051, India"
Arakkonam,Government Wineshop TasMark,12.9796768,79.93722570000001,"XWHQ+R7Q, Nemili, Tamil Nadu 602105, India"
Arakkonam,TASMAC,12.9812505,80.1475975,"X4JX+G25, Mallika Nagar, Meenambakkam, Chennai, Tamil Nadu 600016, India"
Arakkonam,TASMAC Government Wine Shop,13.2606756,80.2895995,"R S, Main Road, Attipattu, Chennai, Nandiambakkam, Tamil Nadu 600120, India"
Arakkonam,Tasmac Wineshop,13.0293361,79.95891809999999,"2XH5+PHM, Kondavakkam, Tamil Nadu 602025, India"
Arakkonam,Arakonam Tasmac godown,12.9567456,79.31428880000001,"X847+MPV, Ranipet, Tamil Nadu 632401, India"
Arakkonam,Tasmac,13.0905099,79.635905,"3JRP+692, Unnamed Road, Arakkonam, Tamil Nadu 631003, India"
Arakkonam,TASMAC,13.0353523,79.6300435,"2JPJ+42V, SH 126, Arumbakkam, Arakkonam, Tamil Nadu 631002, India"
Virudhunagar,Tasmac,9.601144999999999,77.9470496,"JW2W+FR3, Pullalakottai Road, GT Nagar, Sivagami Puram, Virudhunagar, Tamil Nadu 626001, India"
Virudhunagar,TASMAC Office In Virudhunagar Dist.,9.5437508,77.94835259999999,"GWVX+G84, Kooraikundu, Tamil Nadu 626003, India"
Virudhunagar,Tasmac Wine Shop,9.597591699999999,77.674868,"HMXF+2WQ, Virudhunagar, Tamil Nadu 626126, India"
Virudhunagar,Tasmac Wine Shop,9.665000299999999,77.66822839999999,"MM89+274, Virudhunagar, Tamil Nadu 626149, India"
Virudhunagar,Government TASMAC Wine Shop,9.8240115,78.0851703,"R3FP+J33, Soorakkulam, Tamil Nadu 625022, India"
Virudhunagar,Wine shop,9.596447699999999,77.9807884,"HXWJ+H8, Virudhunagar, Tamil Nadu 626001, India"
Neyveli,TaSmaC,11.6055827,79.4714431,"JF4C+6H4, Neyveli Twp Block-28, Neyveli T.S, Tamil Nadu 607807, India"
Neyveli,TASMAC,11.6262632,79.515975,"JGG8+G95, Indhira Gandhi Road, Neyveli T.S, Tamil Nadu 607801, India"
Aruppukkottai,Tasmac,9.5016875,78.10442859999999,"G423+MQW, Vellai Kottai, Aruppukkottai, Tamil Nadu 626101, India"
Aruppukkottai,Tasmac,9.5191418,78.10108799999999,"127, Railway Feeder Rd, Meenambigai Nagar, Vasantham Nagar, Aruppukkottai, Tamil Nadu 626101, India"
Aruppukkottai,Tasmac,9.5110757,78.11843150000001,"G469+C93, Aruppukkottai, Tamil Nadu 626105, India"
Aruppukkottai,Tasmac,9.5108798,78.15291669999999,"G563+953, Aruppukkottai, Tamil Nadu 626105, India"
Tambaram,Tasmac,12.9245388,80.12613809999999,"144, Bharathamadha St, Railway Colony, East Tambaram, Tambaram, Chennai, Tamil Nadu 600059, India"
Tambaram,TASMAC,12.905751,80.14267869999999,"W44V+833, New Agaram Road, Yeswanth Nagar, Tambaram, Padmavathi Nagar, Selaiyur, Chennai, Tamil Nadu 600126, India"
Tambaram,Tasmac,12.9316692,80.1231446,"W4JF+M6H, Kadaperi, Tambaram, Chennai, Tamil Nadu 600045, India"
Tambaram,TASMAC,12.9812505,80.1475975,"X4JX+G25, Mallika Nagar, Meenambakkam, Chennai, Tamil Nadu 600016, India"
Tambaram,Wine shop,12.9267782,80.1131553,"W4G7+P76, New Market Nagar, Tambaram, Chennai, Tamil Nadu 600045, India"
Tambaram,TASMAC,12.9160896,80.10416219999999,"W483+CMM, Periyar Nagar, West Tambaram, Irumbuliyur, Chennai, Tamil Nadu 600045, India"
Tambaram,TASMAC,12.9359359,80.1643615,"W5P7+9QC, Airport Colony, Heritage Jayendra Nagar, Sembakkam, Chennai, Tamil Nadu 600044, India"
Tambaram,Tasmac,12.8841909,80.13546149999999,"V4MP+M4P, Mappedu - Vengambakkam Rd, Chennai, Tamil Nadu 600048, India"
Tambaram,Tasmac,12.9607185,80.13454349999999,"89, Tiruneermalai Main Rd, Argeeswarar Colony, Chromepet, Chennai, Tamil Nadu 600044, India"
Tambaram,Tasmac,12.960957,80.13685459999999,"Ambedkar Nagar St, Nagappa Nagar, Chromepet, Chennai, Tamil Nadu 600044, India"
Tambaram,Tasmac Wine Shop,12.8862464,80.0808982,"V3PJ+F9R, Vandalur, Tamil Nadu 600048, India"
Tambaram,Elite TASMAC,12.9750646,80.2202502,"Vighnesh, 92, Velachery - Tambaram Main Rd, First Segment, Vijaya Nagar, Velachery, Chennai, Tamil Nadu 600042, India"
Tambaram,Tasmac Wine Shop,12.9192157,80.08438129999999,"27/B, Mudichur Rd, Raja Rajeswari Nagar, Shanthi Nagar, Lingam Nagar, Old Perungalathur, Tamil Nadu 600063, India"
Palani,Tasmac,10.4535862,77.5179029,"FG39+C5J, Anna Nagar, Palani, Tamil Nadu 624601, India"
Palani,TASMAC BAR,10.5515067,77.5261349,"Palani, TO, Dharapuram Main Road, Thoppampatti, Tamil Nadu 624617, India"
Pattukkottai,TASMAC Wine Shop,10.4349188,79.3330076,"C8MM+X6, Mattusanthai, Pattukkottai, Tamil Nadu 614602, India"
Pattukkottai,Tasmac,10.4173702,79.3307889,"C88J+W8V, Pattukkottai, Tamil Nadu 614602, India"
Kovilpatti,Tasmac bar,9.1755339,77.88518979999999,"5VGP+638, SH 44, Thittankulam, Kovilpatti, Tamil Nadu 628502, India"
Kovilpatti,Tasmac manthithoppu ( KOVILPATTI BAR ),9.146369499999999,77.8593963,"30D/6 Uthupatti kovilpatti road kovilpatti _, Kovilpatti, Tamil Nadu 628502, India"
Kovilpatti,Tasmac bar,9.1564366,77.8850952,"5V4P+H2H, pasuvanthanai road, Pandavarmangalam, Tamil Nadu, India"
Kovilpatti,Tasmac,8.6260284,78.0281717,"J2GH+C77, Kovilpatti-Ottapidaram-Pudukottai-Eral-Mukkani Rd, Eral, Tamil Nadu 628801, India"
Kovilpatti,டாஸ்மாக்,9.1744498,77.86499529999999,"23, AKS Theatre Road, V.O.C. Nagar, Kadershan Koil, Kovilpatti, Tamil Nadu 628501, India"
Kovilpatti,TASMAC,9.183706899999999,77.8848683,"Puthukiramam, Kovilpatti, Tamil Nadu 628502, India"
Tiruvallur,Tasmac Wineshop,13.0890403,80.1227844,"34QF+J47, Tiruvallur, Tamil Nadu 600077, India"
Tiruvallur,Tasmac wineshop,13.135982,79.9204063,"709, Chennai Tiruvallur High Rd, Ma. Po. Si. Nagar, Tiruvallur, Kakkalur, Tamil Nadu 602001, India"
Tiruvallur,Tasmac Elite,13.1369765,79.9130752,"4WP7+Q6W, NH 716, Ma. Po. Si. Nagar, Tiruvallur, Kakkalur, Tamil Nadu 602003, India"
Tiruvallur,TASMAC,13.0374909,80.25125489999999,"Shop No. 894, 20/1, Tiruvalluvar Salai, Seethammal Colony, Lubdhi Colony, Teynampet, Chennai, Tamil Nadu 600018, India"
Tiruvallur,TASMAC,13.0153928,80.2472665,"268W+5W2, Ellaiamman Koil St, Kotturpuram, Chennai, Tamil Nadu 600085, India"
Tiruvallur,Tasmac,13.0656166,80.2738241,"No. 19, Triplicane High Rd, Ellis Puram, Padupakkam, Triplicane, Chennai, Tamil Nadu 600005, India"
Tiruvallur,TASMAC Wine shop,13.0373992,80.2341586,"26PM+XM3, Dhandapani St, T. Nagar, Chennai, Tamil Nadu 600017, India"
Tiruvallur,TASMAC Wine Shop,13.0442714,80.1481744,"19 & 20 Raja's Garden, Vanagaram, Chettiyar Agaram Rd, Rajas Garden, Porur, Chennai, Tamil Nadu 600095, India"
Tiruvallur,Tasmac elite shop,13.027222,80.2588203,"2nd Main Road, opposite to Not Just Brown, Raja Annamalai Puram, RA Puram, Trustpakkam, Mandaveli, Chennai, Tamil Nadu 600028, India"
Tiruvallur,TASMAC,12.9812505,80.1475975,"X4JX+G25, Mallika Nagar, Meenambakkam, Chennai, Tamil Nadu 600016, India"
Tiruvallur,Elite Tasmac,13.0533183,80.2493307,"Gemini Parson Complex, 1, Dr MGR Salai, Tirumurthy Nagar, Nungambakkam, Chennai, Tamil Nadu 600006, India"
Tiruvallur,Tasmac DM Office,13.1291404,79.93897129999999,"4WHQ+MH5, Kakkalur Industrial Estate, Tiruvallur, Tamil Nadu 602003, India"
Tiruvallur,Tasmac Wine and Bar,13.0717887,80.20230509999999,"36C2+PW7, Unnamed Road, Koyambedu, Chennai, Tamil Nadu 600107, India"
Tiruvallur,TASMAC,12.9874621,80.2555627,"X7P4+X6P, SH 49, Ranganatha Puram, Thiruvanmiyur, Chennai, Tamil Nadu 600041, India"
Tiruvallur,TASMAC Wine Shop,13.0476298,80.2455253,"T. Nagar, Chennai, Tamil Nadu 600017, India"
Tiruvallur,Elite Tasmac shanthi colony,13.0824096,80.2164398,"123AA, 4th Ave, Shanthi Colony, Anna Nagar, Chennai, Tamil Nadu 600040, India"
Tiruvallur,Tasmac AC Bar,13.1148978,80.2315656,"Shop No: 13/33, S.R.P Koil Street South, SRP Koil St N, Agaram, Perambur, Chennai, Tamil Nadu 600082, India"
Tiruvallur,Tasmac Elite,13.0825167,80.21381769999999,"147, 2nd Ave, Block AC, AB Block, AC Block, Anna Nagar, Chennai, Tamil Nadu 600040, India"
Tiruvallur,Tasmac Wine Shop / Bar,13.0218858,80.2061602,"26C4+QF4, 100 Feet Rd, Ambal Nagar, Ekkatuthangal, Chennai, Tamil Nadu 600032, India"
Tiruvallur,Thirumazhisai Tasmac Godown,13.041474,80.05832099999999,"23R5+H8P, Thirumazhisai, Tamil Nadu 600124, India"
Tiruvallur,TASMAC,12.9914849,80.21632029999999,"142, Phoenix Market City St, Indira Gandhi Nagar, Velachery, Chennai, Tamil Nadu 600042, India"
Tiruvallur,TASMAC,13.0582702,80.2242449,"15, Shanmuganar Salai, Sree Ram Puram, Kamaraj Nagar, Kodambakkam, Vada Agaram Rd, Sree Ram Puram, Kamaraj Nagar, Kodambakkam, Chennai, Tamil Nadu 600024, India"
Tiruvallur,Tasmac,13.0834148,80.2259438,"36MG+998, 1st Main Rd, Chinthamani, D Block, Annanagar East, Chennai, Tamil Nadu 600102, India"
Tiruvallur,TASMAC Agasthya,13.123357,80.2877961,"47FQ+84M, Sanjeevarayanpet, Old Washermanpet, Chennai, Tamil Nadu 600021, India"
Tiruvallur,Tasmac Bar,13.0843345,80.221352,"36MC+PGQ, 2nd Ave, B Block, Annanagar East, Chennai, Tamil Nadu 600030, India"
Tiruvallur,Manavalanagar Wine Shop,13.1138257,79.91651410000001,"4W78+FHH, Tiruvallur, Tamil Nadu 602003, India"
Tiruvallur,Tasmac Egmore,13.0691929,80.256849,"Shop No.6, Alsa Mall, Red Cross Rd, Egmore, Chennai, Tamil Nadu 600008, India"
Tiruvallur,Tasmac Warehouse,13.092475,80.172291,"600058, D-83-84, Ambattur Industrial Estate Rd, Ambattur Industrial Estate, Chennai, Tamil Nadu 600058, India"
Tiruvallur,Tasmac,13.0479776,80.2214193,"1-24, Rathinammal St, KG NTR Heritage, Boopathy Nagar, Kodambakkam, Chennai, Tamil Nadu 600024, India"
Tiruvallur,TASMAC - Tamil Nadu State Marketing Corporation Limited,13.0700237,80.2712231,"Shop No, 34, Wallers Rd, Mount Road, Chintadripet, Chennai, Tamil Nadu 600002, India"
Tiruvallur,TASMAC,13.0766813,80.22527029999999,"36GG+M4C, Shenoy Nagar, Chennai, Tamil Nadu 600030, India"
Tiruvallur,Tasmac Wine Shop,12.9894555,80.1859352,"2, Thurairaj St, Teachers Colony, Pazavanthangal, Chennai, Tamil Nadu 600114, India"
Tiruvallur,TASMAC,13.0360302,80.2674153,"27P8+CX7, Canal Bank Rd, Kapali Thottam, Mylapore, Chennai, Tamil Nadu 600004, India"
Tiruvallur,Tasmac,13.0261465,80.1749519,"NO.4, Mount Poonamallee Rd, Park Dugar, Ramapuram, Chennai, Tamil Nadu 600089, India"
Tiruvallur,TASMAC Elite,12.9204586,80.2511784,"2, 86, SH 49, Cholamandal Artists Village, Injambakkam, Chennai, Tamil Nadu 600115, India"
Tiruvallur,Tasmac,13.0895803,80.10829679999999,"34Q5+R8M, Avadi, Tamil Nadu 600071, India"
Tiruvallur,TASMAC,13.0545481,80.1445653,"343V+RR8, Rajiv Nagar, Vanagaram, Chennai, Adayalampattu, Tamil Nadu 600095, India"
Tiruvallur,Tasmac,13.095181,80.18894999999999,"3/27, Kalaivanar Nagar, Padi, Chennai, Tamil Nadu 600050, India"
Tiruvallur,TASMAC AC bar,13.0432405,80.20282700000001,"26V3+74W, PV Rajamannar Salai, Rajamannar Colony, Sector 4, K. K. Nagar, Chennai, Tamil Nadu 600093, India"
Tiruvallur,TASMAC Bar,13.0553609,80.1834287,"354M+49V, Ganapathy St, Dhanalakshmi Nagar, Bhuvaneswari Nagar, Valasaravakkam, Chennai, Tamil Nadu 600095, India"
Tiruvallur,Elite TASMAC,12.9750646,80.2202502,"Vighnesh, 92, Velachery - Tambaram Main Rd, First Segment, Vijaya Nagar, Velachery, Chennai, Tamil Nadu 600042, India"
Tiruvallur,Tasmac Elite,12.9043066,80.2283095,"shop(1st Floor, Rajiv Gandhi Salai, above Moda men's ware, Sholinganallur, Chennai, Tamil Nadu 600097, India"
Tiruvallur,Tasmac,13.0421373,80.1148704,"No: 24, School Street, Near Mangadu Bus Stop, Mangadu, Astha Lakshmi Nagar, Indrani Nagar, Chennai, Tamil Nadu 600112, India"
Tiruvallur,TASMAC,13.1215889,80.06269189999999,"43C7+J3P, SH 206, Pattabiram, Tamil Nadu 600072, India"
Tiruvallur,TASMAC,13.1476794,80.1043814,"44X3+3PH, Kovil Pathagai, Poompozhil Nagar, Avadi, Kannadapalayam, Tamil Nadu 600062, India"
Tiruvallur,TASMAC Government Wine Shop,13.2606756,80.2895995,"R S, Main Road, Attipattu, Chennai, Nandiambakkam, Tamil Nadu 600120, India"
Tiruvallur,TASMAC Wine Shop,13.0643459,79.9099854,"3W75+PXX, SH 57, Polivakkam, Tamil Nadu 602002, India"
Tiruvallur,Tasmac Bar,13.1223932,80.2008816,"7, 200 Feet Road, Senthil Nagar, Kolathur, Chennai, Tamil Nadu 600099, India"
Tiruvallur,Tasmac Wineshop,13.0293361,79.95891809999999,"2XH5+PHM, Kondavakkam, Tamil Nadu 602025, India"
Tiruvallur,Tamil Nadu State Marketing Corporation Limited,13.0772206,80.26506119999999,"37G8+V2M, IV Floor, CMDA Tower-II, Gandhi Irwin Bridge Road, Triplicane, Egmore, Chennai, Tamil Nadu 600008, India"
Tiruvallur,Tasmac,13.0573451,80.2038237,"26, Dasarathapuram Main Rd, Saligrammam, Mathiazhagan Nagar, Shanthi Nagar, Vadapalani, Chennai, Tamil Nadu 600026, India"
Tiruvallur,TASMAC Gulu Gulu Wines,12.9636649,80.2150764,"X678+F28, Ram Nagar South, Madipakkam, Chennai, Tamil Nadu 600042, India"
Tiruvallur,Tasmac,13.1128157,80.2433853,"Shop No: 217, Madhavaram High Rd, Perambur, Chennai, Tamil Nadu 600011, India"
Tiruvallur,Tasmac,13.0561596,80.25589640000001,"3744+F96, Greams Rd, Thousand Lights East, Thousand Lights, Chennai, Tamil Nadu 600006, India"
Tiruvallur,TASMAC,12.986597,80.2228481,"80, Velachery Main Rd, Lakshmi Puram, Velachery, Chennai, Tamil Nadu 600042, India"
Tiruvallur,Tasmac,13.1709345,80.09494629999999,"53CV+9XG, Vishnu Nagar, New Vellanur, Tamil Nadu 600065, India"
Tiruvallur,Tasmac,13.0344945,80.2152651,"31/39, 10th Ave, Sarvamangala Colony, Manthope Colony, Ashok Nagar, Chennai, Tamil Nadu 600083, India"
Tiruvallur,Tasmac Wine shop,13.1453693,80.20436389999999,"46W3+4PX, Red Hills Road, Tirumal Srinivas Nagar, Madhavaram, Kadirvedu, Tamil Nadu 600099, India"
Panruti,Bus stand TASMAC,11.7704736,79.5530967,"back side, Bus stand, Indira Gandhi Rd, Kamaraj Nagar, Panruti, Tamil Nadu 607106, India"
Panruti,Tasmac,11.7581794,79.5481355,"QG5X+77C, Panikankupp, Panruti, Panikankuppam, Tamil Nadu 607103, India"
Panruti,TASMAC,11.7733693,79.55194209999999,"QHF2+8QW, Road, Ulunthampattu, Chennai, Panruti, Tamil Nadu 607106, India"
Namakkal,GOVT TASMAC,11.2511989,78.101185,"7422+FFJ, Namakkal, Tamil Nadu 637003, India"
Namakkal,govt Tasmac,11.2578678,78.15988399999999,"7555+5X2, Swamy Nagar, M. K. Ramasamy Nagar, Tamil Nadu 637001, India"
Namakkal,Tasmac Wine Shop,11.2507873,78.16110739999999,"7526+8CH, Swamy Nagar, Namakkal, Tamil Nadu 637001, India"
Namakkal,TASMAC,11.2190829,78.1913931,"659R+JHJ, Ganga Nagar, Namakkal, Tamil Nadu 637001, India"
Namakkal,Tasmac Wine Shop & Bar,11.2307085,78.1768022,"65JG+7PF, Sellappa Colony, Namakkal, Tamil Nadu 637001, India"
Namakkal,TASMAC,11.2241642,78.1719056,"65FC+MQ6, Sendhamangalam Rd, R.P Pudur, Namakkal, Tamil Nadu 637001, India"
Namakkal,TASMAC Puduchatram,11.3791302,78.16334959999999,"95H7+M85, Namakkal, Tamil Nadu 637018, India"
Perambalur,Tamil Nadu State Marketing Corporation Limited,11.2416919,78.8624921,"6VR6+MXH, SH 157, Super Nagar, Perambalur, Tamil Nadu 621212, India"
Perambalur,Tasmac Wine Shop,11.2565321,78.8733263,"7V4F+J88, Perambalur, Tamil Nadu 621212, India"
Perambalur,Tasmac,11.2482693,78.8573207,"6VX4+8W4, Unnamed Road, Samathuvapuram, Perambalur, Tamil Nadu 621212, India"
Thiruvarur,Tasmac,10.6524331,79.5358799,"MG2P+X9C, Thiruvarur, Tamil Nadu 614717, India"
Thiruvarur,Tasmac,10.7385739,79.6628231,"PMQ7+C4G, Thiruvarur, Tamil Nadu 610106, India"
Thiruvarur,TASMAC,10.8238691,79.4051237,"RCF4+G2X, Thiruvarur, Alangudi, Tamil Nadu 612801, India"
Thiruvarur,Government tasmac,10.7624246,79.14006429999999,"Q46R+X28, Philomina Nagar, Thanjavur, Tamil Nadu 613007, India"
Thiruvarur,Tasmac,10.5383168,79.63960809999999,"GJQQ+9R4, Tamil Nadu 614713, India"
Thiruvarur,TASMAC - Tamil Nadu State Marketing Corporation Limited,13.0700237,80.2712231,"Shop No, 34, Wallers Rd, Mount Road, Chintadripet, Chennai, Tamil Nadu 600002, India"
Thiruvarur,Government tasmac,10.7710198,79.7397768,"QPCQ+CW2, Aniamangalam - Vadakkuveli - Kizha Velur Rd, Vadakkuveli, Tamil Nadu 611104, India"
Thiruvarur,Tasmac,10.8580987,79.5740725,"VH5F+6JP, Srivanchiyam - Manakkal Rd, Veedividangan, Paruthiyur, Tamil Nadu 610107, India"
Thiruvarur,Elite TASMAC,12.9750646,80.2202502,"Vighnesh, 92, Velachery - Tambaram Main Rd, First Segment, Vijaya Nagar, Velachery, Chennai, Tamil Nadu 600042, India"
Thiruvarur,Tasmac,10.7879199,79.5951091,"QHQW+529, Thanjavur - Nagapattinam Rd, Agarathirunallur, Tamil Nadu 613701, India"
Thiruvarur,Tamil Nadu State Marketing Corporation Limited,13.0772206,80.26506119999999,"37G8+V2M, IV Floor, CMDA Tower-II, Gandhi Irwin Bridge Road, Triplicane, Egmore, Chennai, Tamil Nadu 600008, India"
Thiruvarur,Wine shop,10.7653848,79.63713419999999,"45, VRM Rd, Santhamangalam, Vijayapuram, Thiruvarur, Tamil Nadu 610001, India"
Thiruvarur,Govt Tasmac,10.7477303,79.0626322,"P3X7+33V, Thanjavur, Tamil Nadu 613403, India"
Thiruvarur,Tasmac,10.7369639,79.57551670000001,"Bus Stop, Er Mani Street, Kamalapuram To Mangudi Rd, Vengaramberaiyur, Tamil Nadu 610102, India"
Thiruvarur,TASMAC Godown,10.9902349,79.4299747,"XCRH+3XX, Thirubuvanam, Tamil Nadu 612103, India"
Thiruvarur,Tasmac,13.0999214,80.22601689999999,"36XG+X97, Parasurama Eswaran Koil Main St, Ramanuja Nagar, United India Nagar, Ayanavaram, Chennai, Tamil Nadu 600023, India"
Thiruvarur,TASMAC Elite,12.9204586,80.2511784,"2, 86, SH 49, Cholamandal Artists Village, Injambakkam, Chennai, Tamil Nadu 600115, India"
Thiruvarur,Tasmac,10.5485413,79.62080999999999,"GJXC+C87, Madappuram, Tamil Nadu 614715, India"
Thiruvarur,Government tasmac,10.5247296,79.3578497,"G9F5+V4X, Kannugudi East, Kannugudi North, Tamil Nadu 614901, India"
Thiruvarur,Government tasmac,10.541548,79.28063209999999,"G7RJ+J76, Pappanadu, Nemilithippiakudi, Tamil Nadu 614626, India"
Thiruvarur,DM OfficeTasmac Tiruvarur,10.7720334,79.6102004,"QJC6+R38, Vilamal, Thiruvarur, Thandalai, Tamil Nadu 610004, India"
Sankarankoil,TASMAC,9.176997199999999,77.52884569999999,"5GGH+QGX, Railway Feeder Rd, Sankarankoil, Tamil Nadu 627756, India"
Vaniyambadi,Government tasmac,12.5785281,78.5760135,"HHHG+CC6, Unnamed Road, Parsampettai, Kudiyanakuppam, Jolarpet, Tamil Nadu 635851, India"
Vaniyambadi,TASMAC,12.636466,78.5642088,"JHP7+HMP, Unnamed Road, Thekkupattu, Tamil Nadu 635801, India"
Vaniyambadi,TASMAC,12.6303415,78.66003479999999,"Tamil Nadu 635851, India"
Vaniyambadi,TASMAC,12.5897618,78.6316341,"HJQJ+WM2, Yellagiri Road, Athanavur, Tamil Nadu 635853, India"
Vaniyambadi,Tasmac,12.6593415,78.61095639999999,"MJ56+P9P, CN Annadurai Rd, Maduranada Nagar, Vaniyambadi, Tamil Nadu 635751, India"
Tiruchengode,Tasmac,11.3807637,77.8942917,"9VJV+8P3, Thondikaradu, Tiruchengode, Tamil Nadu 637211, India"
Tiruchengode,TASMAC,11.3938766,77.8404193,"9RVR+H53, Tiruchengode, Tamil Nadu 637209, India"
Tiruchengode,Tasmac,11.4046529,77.7945084,"CQ3V+VR6, Tiruchengode, Tamil Nadu 638006, India"
Tiruchengode,TASMAC GOVERNMENT WINE SHOP,11.3842778,77.8645746,"9VM7+PR4, Tiruchengode, Tamil Nadu 637209, India"
Cheyyar,TASMAC WINES,12.6619367,79.5367282,"MG6P+QMH, SH 5, Cheyyar, Tamil Nadu 604407, India"
Thirumangalam,TASMAC (VR Mall),13.0808744,80.19628469999999,"35JW+8GV, Thirumangalam, Chennai, Tamil Nadu 600040, India"
Thirumangalam,Tasmac Wine and Bar,13.0717887,80.20230509999999,"36C2+PW7, Unnamed Road, Koyambedu, Chennai, Tamil Nadu 600107, India"
Thirumangalam,Elite Tasmac shanthi colony,13.0824096,80.2164398,"123AA, 4th Ave, Shanthi Colony, Anna Nagar, Chennai, Tamil Nadu 600040, India"
Thirumangalam,Tasmac Elite,13.0825167,80.21381769999999,"147, 2nd Ave, Block AC, AB Block, AC Block, Anna Nagar, Chennai, Tamil Nadu 600040, India"
Thirumangalam,Tasmac Bar,13.0843345,80.221352,"36MC+PGQ, 2nd Ave, B Block, Annanagar East, Chennai, Tamil Nadu 600030, India"
Thirumangalam,Tasmac,13.0834148,80.2259438,"36MG+998, 1st Main Rd, Chinthamani, D Block, Annanagar East, Chennai, Tamil Nadu 600102, India"
Thirumangalam,TASMAC ELITE,13.070622,80.20324389999999,"10, Square Mall, Main Road, NSK Nagar, Koyambedu, Chennai, Tamil Nadu 600106, India"
Kulithalai,Tasmac Wineshop,10.943413,78.4131881,"WCV7+97G, NH67, Kulithalai, Tamil Nadu 639104, India"
Thiruthuraipoondi,Tasmac,10.5383168,79.63960809999999,"GJQQ+9R4, Tamil Nadu 614713, India"
Thiruthuraipoondi,Tasmac,10.4577212,79.7394822,"Bus Stop, Thiruthuraipoondi - Vedaranyam Rd, Kariyapattinam, Tamil Nadu 614806, India"
Thiruthuraipoondi,Tasmac,10.4477913,79.68949169999999,"CMXQ+4Q9, Thiruthuraipoondi - Marakkadu Salai, Thanikottagam, Tamil Nadu 614716, India"
Thiruthuraipoondi,Government tasmac,10.7624246,79.14006429999999,"Q46R+X28, Philomina Nagar, Thanjavur, Tamil Nadu 613007, India"
Thiruthuraipoondi,Tasmac Shop Maruthur south,10.4233412,79.7329548,"CPFM+P8M, Annapettai, Tamil Nadu 614714, India"
Thiruthuraipoondi,Government tasmac,10.7710198,79.7397768,"QPCQ+CW2, Aniamangalam - Vadakkuveli - Kizha Velur Rd, Vadakkuveli, Tamil Nadu 611104, India"
Thiruthuraipoondi,Govt. Tasmac,11.0114413,78.71653169999999,"2P68+HJF, Edumalai Rd, Valaiyur, Tamil Nadu 621007, India"
Thiruthuraipoondi,TASMAC,10.6371144,79.8088836,"JRP5+RHR, Thirupoondi, Tamil Nadu 611110, India"
Thiruthuraipoondi,Government tasmac,10.541548,79.28063209999999,"G7RJ+J76, Pappanadu, Nemilithippiakudi, Tamil Nadu 614626, India"
Thiruthuraipoondi,Govt Tasmac,10.7477303,79.0626322,"P3X7+33V, Thanjavur, Tamil Nadu 613403, India"
Thiruthuraipoondi,Government tasmac,10.5247296,79.3578497,"G9F5+V4X, Kannugudi East, Kannugudi North, Tamil Nadu 614901, India"
Thiruthuraipoondi,Tasmac,10.5485413,79.62080999999999,"GJXC+C87, Madappuram, Tamil Nadu 614715, India"
Thiruthuraipoondi,TASMAC,10.3989841,79.5008576,"9GX2+H8X, Muthupet, Tamil Nadu 614738, India"
Manapparai,TASMAC wine shop,10.6144234,78.4233196,"JC7F+Q9C, Sevalur-Manapparai Main Rd, Manapparai, Tamil Nadu 621306, India"
P.N.Patti,TASMAC Wine Shop,11.7740165,77.81116899999999,"QRF6+JF3, Thottilpatti, Tamil Nadu 636406, India"
P.N.Patti,TASMAC,11.8045422,77.821687,"Mettur Dam, RS 2, Tamil Nadu 636401, India"
P.N.Patti,Tasmac,11.8537084,77.74479219999999,"VP3V+FWM, Singiripatti, Tamil Nadu 636303, India"
P.N.Patti,govt Tasmac,11.2578678,78.15988399999999,"7555+5X2, Swamy Nagar, M. K. Ramasamy Nagar, Tamil Nadu 637001, India"
P.N.Patti,Government TASMAC,11.2778354,77.251094,"77H2+5C5, Sevur, Tamil Nadu 638460, India"
P.N.Patti,TASMAC,11.7334624,78.05484419999999,"P3M3+9WP, Kullamanickenpatti, Tamil Nadu 636011, India"
P.N.Patti,government Tasmac,12.2959386,78.2173801,"76W8+9XC, Dharmapuri, Tamil Nadu 635111, India"
P.N.Patti,Tasmac Government,11.4539846,77.67971829999999,"FM3H+HVW, taluk, Bhavani, Tamil Nadu 638301, India"
P.N.Patti,Tasmac Government Wine Shop,9.3385486,78.5724855,"MDR637, Tamil Nadu 623704, India"
P.N.Patti,Tasmac,11.8085914,77.84429279999999,"RR5V+CPP, Tamil Nadu 636403, India"
P.N.Patti,Tasmac,11.741846,77.78407279999999,"PQRM+PJP, Navappatti, Tamil Nadu 636452, India"
P.N.Patti,Tasmac,12.3488515,78.21192099999999,"86X6+HQ3, Sappanipatti, Tamil Nadu 635111, India"
P.N.Patti,"Govt,TASMAC",12.0962897,78.2897007,"37WQ+GV8, Dharmapuri, Tamil Nadu 635303, India"
P.N.Patti,Tasmac,11.6286318,78.16108009999999,"J5H6+FC4, K R Nagar, Seelanaickenpatti, Salem, Tamil Nadu 636006, India"
P.N.Patti,Tasmac,11.6097106,77.7151558,"JP58+V3C, Boothapadi, Tamil Nadu 638311, India"
P.N.Patti,Goverment Tasmac,11.1434313,77.3417493,"48VR+9MF, Vengamedu, Poyampalayam, Tiruppur, Chettipalayam, Tamil Nadu 641603, India"
P.N.Patti,GOVT TASMAC,11.2511989,78.101185,"7422+FFJ, Namakkal, Tamil Nadu 637003, India"
P.N.Patti,Tamil Nadu Tasmac,11.7008026,78.101989,"P422+8RV, Burn's Colony, Salem, Tamil Nadu 636011, India"
P.N.Patti,Tasmac,11.1362868,78.4493545,"4CPX+GP, Thathaiyangarpet, Urudaiyapatti, Tamil Nadu 621214, India"
P.N.Patti,Tasmac,11.7610681,77.7852322,"QQ6P+C3H, Palamalli R.F., Tamil Nadu 636401, India"
P.N.Patti,Tasmac wineshop Kondalampatti,11.6303776,78.1245703,"181/254, Coimbatore Rd, South, Sandaipet, Kondalampatti, Salem, Tamil Nadu 636010, India"
P.N.Patti,TASMAC,11.8757432,77.9322327,"VWGJ+7VX, Salem, Tamil Nadu 636451, India"
P.N.Patti,Government Tasmac,10.0082371,77.3626548,"2957+732, Meenakshipuram, Tamil Nadu 625513, India"
P.N.Patti,7279 Tasmac,11.6560359,77.77807349999999,"MQ4H+C68, Poolampatti, Tamil Nadu 637107, India"
P.N.Patti,Tasmac WineShop,11.1952849,78.100042,"54W2+427, Thattankuttai, Andipatti, Tamil Nadu 637207, India"
P.N.Patti,TASMAC,11.7235819,77.9512709,"PXF2+CGR, Arurpatti, Tamil Nadu 636503, India"
P.N.Patti,Govt. Wine Shop (Tasmac),11.8204577,78.62519549999999,"RJCG+94Q, Chinnakalrayan Hills Therkkunadu, Tamil Nadu 636138, India"
P.N.Patti,Tasmac,12.5428653,78.5455293,"GGVW+46J, Odappatti, Tamil Nadu 639207, India"
P.N.Patti,7402 TASMAC,11.7943254,77.8504134,"QVV2+P5M, Tamil Nadu 636406, India"
P.N.Patti,TASMAC wine shop,11.6741372,78.1042712,"34/22-B periyar Nagar, pud road, near periyandichi kovil, Salem, 636005, India"
P.N.Patti,TASMAC,11.648326,78.1183631,"J4X9+899, TNHB Colony, Chengikottai, Kandhampatty, Tamil Nadu 636005, India"
P.N.Patti,Tasmac Bar,11.4197402,78.0969836,"C39W+VQX PANCHAYAT OFFICE, Minnampalli, Tamil Nadu 637410, India"
P.N.Patti,TASMAC,11.8167559,77.8915131,"RV8R+PJ2, Palangotai Road, Chinnakoothanur, Tamil Nadu 636453, India"
P.N.Patti,"TASMAC pappampadi, shop number 2",11.6425953,77.9480408,"near vinayagar temple karattur kattu valauv pappampadi omalur taluk salem 636306, Karattur - Pappampadi Rd, Vellalapuram, Tamil Nadu, India"
P.N.Patti,Tasmac,11.6803819,78.1294113,"230, Srinagar Main Rd, Narasothipatti, Nedunchalai Nagar, Salem, Tamil Nadu 636005, India"
P.N.Patti,TASMAC,11.6697631,78.3231338,"M89F+V4, Gudamalai R.F., Tamil Nadu 636106, India"
P.N.Patti,TASMAC Mall shop,11.7812605,78.1997779,"Q5JX+GW2, Mundagapadi, Tamil Nadu 636601, India"
P.N.Patti,Tasmac wine shop,11.8327986,77.9331861,"RWMM+37M, Unnamed Road, Mecheri, Tamil Nadu 636453, India"
P.N.Patti,TASMAC OFFICE,11.5669846,78.14073929999999,"H48R+QCF, Sandiyur Attayampatti, Tamil Nadu 636203, India"
P.N.Patti,TASMAC,11.4919721,78.09668599999999,"F3RW+QM, Nadupatti, Tamil Nadu 637505, India"
P.N.Patti,TASMAC,11.573025,77.8991648,"HVFX+6JG, Idappadi - Magudanchavadi Rd, Konganapuram, Tamil Nadu 637102, India"
P.N.Patti,Tasmac,11.6116944,78.0004968,"J262+M6C, MDR134, Elampillai, Tamil Nadu 637502, India"
Arani,Tasmac,12.689587,79.2892516,"M7QQ+RMH, Outer Ring Rd, Arani, Tamil Nadu 632316, India"
Erkadu,TASMAC Mall shop,11.7812605,78.1997779,"Q5JX+GW2, Mundagapadi, Tamil Nadu 636601, India"
Erkadu,Tasmac,11.6938151,78.16363609999999,"M5V7+GFF, Yercaud Main Rd, Pon Nagar, Periyakollappatty, Salem, Tamil Nadu 636008, India"
Erkadu,Tasmac wine shop,11.7118294,78.1764547,"105, Yercaud Main Rd, Kondappanayaganpatty, Salem, Tamil Nadu 636008, India"
Erkadu,Tamil Nadu State Marketing Corporation Limited,13.0772206,80.26506119999999,"37G8+V2M, IV Floor, CMDA Tower-II, Gandhi Irwin Bridge Road, Triplicane, Egmore, Chennai, Tamil Nadu 600008, India"
Erkadu,Elite TASMAC,12.9750646,80.2202502,"Vighnesh, 92, Velachery - Tambaram Main Rd, First Segment, Vijaya Nagar, Velachery, Chennai, Tamil Nadu 600042, India"
Erkadu,TASMAC - Tamil Nadu State Marketing Corporation Limited,13.0700237,80.2712231,"Shop No, 34, Wallers Rd, Mount Road, Chintadripet, Chennai, Tamil Nadu 600002, India"
Erkadu,Tasmac Egmore,13.0691929,80.256849,"Shop No.6, Alsa Mall, Red Cross Rd, Egmore, Chennai, Tamil Nadu 600008, India"
Erkadu,TASMAC ELITE,13.070622,80.20324389999999,"10, Square Mall, Main Road, NSK Nagar, Koyambedu, Chennai, Tamil Nadu 600106, India"
Erkadu,TASMAC,13.0360302,80.2674153,"27P8+CX7, Canal Bank Rd, Kapali Thottam, Mylapore, Chennai, Tamil Nadu 600004, India"
Erkadu,TASMAC,13.0582702,80.2242449,"15, Shanmuganar Salai, Sree Ram Puram, Kamaraj Nagar, Kodambakkam, Vada Agaram Rd, Sree Ram Puram, Kamaraj Nagar, Kodambakkam, Chennai, Tamil Nadu 600024, India"
Erkadu,TASMAC Elite,12.9204586,80.2511784,"2, 86, SH 49, Cholamandal Artists Village, Injambakkam, Chennai, Tamil Nadu 600115, India"
Erkadu,Tasmac Wine Shop,13.0363104,80.20118099999999,"26P2+GFF, Anna Main Rd, MGR Nagar, Nesapakkam, Chennai, Tamil Nadu 600078, India"
Erkadu,TASMAC Wine shop,13.0373992,80.2341586,"26PM+XM3, Dhandapani St, T. Nagar, Chennai, Tamil Nadu 600017, India"
Erkadu,Tasmac,13.0999214,80.22601689999999,"36XG+X97, Parasurama Eswaran Koil Main St, Ramanuja Nagar, United India Nagar, Ayanavaram, Chennai, Tamil Nadu 600023, India"
Erkadu,Tasmac elite shop,13.027222,80.2588203,"2nd Main Road, opposite to Not Just Brown, Raja Annamalai Puram, RA Puram, Trustpakkam, Mandaveli, Chennai, Tamil Nadu 600028, India"
Erkadu,Wine shop retail,11.7741593,78.23131740000001,"Q6FJ+MG8, Pakoda Point Rd, Yercaud, Tamil Nadu 636601, India"
Erkadu,TASMAC,13.0153928,80.2472665,"268W+5W2, Ellaiamman Koil St, Kotturpuram, Chennai, Tamil Nadu 600085, India"
Erkadu,Tasmac elite shop,12.9762175,80.258871,"68, SH 49, ecr road, Valmiki Nagar, Netaji Nagar, Thiruvanmiyur, Chennai, Tamil Nadu 600041, India"
Erkadu,TASMAC,12.9914849,80.21632029999999,"142, Phoenix Market City St, Indira Gandhi Nagar, Velachery, Chennai, Tamil Nadu 600042, India"
Erkadu,Tasmac 513,13.0487698,80.2036845,"26X3+GF3, Arunachalam Rd, Velayutham Colony, Saligramam, Chennai, Tamil Nadu 600093, India"
Erkadu,Tasmac Elite,13.0825167,80.21381769999999,"147, 2nd Ave, Block AC, AB Block, AC Block, Anna Nagar, Chennai, Tamil Nadu 600040, India"
Erkadu,Tamil Nadu State Marketing Corporation Limited,11.2416919,78.8624921,"6VR6+MXH, SH 157, Super Nagar, Perambalur, Tamil Nadu 621212, India"
Erkadu,Tasmac elite shop,13.0463987,80.242094,"Arihant Vtn Square, Gopathi Narayanaswami Chetty Rd, Thirumurthy Nagar, Satyamurthy Nagar, T. Nagar, Chennai, Tamil Nadu 600017, India"
Erkadu,Tasmac,12.979007,80.24302860000002,"Plot No 592 & 593, Ground Floor, near, Pammal Nallathambi St, Thanthai Periyar Nagar, Tharamani, Chennai, Tamil Nadu 600113, India"
Erkadu,TASMAC,12.9874621,80.2555627,"X7P4+X6P, SH 49, Ranganatha Puram, Thiruvanmiyur, Chennai, Tamil Nadu 600041, India"
Erkadu,TASMAC,11.6698393,78.1904989,"M59R+W5H, Chinnammapet, Allikuttai, Salem, Tamil Nadu 636014, India"
Erkadu,Elite Tasmac,13.0533183,80.2493307,"Gemini Parson Complex, 1, Dr MGR Salai, Tirumurthy Nagar, Nungambakkam, Chennai, Tamil Nadu 600006, India"
Erkadu,Tasmac,11.1362868,78.4493545,"4CPX+GP, Thathaiyangarpet, Urudaiyapatti, Tamil Nadu 621214, India"
Erkadu,TASMAC Wine Shop,13.0476298,80.2455253,"T. Nagar, Chennai, Tamil Nadu 600017, India"
Erkadu,Yercaud Junction Stores,11.7744208,78.2093427,"Q6F5+QP8, SH 188, Yercaud, Tamil Nadu 636601, India"
Erkadu,TASMAC,13.0374909,80.25125489999999,"Shop No. 894, 20/1, Tiruvalluvar Salai, Seethammal Colony, Lubdhi Colony, Teynampet, Chennai, Tamil Nadu 600018, India"
Erkadu,Tamil Nadu Tasmac,11.7008026,78.101989,"P422+8RV, Burn's Colony, Salem, Tamil Nadu 636011, India"
Erkadu,Tasmac,10.9395833,78.1458244,"W4QW+R83, Trichy - Karur Main Rd, Puliyur, Tamil Nadu 639114, India"
Erkadu,Tasmac,13.0656166,80.2738241,"No. 19, Triplicane High Rd, Ellis Puram, Padupakkam, Triplicane, Chennai, Tamil Nadu 600005, India"
Erkadu,Elite TASMAC,11.6675746,78.1498379,"M49X+2WG, Peramanur, Salem, Tamil Nadu 636007, India"
Erkadu,Tasmac,13.0344945,80.2152651,"31/39, 10th Ave, Sarvamangala Colony, Manthope Colony, Ashok Nagar, Chennai, Tamil Nadu 600083, India"
Erkadu,Tasmac Wine Shop / Bar,13.0218858,80.2061602,"26C4+QF4, 100 Feet Rd, Ambal Nagar, Ekkatuthangal, Chennai, Tamil Nadu 600032, India"
Erkadu,Tasmac wineshop,13.0580471,80.2160614,"8-12, 600024, Gangaiamman Koil St, Easwar Nagar, Choolaimedu, Chennai, Tamil Nadu 600026, India"
Erkadu,TASMAC (VR Mall),13.0808744,80.19628469999999,"35JW+8GV, Thirumangalam, Chennai, Tamil Nadu 600040, India"
Erkadu,TASMAC,11.0331033,79.1154634,"24M8+65W, Karuppur, Tamil Nadu 621707, India"
Devakottai,Tasmac bar 7511,9.958952799999999,78.81034509999999,"XR56+H4X, Devakottai, Tamil Nadu 630302, India"
Kadayanallur,மதுபானக் கடை - Liquor shop,9.10544,77.3582574,"4945+58C, Sundaresapuram road, kumanthapuram, Kadayanallur, Tamil Nadu 627751, India"
Kadayanallur,TASMAC BAR ( GOVERNMENT ),8.9941241,77.2147742,"C.Ashok , ( TASMAC SHOP NO:10690) TASMAC BAR,KOLLAM,MADURAI MAIN ROAD,PUDHUR,SENGOTTAI, Tenkasi, 627813, India"
Kadayanallur,Tasmac,9.1295085,77.3763444,"49HG+RG4, Tenkasi - Madurai Rd, Singilipatti, Tamil Nadu 627751, India"
Kadayanallur,Government tasmac,8.7296702,77.7100147,"PPH5+VX6, Vannarpettai, Tirunelveli, Tamil Nadu 627001, India"
Kadayanallur,Tasmac,8.9316525,77.3397478,"W8JQ+MV, Gunaramanallur, Tamil Nadu 627814, India"
Lalgudi,TASMAC,10.8740509,78.81823709999999,"VRF9+J7H, Akilandeshwari Nagar, Lalgudi, Tamil Nadu 621601, India"
Lalgudi,Wine shop,10.8739604,78.8182398,"VRF9+H7Q, Akilandeshwari Nagar, Lalgudi, Tamil Nadu 621601, India"
Mettur,TASMAC,11.8045422,77.821687,"Mettur Dam, RS 2, Tamil Nadu 636401, India"
Mettur,Tasmac,11.7610681,77.7852322,"QQ6P+C3H, Palamalli R.F., Tamil Nadu 636401, India"
Mettur,Tasmac,11.8085914,77.84429279999999,"RR5V+CPP, Tamil Nadu 636403, India"
Mettur,Chinna mettur ganesan tasmac house,11.8396334,77.76328339999999,"RQR7+56V, Chinna Mettur, Tamil Nadu 636452, India"
Mettur,TASMAC Wine Shop,11.7740165,77.81116899999999,"QRF6+JF3, Thottilpatti, Tamil Nadu 636406, India"
Mettur,Government TASMAC,11.2778354,77.251094,"77H2+5C5, Sevur, Tamil Nadu 638460, India"
Mettur,Tasmac Government,11.4539846,77.67971829999999,"FM3H+HVW, taluk, Bhavani, Tamil Nadu 638301, India"
Mettur,Tasmac,11.8537084,77.74479219999999,"VP3V+FWM, Singiripatti, Tamil Nadu 636303, India"
Mettur,Tasmac,11.7977566,77.8031712,"QRX3+473, Mettur, Tamil Nadu 636401, India"
Sivaganga,TASMAC SHOP NO 7577,9.8540894,78.50872799999999,"VG35+JFQ, Sivaganga, Tamil Nadu 630561, India"
Sivaganga,TASMAC,9.860540799999999,78.60720909999999,"VJ64+6VP, Sivaganga, Tamil Nadu 630556, India"
Sivaganga,Tasmac wine shop,10.1253516,78.64959569999999,"4JGX+4RQ, Sivaganga, Tamil Nadu 630207, India"
Sivaganga,TASMAC,9.841270999999999,78.5205278,"RGRC+G6M, Paiyaurpillaivayal, Tamil Nadu 630561, India"
Vikravandi,Govt tasmac,11.9147774,79.4888498,"WF7Q+WGX, Durai Arasan Nagar, Sri Ram Nagar, Viluppuram, Tamil Nadu 605602, India"
Vikravandi,Govt.Tasmac,11.9566052,79.4959693,"ware Housing Corporation, 59 A, Compartment No.II, Chennai Trunk Rd, Viluppuram, Tamil Nadu 605602, India"
Vikravandi,TaSMaC,12.0037982,79.51885949999999,"2G39+FGX, NH Service Road, Mundiyampakkam, Tamil Nadu 605601, India"
Vikravandi,TASMAC,12.1923508,79.4943796,"5FRV+WPX, Unnamed Road, Vadataram, Tamil Nadu 604205, India"
Vikravandi,TASMAC GOVT.,11.9920458,79.4691046,"XFR9+RJ9, Cholaganur, Tamil Nadu 605402, India"
Vikravandi,TASMAC,11.9040101,79.4717173,"WF3C+JM4, near bypass road janakipuram, Viluppuram, Tamil Nadu 605401, India"
Vikravandi,TASMAC,11.9901815,79.4853048,"XFRP+34F, Gingee - Villupuram Rd, Tamil Nadu 605601, India"
Vikravandi,TASMAC,11.943296,79.5238202,"WGVF+8G8, Viluppuram, Tamil Nadu 605103, India"
Vedaranyam,Wine shop,10.3745936,79.8476093,"9RFX+R2, Vedaranyam, Tamil Nadu 614810, India"
Vedaranyam,Tasmac,10.4577212,79.7394822,"Bus Stop, Thiruthuraipoondi - Vedaranyam Rd, Kariyapattinam, Tamil Nadu 614806, India"
Vedaranyam,Tasmac Vedaranyam,10.3776286,79.8492117,"9RHX+3M8, Vedaranyam, Tamil Nadu 614810, India"
Rameswaram,TASMAC PAMBAN,9.2790971,79.21585569999999,"76H8+J8Q, Unnamed Road, Pamban, Tamil Nadu 623521, India"
Rameswaram,TASMAC கிக் பார் GOVERNMENT,9.344913799999999,78.8670155,"8VV8+XR, Ramanathapuram, Tamil Nadu 623504, India"
Rameswaram,TASMAC,9.6256582,78.8642842,"NH536, Tamil Nadu 623525, India"
Rameswaram,Aravind Stores,9.287546899999999,79.3130267,"51, Middle St, Rameswaram, Tamil Nadu 623526, India"
Rameswaram,Ramesh Store,9.283666799999999,79.31093899999999,"78M6+FC2, Railway Feeder Rd, Rameswaram, Tamil Nadu 623526, India"
Rameswaram,TASMAC mandapam,9.2812579,79.12826489999999,"74JH+G82, AH43, Mandapam, Tamil Nadu 623518, India"
Rameswaram,Ramnad tasmac godown,9.359598499999999,78.85313339999999,"9V53+R65, Nehru Nagar, Ramanathapuram, Tamil Nadu 623504, India"
Rameswaram,TASMAC,9.3656279,78.8366137,"139, Master Plan Complex Madurai Rameswaram Road Sakkarakottai Village, Ramanathapuram, Coimbatore, Tamil Nadu 623503, India"
Periyakulam,Tasmac govt,10.239175,77.49773929999999,"6FQX+M46, Kodaikanal, Tamil Nadu 624101, India"
Periyakulam,Government Tasmac,10.0082371,77.3626548,"2957+732, Meenakshipuram, Tamil Nadu 625513, India"
Periyakulam,Tasmac,10.0427275,77.49120309999999,"2FVR+3CX, Rathinam Nagar, Vadaveeranaickenpatty, Tamil Nadu 625531, India"
Periyakulam,Tasmac bar,10.0114098,77.4942501,"2F6V+HP6, Sidco Thoz, NRT Nagar, Theni, Vadaveeranaickenpatty, Tamil Nadu 625531, India"
Periyakulam,TASMAC,10.0191393,77.4772311,"2F9G+MV5, Bathra Kaliyamman, Sri Ram Nagar, Theni, Unjampatti, Tamil Nadu 625531, India"
Periyakulam,Tasmac govt,10.0065202,77.6342698,"667, Annaisathya Nagar, Silukuvarpatti, Timmarasanayakkanur, Tamil Nadu 625536, India"
Periyakulam,Tasmac godown theni,10.0101214,77.50796919999999,"2G65+35H, Unnamed Road, Karuvel Naickken Patti, Theni, Vadaveeranaickenpatty, Tamil Nadu 625531, India"
Periyakulam,Tasmac govt,10.006249,77.6266725,"2J4G+FMV, Timmarasanayakkanur, Tamil Nadu 625536, India"
Periyakulam,Elite TASMAC,10.01496,77.4826873,"2F7M+X3F, NRT Nagar, Theni, Tamil Nadu 625531, India"
Periyakulam,Tasmac,9.723540200000002,77.27246509999999,"P7FC+CX8, Dindigul - Theni - Kottarakkara Hwy, Gandhi Nagar, Manthaiyamman Kovil, Cumbum, Tamil Nadu 625516, India"
Periyakulam,Government TASMAC Wine Shop,9.8240115,78.0851703,"R3FP+J33, Soorakkulam, Tamil Nadu 625022, India"
Periyakulam,Tasmac Shop,9.9182784,77.33003579999999,"W89J+72R, NRT Nagar, Theni Allinagaram, Sankarapuram, Tamil Nadu 625528, India"
Periyakulam,Tasmac Bar,9.9911172,77.6147787,"XJR7+CWC, Vellapar Temple Rd, Palani Maaligai, Andippatti, Tamil Nadu 625512, India"
Periyakulam,TaSMaC,10.2368324,77.4949489,"6FPV+PXP, Bazaar Rd, Kodaikanal, Tamil Nadu 624101, India"
Periyakulam,govt tasmac,9.9923001,77.934995,"XWRP+W2J, Mudalaikulam, Tamil Nadu 625207, India"
Sattur,TASMAC,9.388898,77.90719229999999,"9WQ4+HV4, Sattur - Sivakasi - Kalugumalai Rd, N Mettupatti, Tamil Nadu 626203, India"
Sattur,TASMAC,9.3403561,77.9222666,"8WRC+4WJ, Chatrapatti, Tamil Nadu 626203, India"
Sattur,TASMAC,9.327817399999999,77.9022528,"1/230, Othaiyal Mettupatti, Tamil Nadu 626203, India"
Puliangudi,TASMAC wine shop,9.1655783,77.39187249999999,"598R+5QJ, Puliyangudi, Tamil Nadu 627855, India"
Puliangudi,TASMAC,9.2091855,77.4055951,"6C54+M6H, Unnamed Road, Puliyangudi, Tamil Nadu 627855, India"
Uthamapalayam,TASMAC,9.8517384,77.2939231,"V72V+MHV, Kombai, Uthamapalayam, Tamil Nadu 625522, India"
Uthamapalayam,Tasmac,9.723540200000002,77.27246509999999,"P7FC+CX8, Dindigul - Theni - Kottarakkara Hwy, Gandhi Nagar, Manthaiyamman Kovil, Cumbum, Tamil Nadu 625516, India"
Uthamapalayam,Tasmac Shop,9.9182784,77.33003579999999,"W89J+72R, NRT Nagar, Theni Allinagaram, Sankarapuram, Tamil Nadu 625528, India"
Uthamapalayam,Government Tasmac,10.0082371,77.3626548,"2957+732, Meenakshipuram, Tamil Nadu 625513, India"
Uthamapalayam,Tasmac,9.8728439,77.4566901,"VFF4+4MP, Kamatchipuram, Tamil Nadu 625520, India"
Uthamapalayam,Tasmac,9.738027899999999,77.2617691,"P7Q6+5PR, Puthukulam Rd, Kombai RF, Tamil Nadu 625518, India"
Uthamapalayam,Tasmac,9.681508,77.2465139,"M6JW+JJ2, Gudalur, Tamil Nadu 625518, India"
Uthamapalayam,டாஸ்மா௧் Wine Shop,9.7932863,77.39471929999999,"Q9VV+8VG, Erasakkanayackanur, Tamil Nadu 625515, India"
Uthamapalayam,Tasmac wineshop,9.6769999,77.2779232,"M7GH+Q5V, Theni, Tamil Nadu 625516, India"
Uthamapalayam,Tasmac Wine Shop,9.7087057,77.302008,"P852+FRJ, Surulipatti, Tamil Nadu 625516, India"
Uthamapalayam,TASMAC,10.0191393,77.4772311,"2F9G+MV5, Bathra Kaliyamman, Sri Ram Nagar, Theni, Unjampatti, Tamil Nadu 625531, India"
Uthamapalayam,Tasmac govt,10.006249,77.6266725,"2J4G+FMV, Timmarasanayakkanur, Tamil Nadu 625536, India"
Uthamapalayam,Tasmac govt,10.0065202,77.6342698,"667, Annaisathya Nagar, Silukuvarpatti, Timmarasanayakkanur, Tamil Nadu 625536, India"
Thirupuvanam,TASMAC Wine shop,13.0373992,80.2341586,"26PM+XM3, Dhandapani St, T. Nagar, Chennai, Tamil Nadu 600017, India"
Thirupuvanam,TASMAC THIRUPUVANAM,9.8178649,78.24426760000001,"R69V+4PR, Kaliyandur, Tamil Nadu 630611, India"
Thirupuvanam,TASMAC Godown,10.9902349,79.4299747,"XCRH+3XX, Thirubuvanam, Tamil Nadu 612103, India"
Thirupuvanam,Tasmac,13.0656166,80.2738241,"No. 19, Triplicane High Rd, Ellis Puram, Padupakkam, Triplicane, Chennai, Tamil Nadu 600005, India"
Thirupuvanam,Tasmac elite shop,12.9762175,80.258871,"68, SH 49, ecr road, Valmiki Nagar, Netaji Nagar, Thiruvanmiyur, Chennai, Tamil Nadu 600041, India"
Thirupuvanam,Govt Tasmac,9.9057271,78.13363559999999,"W44M+7FR, West Anuppanadi, Tamil Nadu Housing Board Colony, Anuppanadi, Madurai, Tamil Nadu 625009, India"
Thirupuvanam,Tasmac elite shop,13.027222,80.2588203,"2nd Main Road, opposite to Not Just Brown, Raja Annamalai Puram, RA Puram, Trustpakkam, Mandaveli, Chennai, Tamil Nadu 600028, India"
Thirupuvanam,Tasmac 513,13.0487698,80.2036845,"26X3+GF3, Arunachalam Rd, Velayutham Colony, Saligramam, Chennai, Tamil Nadu 600093, India"
Melur,Wine Shop,10.0269633,78.3436117,"28GV+QCQ, Melur, Tamil Nadu 625106, India"
Melur,Tasmac,10.1625508,78.4164442,"5C78+2HG, Melur-Singampunari Rd, Sukkampatti, Kannamangalapatti, Tamil Nadu 630502, India"
Melur,Govt Tasmac,9.9057271,78.13363559999999,"W44M+7FR, West Anuppanadi, Tamil Nadu Housing Board Colony, Anuppanadi, Madurai, Tamil Nadu 625009, India"
Melur,Government TASMAC Wine Shop,9.8240115,78.0851703,"R3FP+J33, Soorakkulam, Tamil Nadu 625022, India"
Melur,Tasmac Wine Shop,9.9377056,78.1451968,"W4QW+33P, Melur Main Rd, KK Nagar, Madurai, Tamil Nadu 625020, India"
Melur,Tasmac,10.0929345,78.3518404,"39V2+5Q6, Tamil Nadu 625105, India"
Melur,TASMAC,10.0294697,78.33240850000001,"28HJ+QXM, Melur Main Rd, Melur, Tamil Nadu 625106, India"
Aranthangi,Tasmac no 6 aranthangi,10.1694075,78.99629879999999,"5X9W+QG3, Karaikkudi - Manamelkudi Rd, Aranthangi, Tamil Nadu 614616, India"
Aranthangi,Tasmac 1 aranthangi,10.184654,79.003968,"52M3+VH8, Pattukkottai - Aranthangi Rd, Aranthangi, Tamil Nadu 614616, India"
Aranthangi,Tasmac wine shop,10.1715668,78.99954509999999,"5XCX+JRF, Unnamed Road, Aranthangi, Tamil Nadu 614616, India"
Aranthangi,Tasmac 2 aranthangi,10.1744058,78.9976131,"5XFX+Q29, Aranthangi, Tamil Nadu 614616, India"
Aranthangi,Tasmac 3 aranthangi,10.1736302,78.9989757,"5XFX+FH5, Aranthangi, Tamil Nadu 614616, India"
Keelakarai,TASMAC கிக் பார் GOVERNMENT,9.344913799999999,78.8670155,"8VV8+XR, Ramanathapuram, Tamil Nadu 623504, India"
Keelakarai,Vellakarai Tasmac,9.8156036,78.2417827,"R68R+6PV, Vellakkarai, Kaliyandur, Tamil Nadu 630611, India"
Keelakarai,Government TASMAC Wine Shop,9.8240115,78.0851703,"R3FP+J33, Soorakkulam, Tamil Nadu 625022, India"
Keelakarai,tasmac whine shop,9.3781594,78.85558999999999,"9VH4+768, Ramanathapuram, Tamil Nadu 623504, India"
Keelakarai,Ramnad tasmac godown,9.359598499999999,78.85313339999999,"9V53+R65, Nehru Nagar, Ramanathapuram, Tamil Nadu 623504, India"
Keelakarai,govt tasmac,9.9923001,77.934995,"XWRP+W2J, Mudalaikulam, Tamil Nadu 625207, India"
Keelakarai,TASMAC,9.3656279,78.8366137,"139, Master Plan Complex Madurai Rameswaram Road Sakkarakottai Village, Ramanathapuram, Coimbatore, Tamil Nadu 623503, India"
Keelakarai,TASMAC A1Bar,9.3781304,78.8595799,"9VH5+7R3, Ramanathapuram, Tamil Nadu 623504, India"
Keelakarai,Tasmac Government Wine Shop,9.3385486,78.5724855,"MDR637, Tamil Nadu 623704, India"
Denkanikottai,Tasmac Denkanikottai,12.5266838,77.803359,"GRG3+M8H, Unnamed Road, Devarulimangalam, Tamil Nadu 635107, India"
Usilampatti,TASMAC WINE SHOP,9.9631889,77.78910669999999,"XQ7Q+7JH, Kavandanpatti Rd, Usilampatti, Tamil Nadu 625532, India"
Usilampatti,TASMAC,9.940942,77.8279551,"WRRH+95G, Taluk, Usilampatti, Aramanathapuram, Tamil Nadu 625529, India"
Anthiyur,Tasmac Liquor Shop,11.5711827,77.5766956,"HHCG+FMG, Thavittupalayam, Anthiyur, Tamil Nadu 638501, India"
Anthiyur,TASMAC,11.5807259,77.58342250000001,"HHJM+79V, Anthiyur, Tamil Nadu 638501, India"
Anthiyur,TASMAC,11.6293017,77.58489229999999,"JHHM+PXC, moolakkadai, Kollegal - Anthiyur Rd, 638501, India"
Anthiyur,Tasmac Government,11.4539846,77.67971829999999,"FM3H+HVW, taluk, Bhavani, Tamil Nadu 638301, India"
Anthiyur,Wine Shop Govt,11.5678736,77.60213639999999,"HJ92+5V2, Erode, Tamil Nadu 638314, India"
Anthiyur,Tasmac,11.4427808,77.66965859999999,"CMV9+4RQ, Kalingarayanpalayam, Moolapalayam, Bhavani, Tamil Nadu 638316, India"
Pappireddipatti,"Govt,TASMAC",12.0962897,78.2897007,"37WQ+GV8, Dharmapuri, Tamil Nadu 635303, India"
Pappireddipatti,government Tasmac,12.2959386,78.2173801,"76W8+9XC, Dharmapuri, Tamil Nadu 635111, India"
Pappireddipatti,Govt TASMAC,11.393713,79.22381779999999,"96VF+FGP, Pennadam, Eraiyur, Tamil Nadu 606111, India"
Pappireddipatti,GOVERMENT WINE SHOP MAIN UNIT DPI,12.097505,78.11710599999999,"34X8+2R5, Dharmapuri - Jarugu - Hogenakkal Rd, Thadangam, Tamil Nadu 636803, India"
Pappireddipatti,Pennadam government Tasmac,11.3964856,79.2368664,"96WP+HPX, Pennadam, Pe. Ponneri, Tamil Nadu 606105, India"
Pappireddipatti,govt tasmac,12.4729569,78.9975743,"FXFX+52P, Kettavarampalayam, Tamil Nadu 606901, India"
Pappireddipatti,Tasmac,12.3488515,78.21192099999999,"86X6+HQ3, Sappanipatti, Tamil Nadu 635111, India"
Pappireddipatti,TASMAC Wine Shop,11.9043479,78.39150529999999,"W93R+PJ, Pallipatti, Tamil Nadu 636905, India"
Pappireddipatti,govt Tasmac,11.2578678,78.15988399999999,"7555+5X2, Swamy Nagar, M. K. Ramasamy Nagar, Tamil Nadu 637001, India"
Pappireddipatti,TASMAC WINE SHOP,12.1366774,78.1612837,"Dharmapuri, Tamil Nadu 636701, India"
Pappireddipatti,Tasmac,11.1362868,78.4493545,"4CPX+GP, Thathaiyangarpet, Urudaiyapatti, Tamil Nadu 621214, India"
Pappireddipatti,Tasmac,11.9752026,78.26971879999999,"X7G9+3VQ, Bommidi, Tamil Nadu 635301, India"
Pappireddipatti,Tasmac,12.2623779,78.0664158,"7368+XH3, Dharmapuri, Tamil Nadu 636808, India"
Pappireddipatti,Tasmac Government,11.4539846,77.67971829999999,"FM3H+HVW, taluk, Bhavani, Tamil Nadu 638301, India"
Pappireddipatti,Govt. TASMAC,11.6920362,79.08603,"M3RP+QC, Chithalur, Tamil Nadu 606206, India"
Pappireddipatti,Govt TASMAC 🍻,12.168487,78.94077,"5W9R+9R3, Thandarampattu, Tamil Nadu 606707, India"
Pappireddipatti,TASMAC Semmandakuppam,12.1875963,78.1868049,"55QP+2PM, Dharmapuri, Tamil Nadu 636704, India"
Pappireddipatti,Government Tasmac Komangalam,11.5155121,79.2746572,"G78F+6V3, Komangalam, Tamil Nadu 606003, India"
Pappireddipatti,Government TASMAC,11.2778354,77.251094,"77H2+5C5, Sevur, Tamil Nadu 638460, India"
Pappireddipatti,"Goverment,Tasmac",12.1554161,78.9549569,"5X43+5X8, Thandarampattu, Tamil Nadu 606707, India"
Pappireddipatti,Tasmac Wine Shop,12.2646199,78.5464902,"7G7W+RHX, Illuppaikuttapatti, Tamil Nadu 635207, India"
Pappireddipatti,Tasmac wine shop,12.1607125,78.15220839999999,"5562+7VP, Unnamed Road, Tamil Nadu 636701, India"
Pappireddipatti,TASMAC,11.7334624,78.05484419999999,"P3M3+9WP, Kullamanickenpatti, Tamil Nadu 636011, India"
Pappireddipatti,TASMAC,12.071533,78.114862,"ajithkarthickumar selvam 0, Tamil Nadu 636807, India"
Pappireddipatti,"Govt,TASMAC டாஸ்மாக்.",11.661361,79.1610196,"M566+HCF, Kottaiyur, Seevamangalam, Tamil Nadu 606305, India"
Pappireddipatti,GOVT TASMAC,11.2511989,78.101185,"7422+FFJ, Namakkal, Tamil Nadu 637003, India"
Pappireddipatti,Tasmac Shop,12.2812691,78.5349425,"7GJM+GX4, Appinaickenpatti, Tamil Nadu 635207, India"
Pappireddipatti,TASMAC Mall shop,11.7812605,78.1997779,"Q5JX+GW2, Mundagapadi, Tamil Nadu 636601, India"
Pappireddipatti,TASMAC,12.4513808,78.5105012,"FG26+H63, SH 60, Madapali, Tamil Nadu 635654, India"
Pappireddipatti,Tasmac,11.9442567,78.29812340000001,"W7VX+P73, Bairanatham, Bommidi, Tamil Nadu 636905, India"
Pappireddipatti,Tasmac Bar,11.4197402,78.0969836,"C39W+VQX PANCHAYAT OFFICE, Minnampalli, Tamil Nadu 637410, India"
Pappireddipatti,TASMAC OFFICE,11.5669846,78.14073929999999,"H48R+QCF, Sandiyur Attayampatti, Tamil Nadu 636203, India"
Pappireddipatti,TASMAC Wine Shop,12.1438838,78.13261229999999,"44VM+H24, Pappinaickanahalli, Tamil Nadu 636705, India"
Pappireddipatti,Tasmac,11.8537084,77.74479219999999,"VP3V+FWM, Singiripatti, Tamil Nadu 636303, India"
Pappireddipatti,"Govt,TASMAC டாஸ்மாக்.",11.6395625,79.092106,"J3QR+RRH, Varanjaram R.F., Tamil Nadu 606203, India"
Pappireddipatti,TASMAC,12.0844177,78.3642168,"39M7+QM8, MDR777, Chintalpadi, Tamil Nadu 635302, India"
Pappireddipatti,Tasmac jarugu,12.001624,78.0252419,"222G+J3Q, Dharmapuri - Jarugu - Hogenakkal Rd, Maniathahalli, Tamil Nadu 636811, India"
Pappireddipatti,Tasmac,11.9280659,78.3435763,"W8HV+6CG, Molayanur, Tamil Nadu 636905, India"
Pappireddipatti,TASMAC,12.2001942,78.25366269999999,"6723+3FF, Krishnapuram, Tamil Nadu 635202, India"
Pappireddipatti,Tasmac,12.4067207,78.2388953,"C64Q+MHJ, MDR157, Chowttahalli, Tamil Nadu 635112, India"
Pappireddipatti,Tasmac,12.310388,78.19648,"856W+5H9, Kariamangalam, Tamil Nadu 635111, India"
Pappireddipatti,Tasmac Perangiyam,11.4112815,79.0127753,"C267+G39, Ramanatham, Tamil Nadu 606303, India"
Pappireddipatti,Goverment Tasmac,11.1434313,77.3417493,"48VR+9MF, Vengamedu, Poyampalayam, Tiruppur, Chettipalayam, Tamil Nadu 641603, India"
Pappireddipatti,Tasmac,12.3579495,78.0127461,"9257+53H, Palacode--Amanimallapuram, Marandahalli - Palacode Rd, Gujjarahalli, Tamil Nadu 636806, India"
Pappireddipatti,TASMAC Wine Shop,11.6444211,78.4022474,"75, Valapadi - Thimmanaickenpatti Rd, Pudupalayam, Tamil Nadu 636115, India"
Pappireddipatti,TASMAC,11.6718683,77.9070826,"MWC4+QR9, Kallukadai Medu, Vangaliyur, Tamil Nadu 636501, India"
Pappireddipatti,TASMAC,12.2030719,78.5466387,"6G3W+6MJ, Kottukarampatti, Tamil Nadu 635307, India"
Pappireddipatti,Tasmac WineShop,11.1952849,78.100042,"54W2+427, Thattankuttai, Andipatti, Tamil Nadu 637207, India"
Pappireddipatti,Tasmac,12.2194483,78.1197373,"6499+QWF, pulikarai to, Pothalahalli, India"
Pappireddipatti,TASMAC,11.8726994,78.08852209999999,"Kadayampatti, Tamil Nadu 636351, India"
Pappireddipatti,TASMAC,12.5283808,78.21826399999999,"G6H9+982, Veerappa Nagar, Krishnagiri, Tamil Nadu 635001, India"
Pappireddipatti,tasmac,12.2345819,78.0930623,"63MV+R6G, Modugulahalli, Tamil Nadu 636808, India"
Pappireddipatti,Tasmac mall shop,11.2789883,77.5808667,"7HHJ+H8H, SH 196, Perundurai, Tamil Nadu 638052, India"
Pappireddipatti,TASMAC,11.4914872,78.0278313,"F2RH+J42, Mallasamudram, Tamil Nadu 637503, India"
Pappireddipatti,Tasmac,11.5515793,77.9968361,"HX2W+JPP, NH544, Magudanchavadi, Kanagagiri, Tamil Nadu 637103, India"
Pappireddipatti,Govt. Wine Shop (Tasmac),11.8204577,78.62519549999999,"RJCG+94Q, Chinnakalrayan Hills Therkkunadu, Tamil Nadu 636138, India"
Pappireddipatti,Tamilnadu Govt Wineshop,11.904596,78.390489,"Dharmapuri No: 197, Alamalupuram, Pappireddipatti, Tamil Nadu 636905, India"
Sankarapuram,Govt tasmac,11.9147774,79.4888498,"WF7Q+WGX, Durai Arasan Nagar, Sri Ram Nagar, Viluppuram, Tamil Nadu 605602, India"
Sankarapuram,Govt.Tasmac,11.9566052,79.4959693,"ware Housing Corporation, 59 A, Compartment No.II, Chennai Trunk Rd, Viluppuram, Tamil Nadu 605602, India"
Sankarapuram,Tasmac - Govt. Wine Shop,12.4261919,79.8408527,"CRGR+F8H, Kanchipuram, Tamil Nadu 603301, India"
Sankarapuram,TASMAC - Tamil Nadu State Marketing Corporation Limited,13.0700237,80.2712231,"Shop No, 34, Wallers Rd, Mount Road, Chintadripet, Chennai, Tamil Nadu 600002, India"
Sankarapuram,TASMAC,11.8750331,78.9646832,"VXG7+2V6, Sankarapuram Main Rd, Viriyur, Tamil Nadu 606402, India"
Sankarapuram,"Govt,TASMAC",12.0962897,78.2897007,"37WQ+GV8, Dharmapuri, Tamil Nadu 635303, India"
Sankarapuram,"Govt,TASMAC டாஸ்மாக்.",11.661361,79.1610196,"M566+HCF, Kottaiyur, Seevamangalam, Tamil Nadu 606305, India"
Sankarapuram,government Tasmac,12.2959386,78.2173801,"76W8+9XC, Dharmapuri, Tamil Nadu 635111, India"
Sankarapuram,Govt. TASMAC,11.6920362,79.08603,"M3RP+QC, Chithalur, Tamil Nadu 606206, India"
Sankarapuram,Govt TASMAC,11.393713,79.22381779999999,"96VF+FGP, Pennadam, Eraiyur, Tamil Nadu 606111, India"
Sankarapuram,Tamil Nadu State Marketing Corporation Limited,13.0772206,80.26506119999999,"37G8+V2M, IV Floor, CMDA Tower-II, Gandhi Irwin Bridge Road, Triplicane, Egmore, Chennai, Tamil Nadu 600008, India"
Sankarapuram,TASMAC (GOVERNMENT WINE SHOP),12.2666869,78.7406735,"7P8R+M7F, Tiruvannamalai, Tamil Nadu 606703, India"
Sankarapuram,TASMAC GOVT.,11.9920458,79.4691046,"XFR9+RJ9, Cholaganur, Tamil Nadu 605402, India"
Sankarapuram,govt tasmac,12.4729569,78.9975743,"FXFX+52P, Kettavarampalayam, Tamil Nadu 606901, India"
Sankarapuram,"Govt,TASMAC டாஸ்மாக்.",11.6395625,79.092106,"J3QR+RRH, Varanjaram R.F., Tamil Nadu 606203, India"
Sankarapuram,"Goverment,Tasmac",12.1554161,78.9549569,"5X43+5X8, Thandarampattu, Tamil Nadu 606707, India"
Sankarapuram,TASMAC,11.8870729,78.91509289999999,"VWP8+R2W, Palapattu Rd, Sankarapuram, Tamil Nadu 606401, India"
Edappadi,TASMAC,11.573025,77.8991648,"HVFX+6JG, Idappadi - Magudanchavadi Rd, Konganapuram, Tamil Nadu 637102, India"
Edappadi,Tasmac Government,11.4539846,77.67971829999999,"FM3H+HVW, taluk, Bhavani, Tamil Nadu 638301, India"
Edappadi,govt Tasmac,11.2578678,78.15988399999999,"7555+5X2, Swamy Nagar, M. K. Ramasamy Nagar, Tamil Nadu 637001, India"
Edappadi,Tasmac,11.6097106,77.7151558,"JP58+V3C, Boothapadi, Tamil Nadu 638311, India"
Edappadi,TASMAC,11.4569237,77.8213779,"FR4C+QHC, Padaiveedu, Tamil Nadu 637303, India"
Edappadi,Tasmac,11.5515793,77.9968361,"HX2W+JPP, NH544, Magudanchavadi, Kanagagiri, Tamil Nadu 637103, India"
Edappadi,Government TASMAC,11.2778354,77.251094,"77H2+5C5, Sevur, Tamil Nadu 638460, India"
Edappadi,Tasmac,11.5830923,77.9035791,"HWM3+6FC, SH 86, Koranampatti, Tamil Nadu 637102, India"
Edappadi,Tasmac wine shop,11.4731113,77.8630462,"FVF7+66M, Sangagiri, Tamil Nadu 637301, India"
Edappadi,GOVT TASMAC,11.2511989,78.101185,"7422+FFJ, Namakkal, Tamil Nadu 637003, India"
Edappadi,"Govt,TASMAC",12.0962897,78.2897007,"37WQ+GV8, Dharmapuri, Tamil Nadu 635303, India"
Edappadi,Tasmac,11.4574107,77.8788275,"FV4H+XG8, Unnamed Road, Sangagiri, Tamil Nadu 637301, India"
Edappadi,"TASMAC pappampadi, shop number 2",11.6425953,77.9480408,"near vinayagar temple karattur kattu valauv pappampadi omalur taluk salem 636306, Karattur - Pappampadi Rd, Vellalapuram, Tamil Nadu, India"
Edappadi,government Tasmac,12.2959386,78.2173801,"76W8+9XC, Dharmapuri, Tamil Nadu 635111, India"
Edappadi,Tasmac Bar,11.4197402,78.0969836,"C39W+VQX PANCHAYAT OFFICE, Minnampalli, Tamil Nadu 637410, India"
Edappadi,Tasmac,11.6116944,78.0004968,"J262+M6C, MDR134, Elampillai, Tamil Nadu 637502, India"
Edappadi,Tasmac Konapipe,11.5941481,77.82502509999999,"HRVG+M22, MDR591, Edappadi, Tamil Nadu 637101, India"
Edappadi,Tasmac - Idappadi,11.5744086,77.83189949999999,"HRFJ+QQ6, Unnamed Road, Edappadi, Tamil Nadu 637101, India"
Edappadi,TASMAC govt wine shop,11.6184856,77.80339029999999,"JR93+C93, Idappadi - Poolampatti Rd, Kallukadai, Tamil Nadu 637101, India"
Kundrathur,TASMAC Bar,12.997527,80.0989702,"X3XX+2H9, Jawaharlal Nehru Rd, Kundrathur, Tamil Nadu 600069, India"
Kundrathur,Tasmac,13.0045078,80.0961408,"233W+RF6, Earrikarai Rd, Kundrathur, Chennai, Sikkarayapuram, Tamil Nadu 600069, India"
Kundrathur,TASMAC Bar,13.0048832,80.1050228,"2434+X2C, Kundrathur Main Rd, Lakhsmi Nagar, Thandalam, Tamil Nadu 600069, India"
Kundrathur,TASMAC,12.9812505,80.1475975,"X4JX+G25, Mallika Nagar, Meenambakkam, Chennai, Tamil Nadu 600016, India"
Kundrathur,Tasmac wine shop,12.9728305,80.1033248,"X4F3+49C, Irandankattalai, Tamil Nadu 600069, India"
Kundrathur,TASMAC Wine Shop,13.0442714,80.1481744,"19 & 20 Raja's Garden, Vanagaram, Chettiyar Agaram Rd, Rajas Garden, Porur, Chennai, Tamil Nadu 600095, India"
Kundrathur,Tasmac,12.9847729,80.12414299999999,"100, Pammal Main Rd, Chamundeshwari Nagar, Anakaputhur, Chennai, Tamil Nadu 600070, India"
Kundrathur,Tasmac polichalur,12.9908914,80.146715,"Anna St, MGR Nagar, Pozhichalur, Chennai, Tamil Nadu 600074, India"
Bhavani,Tasmac Government,11.4539846,77.67971829999999,"FM3H+HVW, taluk, Bhavani, Tamil Nadu 638301, India"
Bhavani,Tasmac,11.4427808,77.66965859999999,"CMV9+4RQ, Kalingarayanpalayam, Moolapalayam, Bhavani, Tamil Nadu 638316, India"
Gummidipoondi,TASMAC,13.4241838,80.1272685,"C4FG+MWC, GNT Rd, Kottai Karai, Gummidipoondi, Peddikuppam, Tamil Nadu 601201, India"
Gummidipoondi,TASMAC,13.4332846,80.11704619999999,"C4M8+8R7, AH45, Gummidipoondi, Peddikuppam, Tamil Nadu 601201, India"
Gummidipoondi,TASMAC,13.3913318,80.1328291,"94RM+G48, Gummidipoondi, Paleswarankandigai, Tamil Nadu 601201, India"
Gummidipoondi,TASMACBAR,13.4079076,80.11418019999999,"C457+5M3, Pattupalli - Gummudipoondi Rd, New Gummidipoondi, Gummidipoondi, Tamil Nadu 601201, India"
Gummidipoondi,TASMAC 9135,13.3708923,80.12655819999999,"94CG+9J, Kilmudalambedu, Tamil Nadu 601101, India"
Gummidipoondi,TASMAC Government Wine Shop,13.2606756,80.2895995,"R S, Main Road, Attipattu, Chennai, Nandiambakkam, Tamil Nadu 600120, India"
Attur,TASMAC,11.589216,78.6137746,"HJQ7+MGJ, SH 157, Attur, Tamil Nadu 636141, India"
Attur,Tasmac,11.597688,78.5969659,"17d, Railady St, Pungavadi Puthur, Attur, Tamil Nadu 636102, India"
Natham,Tasmac Natham,10.2022608,78.2162373,"6628+WF5, Sattambadi, Tamil Nadu 624401, India"
Natham,Government wine shop,11.0390525,79.4079884,"2CQ5+J5H, NH36, Natham, Tamil Nadu 612503, India"
Natham,Tasmac,10.2369179,78.2984262,"67PX+Q98, Samudrapatti, Tamil Nadu 624402, India"
Palladam,Tasmac wine shop,10.9929063,77.2837533,"3/212, Trichy Rd, Mullai Nagar, Palladam, Tamil Nadu 641664, India"
Palladam,Tasmac bar,10.9956636,77.2908758,"X7WR+789, Palladam, Tamil Nadu 641664, India"
Palladam,TASMAC,10.9840111,77.2966084,"X7MW+JJ5, Tiruppur, Tamil Nadu 641664, India"
Palladam,Tasmac,11.0084715,77.30156319999999,"2852+9JR, Goundampalayam, Tamil Nadu 641664, India"
Palladam,TASMAC,11.0277218,77.2965358,"27HW+3JM, Naranapuram, Tamil Nadu 641664, India"
Palladam,Goverment Tasmac,11.1434313,77.3417493,"48VR+9MF, Vengamedu, Poyampalayam, Tiruppur, Chettipalayam, Tamil Nadu 641603, India"
Sankagiri,Tasmac wine shop,11.4731113,77.8630462,"FVF7+66M, Sangagiri, Tamil Nadu 637301, India"
Sankagiri,Tasmac,11.4574107,77.8788275,"FV4H+XG8, Unnamed Road, Sangagiri, Tamil Nadu 637301, India"
Sankagiri,TASMAC,11.4569237,77.8213779,"FR4C+QHC, Padaiveedu, Tamil Nadu 637303, India"
Sankagiri,Tasmac Government,11.4539846,77.67971829999999,"FM3H+HVW, taluk, Bhavani, Tamil Nadu 638301, India"
Thiruvaiyaru,Govt TASMAC,10.8804915,79.10752769999999,"V4J5+52R, National Highway 226 Extension, Thiruvaiyaru, Tamil Nadu 613204, India"
Oddanchatram,TASMAC Wine Shop,10.487124,77.7457952,"Indian complex, SH 37, Oddanchatram, Tamil Nadu 624619, India"
Oddanchatram,TASMAC Wine shop,10.4828486,77.77475369999999,"FQMF+4WJ, Palani Rd, Lakkayankottai, Oddanchatram, Tamil Nadu 624619, India"
Oddanchatram,Elite Tasmac,13.0533183,80.2493307,"Gemini Parson Complex, 1, Dr MGR Salai, Tirumurthy Nagar, Nungambakkam, Chennai, Tamil Nadu 600006, India"
Oddanchatram,Tasmac,10.4897472,77.7543611,"FQQ3+VPX, Oddanchatram, Tamil Nadu 624619, India"
Krishnagiri,TASMAC,12.5283808,78.21826399999999,"G6H9+982, Veerappa Nagar, Krishnagiri, Tamil Nadu 635001, India"
Krishnagiri,TASMAC wine shop,12.5190115,78.1828883,"G59M+J52, Krishnagiri, Tamil Nadu 635001, India"
Krishnagiri,Tasmac with Bar,12.5320641,78.2067379,"G6J4+QP9, Londenpet, Krishnagiri, Tamil Nadu 635002, India"
Krishnagiri,TASMAC shop no: 2956,12.5373221,78.1912491,"1/166-H1, Samy Nagar, Thanampatti Rd, R.Poosarapatti village, Pethathalapalli PO, Krishnagiri, Tamil Nadu 635001, India"
Krishnagiri,Tasmac,12.5785551,78.3005409,"H8H2+C6F, Krishnagiri - Palamaner Hwy, Rayappanur, Tamil Nadu 635120, India"
Krishnagiri,Government tasmac,12.5785281,78.5760135,"HHHG+CC6, Unnamed Road, Parsampettai, Kudiyanakuppam, Jolarpet, Tamil Nadu 635851, India"
Krishnagiri,Tasmac wine shop,12.6640804,77.9972665,"MX7W+JWJ, Krishnagiri, Tamil Nadu 635117, India"
Krishnagiri,Tasmac Godown,12.5898187,78.1865591,"H5QP+WJF, Kundarapalli, Tamil Nadu 635115, India"
Krishnagiri,government Tasmac,12.2959386,78.2173801,"76W8+9XC, Dharmapuri, Tamil Nadu 635111, India"
Coonoor,Tasmac Wine Shop,11.3494516,76.7787319,"8QXH+QFQ, Vassampallam Road, Ottuppattarai, Coonoor, Tamil Nadu 643105, India"
Coonoor,Elite shop coonoor,11.3443145,76.7932319,"23, TDK Pillai Rd, Vannarpet, Coonoor, Tamil Nadu 643101, India"
Coonoor,Tasmac Shop,11.3485142,76.8013108,"8RX2+CG3, Alwarpet, Coonoor, Tamil Nadu 643101, India"
Coonoor,TASMAC Shop,11.344982,76.79411449999999,"8QVV+XMR, Kurumbadi, Coonoor, Tamil Nadu 643101, India"
Mannargudi,Tasmac,10.6670869,79.4487407,"MC8X+RFX, Mela Raja Veedhi, Mannargudi, Tamil Nadu 614001, India"
Mannargudi,Government tasmac,10.7624246,79.14006429999999,"Q46R+X28, Philomina Nagar, Thanjavur, Tamil Nadu 613007, India"
Mannargudi,Government tasmac,10.541548,79.28063209999999,"G7RJ+J76, Pappanadu, Nemilithippiakudi, Tamil Nadu 614626, India"
Mannargudi,Government tasmac,10.5247296,79.3578497,"G9F5+V4X, Kannugudi East, Kannugudi North, Tamil Nadu 614901, India"
Thuraiyur,Govt tasmac 10327,11.1477784,78.59488329999999,"MSK Complex, Balaji Hospital Rd, Thuraiyur, Tamil Nadu 621010, India"
Thuraiyur,TASMAC 10335,11.1511667,78.5935624,"5H2V+FC7, Senappannallur Rd, Thuraiyur, Tamil Nadu 621010, India"
Thuraiyur,Tasmac,11.16364,78.60814599999999,"5J75+F72, Unnamed Road, Thuraiyur, Tamil Nadu 621002, India"
Thuraiyur,Surya Tasmac Bar,11.1491727,78.5948751,"Surya complex, Balaji Hospital Rd, Thuraiyur, Tamil Nadu 621010, India"
Jayankondam,TASMAC,11.1863241,79.457302,"5FP4+FWM, Muthuservamadam, Tamil Nadu 612901, India"
Jayankondam,Tasmac,11.0923978,79.36612690000001,"39R8+XF, Kodangudi North, Tamil Nadu 612904, India"
Jayankondam,Pennadam government Tasmac,11.3964856,79.2368664,"96WP+HPX, Pennadam, Pe. Ponneri, Tamil Nadu 606105, India"
Jayankondam,Government tasmac,10.7710198,79.7397768,"QPCQ+CW2, Aniamangalam - Vadakkuveli - Kizha Velur Rd, Vadakkuveli, Tamil Nadu 611104, India"
Jayankondam,Tasmac Nellithoppu,11.2163553,79.4732344,"6F8F+G7X, Kundaveli West, Tamil Nadu 612903, India"
Jayankondam,Government Tasmac Komangalam,11.5155121,79.2746572,"G78F+6V3, Komangalam, Tamil Nadu 606003, India"
Jayankondam,Government tasmac,10.7624246,79.14006429999999,"Q46R+X28, Philomina Nagar, Thanjavur, Tamil Nadu 613007, India"
Jayankondam,Tasmac,11.1453967,79.4319412,"4CWJ+5Q4, Vembukudi, Tamil Nadu 612902, India"
Jayankondam,TASMAC,11.1367565,79.45882040000001,"4FP5+PG4, kollidam to Kallanai Main Rd, Mullangudi, Ozhugacheri, Tamil Nadu 609807, India"
Jayankondam,Government tasmac,10.541548,79.28063209999999,"G7RJ+J76, Pappanadu, Nemilithippiakudi, Tamil Nadu 614626, India"
Jayankondam,Govt TASMAC,11.393713,79.22381779999999,"96VF+FGP, Pennadam, Eraiyur, Tamil Nadu 606111, India"
Jayankondam,Tasmac,11.137921,79.0958169,"43QW+588, Ariyalur, Tamil Nadu 621729, India"
Jayankondam,Govt Tasmac,10.7477303,79.0626322,"P3X7+33V, Thanjavur, Tamil Nadu 613403, India"
Jayankondam,TASMAC Wineshop,11.1454295,79.0676295,"43W9+53C, Ethraj Nagar, Ariyalur, Tamil Nadu 621704, India"
Jayankondam,TASMAC,11.1272845,79.06703949999999,"43G8+VRM, Ariyalur, Tamil Nadu 621704, India"
Jayankondam,Tasmac Wine Shop,11.2755258,79.52781039999999,"7GGH+647, Nattarmangalam, Tamil Nadu 608301, India"
Jayankondam,Government tasmac,10.5247296,79.3578497,"G9F5+V4X, Kannugudi East, Kannugudi North, Tamil Nadu 614901, India"
Jayankondam,Govt. TASMAC,11.6920362,79.08603,"M3RP+QC, Chithalur, Tamil Nadu 606206, India"
Jayankondam,TASMAC Godown,10.9902349,79.4299747,"XCRH+3XX, Thirubuvanam, Tamil Nadu 612103, India"
Jayankondam,Tasmac,11.1366215,79.08127379999999,"43PJ+JGR, Ariyalur - Kayarlabad Rd, Vila Ngara, Ariyalur, Tamil Nadu 621704, India"
Jayankondam,TASMAC DEPO,10.7572012,78.8108252,"QR46+V94, Trichy Nit, Tamil Nadu 620014, India"
Jayankondam,Tamil Nadu State Marketing Corporation Limited,11.2416919,78.8624921,"6VR6+MXH, SH 157, Super Nagar, Perambalur, Tamil Nadu 621212, India"
Jayankondam,"TASMAC Wine Shop, Nacharpettai",11.3920923,79.4460205,"9CRW+RCJ, Kozhai, Tamil Nadu 608703, India"
Jayankondam,Govt. Tasmac,11.0114413,78.71653169999999,"2P68+HJF, Edumalai Rd, Valaiyur, Tamil Nadu 621007, India"
Jayankondam,TASMAC,11.264683,79.1734163,"757F+V97, Sendurai to Vanjanapuram Rd, Nakkambadi, Tamil Nadu 621714, India"
Jayankondam,TASMAC,11.4096263,79.6760566,"CM5G+RCP, Unnamed Road, Chidambaram, Kannangudi, Tamil Nadu 608602, India"
Jayankondam,TASMAC,11.3889995,79.6834514,"AANDAL SAGUNTHALA ILLAM, 20, SETHU NAGAR C.THANDESWARANALLUR, Sivasakthi Nagar, Chidambaram, Tamil Nadu 608001, India"
Jayankondam,Tasmac,11.1295434,79.08123739999999,"43HJ+RF9, Jayankondam Rd, MIN Nagar, Ariyalur, Tamil Nadu 621704, India"
Chidambaram,TASMAC,11.3935042,79.7026782,"9PV3+C33, Railway Feeder Rd, Chidambaram, Tamil Nadu 608001, India"
Chidambaram,TASMAC,11.3889995,79.6834514,"AANDAL SAGUNTHALA ILLAM, 20, SETHU NAGAR C.THANDESWARANALLUR, Sivasakthi Nagar, Chidambaram, Tamil Nadu 608001, India"
Chidambaram,TASMAC,11.4096263,79.6760566,"CM5G+RCP, Unnamed Road, Chidambaram, Kannangudi, Tamil Nadu 608602, India"
Chidambaram,TASMAC Wine Shop,11.3959012,79.7056899,"Sivapuri Main Rd, Annamalai Nagar, Chidambaram, Tamil Nadu 608002, India"
Chidambaram,tasmac,11.4022459,79.6911453,"CM2R+VFR, Chennai - Nagapattinam Hwy, Chidambaram, Tamil Nadu 608001, India"
Veerappanchatram,TASMAC,11.3600415,77.7129652,"9P67+253, Bhavani Main Rd, Veerappanchatram, Erode, Tamil Nadu 638001, India"
Veerappanchatram,Tasmac Wine Shop,11.345626,77.719214,"8PW9+6MW, Erode Fort, Erode, Tamil Nadu 638001, India"
Veerappanchatram,Tasmac Veerappampalayam,11.3301988,77.69148779999999,"8MJR+4HQ, Maruthi Nagar, Thindal, Erode, Tamil Nadu 638011, India"
Veerappanchatram,Tasmac,11.3326608,77.7196179,"8PM9+3R9, Periyar Nagar, Erode, Tamil Nadu 638001, India"
Veerappanchatram,Tasmac Wine Shop,11.3261341,77.70112329999999,"8PG2+FF2, EB Officer's Colony, Palayapalayam, Erode, Tamil Nadu 638011, India"
Veerappanchatram,Tasmac,11.3447894,77.7185495,"8PV9+WC7, Erode Fort, Erode, Tamil Nadu 638001, India"
Veerappanchatram,TASMAC,11.3333312,77.76080569999999,"Erode to Kokkarayanpettai road (Kaveri river) Bridge, Erode-Kokkarayanpettai Rd, Tamil Nadu 638007, India"
Veerappanchatram,TASMAC,11.3216059,77.7508732,"8QC2+M93, Solar Pirivu, Erode, Tamil Nadu 638002, India"
Veerappanchatram,TASMAC,11.3574763,77.69071620000001,"9M4Q+VX4, Erode, Tamil Nadu 638004, India"
Veerappanchatram,Govt. Wine Shop 3477,11.3484331,77.72002169999999,"8PXC+92C, Thirunagar Colony, Erode, Tamil Nadu 638001, India"
Veerappanchatram,TASMAC BAR,11.3191089,77.7297858,"8P9H+JWF, Erode Main Rd, Housing Unit, Moolapalayam, Nadarmedu, Erode, Tamil Nadu 638002, India"
Veerappanchatram,Tasmac,11.3297998,77.72473579999999,"Bus Stop, Erode Railway Station, Erode-Chennimalai Rd, Periyar Nagar, Erode, Tamil Nadu 638001, India"
Veerappanchatram,Tasmac,11.3737539,77.70522799999999,"9PF4+G38, Bhavani Main Rd, Erode, Tamil Nadu 638005, India"
Veerappanchatram,Tasmac.Wine Shop,11.3670286,77.696955,"Ganirauttar Kulam, Sathyamangalam road, Asokapuram, Erode, Tamil Nadu 638005, India"
Veerappanchatram,Tasmac Government,11.4539846,77.67971829999999,"FM3H+HVW, taluk, Bhavani, Tamil Nadu 638301, India"
Veerappanchatram,TASMAC,11.2974555,77.5378602,"7GWQ+X4H, Erode, Tamil Nadu 638057, India"
Veerappanchatram,Tasmac Wine Shop,11.2806925,77.58784179999999,"7HJQ+749, chunnamboo oodai, Bhavani Main Rd, Erode, India"
Veerappanchatram,Tasmac,11.4427808,77.66965859999999,"CMV9+4RQ, Kalingarayanpalayam, Moolapalayam, Bhavani, Tamil Nadu 638316, India"
Veerappanchatram,TASMAC Government Wine Shop,11.3236333,77.6812246,"8MFJ+FF9, Maruthi Nagar, Nalliyampalayam, Erode, Tamil Nadu 638012, India"
Veerappanchatram,TASMAC,11.3084134,77.72590009999999,"8P5G+996, State Highway 37, Chettipalayam, Erode, Kurikaranpalayam, Tamil Nadu 638002, India"
Nellikuppam,Tasmac Wine Shop,12.8437047,80.0597975,"No-154, 1, Nellikuppam Rd, Gandhi Nagar, Kamarajapuram, Kumaran Nagar, Nandhivaram, Guduvancheri, Tamil Nadu 603202, India"
Nellikuppam,Govt tasmac,11.9147774,79.4888498,"WF7Q+WGX, Durai Arasan Nagar, Sri Ram Nagar, Viluppuram, Tamil Nadu 605602, India"
Nellikuppam,Tasmac - Govt. Wine Shop,12.4261919,79.8408527,"CRGR+F8H, Kanchipuram, Tamil Nadu 603301, India"
Nellikuppam,Govt.Tasmac,11.9566052,79.4959693,"ware Housing Corporation, 59 A, Compartment No.II, Chennai Trunk Rd, Viluppuram, Tamil Nadu 605602, India"
Nellikuppam,Govt Tasmac,11.6272711,79.6712826,"JMGC+VGR, Kullanchavadi Rd, Kullanchavadi, Tamil Nadu 607301, India"
Nellikuppam,Govt. TASMAC,11.6920362,79.08603,"M3RP+QC, Chithalur, Tamil Nadu 606206, India"
Nellikuppam,Govt TASMAC,11.393713,79.22381779999999,"96VF+FGP, Pennadam, Eraiyur, Tamil Nadu 606111, India"
Nellikuppam,TASMAC Wine Shop,11.7444317,79.756676,"PQV4+QMF, Thirupapuliyur, Cuddalore, Tamil Nadu 607002, India"
Nellikuppam,Tasmac,11.7581794,79.5481355,"QG5X+77C, Panikankupp, Panruti, Panikankuppam, Tamil Nadu 607103, India"
Nellikuppam,Pennadam government Tasmac,11.3964856,79.2368664,"96WP+HPX, Pennadam, Pe. Ponneri, Tamil Nadu 606105, India"
Nellikuppam,TASMAC,11.7733693,79.55194209999999,"QHF2+8QW, Road, Ulunthampattu, Chennai, Panruti, Tamil Nadu 607106, India"
Nellikuppam,Tasmac,11.7340933,79.6209743,"PJMC+J9R, Tamil Nadu 607102, India"
Nellikuppam,Tasmac,12.3717323,79.7787215,"9QCH+MFX, Perumbairkandigai, Tamil Nadu 603201, India"
Nellikuppam,Tasmac,11.6980608,79.5379183,"MGXQ+65F, Kadampuliyur, Tamil Nadu 607103, India"
Nellikuppam,Tasmac,11.6541656,79.4881308,"MF3Q+M76, Perperiyankuppam, Tamil Nadu 607805, India"
Nellikuppam,TASMAC,11.684085,79.7563662,"MQM4+MH7, Kudikadu, Tamil Nadu 607003, India"
Nellikuppam,TaSMaC,11.5288727,79.5532277,"GHH3+G7X, Karunguzhi Rd, Nayinakuppam, Tamil Nadu 607303, India"
Nellikuppam,Government tasmac,12.5785281,78.5760135,"HHHG+CC6, Unnamed Road, Parsampettai, Kudiyanakuppam, Jolarpet, Tamil Nadu 635851, India"
Nellikuppam,TASMAC (GOVERNMENT WINE SHOP),12.2666869,78.7406735,"7P8R+M7F, Tiruvannamalai, Tamil Nadu 606703, India"
Nellikuppam,Government Tasmac Komangalam,11.5155121,79.2746572,"G78F+6V3, Komangalam, Tamil Nadu 606003, India"
Nellikuppam,"Govt,TASMAC டாஸ்மாக்.",11.661361,79.1610196,"M566+HCF, Kottaiyur, Seevamangalam, Tamil Nadu 606305, India"
Nellikuppam,TASMAC,11.6262632,79.515975,"JGG8+G95, Indhira Gandhi Road, Neyveli T.S, Tamil Nadu 607801, India"
Nellikuppam,TASMAC,11.9040101,79.4717173,"WF3C+JM4, near bypass road janakipuram, Viluppuram, Tamil Nadu 605401, India"
Nellikuppam,"TASMAC,Deviyanandal",11.7719182,79.4269652,"QCCG+QQP, Sirulapattu, Tamil Nadu 607107, India"
Nellikuppam,TASMAC,12.3898556,79.88925549999999,"9VQQ+WPR, Kanchipuram, Tamil Nadu 603313, India"
Nellikuppam,Govt TASMAC 🍻,12.168487,78.94077,"5W9R+9R3, Thandarampattu, Tamil Nadu 606707, India"
Nellikuppam,TASMAC GOVT.,11.9920458,79.4691046,"XFR9+RJ9, Cholaganur, Tamil Nadu 605402, India"
Nellikuppam,TaSMaC,11.5637104,79.4549641,"HF73+FXP, Unnamed Road, Thoppalikuppam, Tamil Nadu 607802, India"
Nellikuppam,Tamil Nadu State Marketing Corporation Limited,11.2416919,78.8624921,"6VR6+MXH, SH 157, Super Nagar, Perambalur, Tamil Nadu 621212, India"
Nellikuppam,"Govt,TASMAC டாஸ்மாக்.",11.6395625,79.092106,"J3QR+RRH, Varanjaram R.F., Tamil Nadu 606203, India"
Nellikuppam,Tasmac,12.2177273,79.52372369999999,"6G9F+3FX, Kilaiyur, Tamil Nadu 604306, India"
Nellikuppam,Tasmac Nellithoppu,11.2163553,79.4732344,"6F8F+G7X, Kundaveli West, Tamil Nadu 612903, India"
Nellikuppam,"Goverment,Tasmac",12.1554161,78.9549569,"5X43+5X8, Thandarampattu, Tamil Nadu 606707, India"
Nellikuppam,TASMAC,11.6911483,79.2759205,"M7RG+F9, Ravutharayankuppam, Tamil Nadu 606107, India"
Nellikuppam,TaSMaC,12.0037982,79.51885949999999,"2G39+FGX, NH Service Road, Mundiyampakkam, Tamil Nadu 605601, India"
Nellikuppam,Tasmac,11.5593168,79.55515969999999,"Railway Level Crossing Gate, Pattai, Vadalur, Vadalur R.F., Tamil Nadu 607303, India"
Nellikuppam,TASMAC,11.657603,79.7057462,"MP54+27X, Tondamanatham, Tamil Nadu 607003, India"
Nellikuppam,TASMAC,11.9901815,79.4853048,"XFRP+34F, Gingee - Villupuram Rd, Tamil Nadu 605601, India"
Nellikuppam,TASMAC,11.6550269,79.5309485,"MG4J+298, Marungur, Tamil Nadu 607805, India"
Nellikuppam,TASMAC,11.6523521,79.4494283,"MC2X+WQR, Kullanchavadi Rd, Kattukudalur, Tamil Nadu 607805, India"
Nellikuppam,TASMAC Wine shop,12.4912231,79.1712119,"F5RC+FFP, Unnamed Road, Tamil Nadu 606904, India"
Nellikuppam,TASMAC,12.5108825,79.884951,"No 55, Chennai - Theni Hwy, Maduranthakam, Tamil Nadu 603306, India"
Nellikuppam,Tasmac,11.8142694,79.5535103,"RH73+PC2, Nethaji St, Pulavanur, Tamil Nadu 607205, India"
Nellikuppam,TaSmaC,11.6055827,79.4714431,"JF4C+6H4, Neyveli Twp Block-28, Neyveli T.S, Tamil Nadu 607807, India"
Nellikuppam,Tasmac shop,11.6100166,79.0584014,"J365+294, Thiyagadurgam - Adari Rd, Magarur R.F., Tamil Nadu 606204, India"
Nellikuppam,"Tasmac,wineshop",12.2611725,79.5608086,"7H66+F83, Deevanur, Tamil Nadu 604206, India"
Nellikuppam,TASMAC BAR,12.2282882,79.6488707,"6JHX+8G9, Tindivanam, Tamil Nadu 604001, India"
Nellikuppam,New Tasmac godown,12.2062458,79.0252342,"624G+G35, Tiruvannamalai, Tamil Nadu 606603, India"
Nellikuppam,Tasmac,11.950092,79.1834074,"X52M+29M, Kanakanandal, T.Keeranur, Tamil Nadu 605766, India"
Nellikuppam,Government TASMARK,12.4619362,79.3618814,"F966+QQC, Chepet, Tamil Nadu 606801, India"
Nellikuppam,TASMAC,11.81805,79.1013905,"R492+6H6, Rishivandiyam, Tamil Nadu 606205, India"
Nellikuppam,TASMAC,11.8425881,79.1425397,"R4VV+323, Aliapath, Tamil Nadu 605751, India"
Nellikuppam,TASMAC,11.943296,79.5238202,"WGVF+8G8, Viluppuram, Tamil Nadu 605103, India"
Nellikuppam,TASMAC,11.3889995,79.6834514,"AANDAL SAGUNTHALA ILLAM, 20, SETHU NAGAR C.THANDESWARANALLUR, Sivasakthi Nagar, Chidambaram, Tamil Nadu 608001, India"
Vikramasingapuram,Tasmac,8.725136599999999,77.39255380000002,"P9GV+326, Unnamed Road, Vickramasingapuram, Tamil Nadu 627425, India"
Vikramasingapuram,Tasmac Bar,8.7010425,77.41696499999999,"PC28+CQ7, Unnamed Road, Sivanthipuram, Tamil Nadu 627401, India"
Vikramasingapuram,Government tasmac,8.7296702,77.7100147,"PPH5+VX6, Vannarpettai, Tirunelveli, Tamil Nadu 627001, India"
Vikramasingapuram,TASMAC Wine Shop,8.714712,77.3837405,"P97M+VFQ, SH 178, Vickramasingapuram, Tamil Nadu 627425, India"
Ambasamudram,Tasmac bar,8.704869100000002,77.4426328,"PC3V+W3R, Ambasamudram, Tamil Nadu 627401, India"
Padmanabhapuram,TASMAC,8.2660007,77.3268269,"788G+CP4, Vilavur, Tamil Nadu 629175, India"
Padmanabhapuram,TASMAC Government Wine Shop,8.0820809,77.53834189999999,"3GJQ+R8F, Kovalam Rd, Puthugramam, Kanniyakumari, Tamil Nadu 629702, India"
Padmanabhapuram,TASMAC,8.2641764,77.29603879999999,"777W+MCF, Azahiamandapam, Tamil Nadu 629167, India"
Padmanabhapuram,TASMAC BAR,8.2383419,77.3207193,"Thuckalay, Tamil Nadu 629175, India"
Padmanabhapuram,TASMAC,8.342225599999999,77.2159017,"86R8+V87, Melpuram, Tamil Nadu 629168, India"
Padmanabhapuram,Tasmac,8.109983999999999,77.4878342,"4F6Q+244, Kaliakkavilai, Thamaraikulam, Tamil Nadu 629701, India"
Padmanabhapuram,Tasmac,8.2207338,77.27386489999999,"67CF+7GW, Thikkanamcode, Tamil Nadu 629804, India"
Padmanabhapuram,TASMAC,8.147531899999999,77.5487472,"4GXX+2F9, Anjugramam - Nagercoil Rd, Azhagappapuram, Tamil Nadu 629401, India"
Padmanabhapuram,Tasmac,8.1775634,77.3370307,"58HP+2RF, Kurunthancode, Tamil Nadu 629809, India"
Padmanabhapuram,TASMAC,8.2879529,77.26837689999999,"77Q9+58H, Swamiyar Madam, Tamil Nadu 629158, India"
Padmanabhapuram,Government tasmac,8.7296702,77.7100147,"PPH5+VX6, Vannarpettai, Tirunelveli, Tamil Nadu 627001, India"
Padmanabhapuram,TASMAC Time Pass Bar,8.1886873,77.4346868,"Avai Shanmugam Salai, Ozhuginasery, Nagercoil, Tamil Nadu 629001, India"
Padmanabhapuram,"Govt, beverage shop",8.249048199999999,77.3228586,"68XF+J4W, Chakala, Thuckalay, Tamil Nadu 629175, India"
Padmanabhapuram,TASMAC,8.2463199,77.5581806,"6HW5+F7, Kumarapuram, Tamil Nadu 627105, India"
Padmanabhapuram,TASMAC,8.231018299999999,77.2164495,"197, VADALIKUTTAM VILAI, Theruvukkadai, Tamil Nadu 629157, India"
Padmanabhapuram,TASMAC LIQUOR SHOP,8.1226412,77.53732579999999,"4GFP+3W8, Vattakottai Rd, Kottaram, Nari Kulam, Tamil Nadu 629401, India"
Padmanabhapuram,TASMAC goudon,8.2572019,77.4968505,"7F4W+VPX, Nedumangad Hwy, Tamil Nadu 627105, India"
Padmanabhapuram,TASMAC,8.326025099999999,77.2589435,"87G5+9HW, Athur, Attoor, Tamil Nadu 629177, India"
Padmanabhapuram,TASMAC Padmanabapuram,8.2490509,77.32286719999999,"68XF+J4X, Chakala, Thuckalay, Tamil Nadu 629175, India"
Mettupalayam,TASMAC,11.3134474,76.9318764,"8W7J+9QF, SH 15, Odanthurai, Tamil Nadu 641305, India"
Mettupalayam,tasmac,11.2885489,76.9484578,"7WQX+99H, Chickadasampalayam, Tamil Nadu 641301, India"
Mettupalayam,TASMAC,11.2372725,76.9430972,"6WPV+W6G, Karamadai, Tamil Nadu 641104, India"
Mettupalayam,TASMAC,11.0462401,76.94753229999999,"2WWX+G22, Mettupalayam Rd, Venkateswara Nagar, Koundampalayam, Coimbatore, Tamil Nadu 641030, India"
Mettupalayam,Tasmac Wine Shop,11.2037568,76.9677159,"6X39+G34, Kalipalayam Rd, Mathampalayam, Bilichi, Tamil Nadu 641104, India"
Mettupalayam,Govt Tasmac,11.0231055,76.9510951,"7, Alagesan Rd, Nesavaalar Colony, Saibaba Colony, Coimbatore, Tamil Nadu 641043, India"
Mettupalayam,Tasmac Wine Shop,11.2863523,76.9444285,"1624, Avinashi Road, Avinashi Road, Near S.S Engineer, Chinniyampalayam, Coimbatore, Tamil Nadu 641062, India"
Mettupalayam,TASMAC,11.3012888,76.9405603,"8W2R+G67, SH 80, Mettupalayam, Tamil Nadu 641301, India"
Dharapuram,Tasmac,10.7290701,77.5230698,"PGHF+J6J, Chenniappa Nagar, Dharapuram South, Dharapuram, Tamil Nadu 638656, India"
Dharapuram,TASMAC,10.7430517,77.55354369999999,"PHV2+FXQ, Dharapuram, Tamil Nadu 638673, India"
Sathyamangalam,TASMAC,11.4916389,77.2466458,"F6RW+MMC, Vaikalmedu Road, Sathyamangalam, Tamil Nadu 638402, India"
Sathyamangalam,Government TASMAC,11.2778354,77.251094,"77H2+5C5, Sevur, Tamil Nadu 638460, India"
Sathyamangalam,TASMAC,11.458673,77.25996599999999,"F755+FX8, Unnamed Road, Indiampalayam, Tamil Nadu 638402, India"
Sathyamangalam,Government TASMAK,11.3464996,77.1592304,"85W5+HMX, Puliampatti, Tamil Nadu 638459, India"
Sathyamangalam,Tasmac,11.499532,77.24568359999999,"31, Karatoor Road, North Rangasamuthram, Sathyamangalam, Tamil Nadu 638402, India"
Ayyampettai,Tasmac,10.9008236,79.18855769999999,"W52Q+8CF, Ayyampettai, Tamil Nadu 614201, India"
Ayyampettai,Government tasmac,10.7624246,79.14006429999999,"Q46R+X28, Philomina Nagar, Thanjavur, Tamil Nadu 613007, India"
Ayyampettai,Govt Tasmac,10.7477303,79.0626322,"P3X7+33V, Thanjavur, Tamil Nadu 613403, India"
Ayyampettai,TASMAC,10.748994,79.1129941,"Bus Stand, Thanjavur New, New Bus Stand Rd, AVP Azhagammal Nagar, Thanjavur, Tamil Nadu 613004, India"
Ayyampettai,Tasmac,10.9001285,79.1914517,"W52R+3H4, kurinji nagar,madhagadi, Ayyampettai, Tamil Nadu, India"
Vandavasi,TASMAC,12.5098751,79.59806739999999,"GH5X+X64, Vandavasi, Tamil Nadu 604408, India"
Vandavasi,Tasmac bypass KS MANGALAM,12.5033819,79.58712419999999,"GH3P+9R5, Vandavasi, Tamil Nadu 604408, India"
Orathanadu,TASMAC,10.6267634,79.2527482,"J7G3+P35, MDR834, Mandalakkottai, Orathanadu, Tamil Nadu 614625, India"
Orathanadu,Government tasmac,10.541548,79.28063209999999,"G7RJ+J76, Pappanadu, Nemilithippiakudi, Tamil Nadu 614626, India"
Orathanadu,Government tasmac,10.7624246,79.14006429999999,"Q46R+X28, Philomina Nagar, Thanjavur, Tamil Nadu 613007, India"
Orathanadu,Government tasmac,10.5247296,79.3578497,"G9F5+V4X, Kannugudi East, Kannugudi North, Tamil Nadu 614901, India"
Orathanadu,Tasmac,10.5681877,79.31849129999999,"H899+79H, Thondarampattu, Tamil Nadu 614905, India"
Orathanadu,TASMAC,10.6193899,79.2549866,"VOC Nagar, Orathanadu, Tamil Nadu 614625, India"
Orathanadu,Govt Tasmac,10.7477303,79.0626322,"P3X7+33V, Thanjavur, Tamil Nadu 613403, India"
Orathanadu,Tasmac,10.7011578,79.2102982,"Thurayur, Kattukuruchi, Tamil Nadu 614904, India"
Orathanadu,Tasmac,10.6920541,79.21365709999999,"M6R7+RC9, Kattukuruchi, Tamil Nadu 614904, India"
Orathanadu,TASMAC,10.748994,79.1129941,"Bus Stand, Thanjavur New, New Bus Stand Rd, AVP Azhagammal Nagar, Thanjavur, Tamil Nadu 613004, India"
Ponneri,Tasmac,13.3192771,80.20281779999999,"8693+P46, Pallaver Nagar, Ponneri, Tamil Nadu 601204, India"
Ponneri,Tasmac,13.3350638,80.1906382,"85PR+26H, NGO Nagar Extension, Ponneri, Tamil Nadu 601204, India"
Pennagaram,government Tasmac,12.2959386,78.2173801,"76W8+9XC, Dharmapuri, Tamil Nadu 635111, India"
Pennagaram,"Govt,TASMAC",12.0962897,78.2897007,"37WQ+GV8, Dharmapuri, Tamil Nadu 635303, India"
Pennagaram,MVG STORE,12.1336865,77.89585720000001,"49, bazaar street, Pennagaram, Tamil Nadu 636810, India"
Pennagaram,Tasmac Government,11.4539846,77.67971829999999,"FM3H+HVW, taluk, Bhavani, Tamil Nadu 638301, India"
Pennagaram,GOVERMENT WINE SHOP MAIN UNIT DPI,12.097505,78.11710599999999,"34X8+2R5, Dharmapuri - Jarugu - Hogenakkal Rd, Thadangam, Tamil Nadu 636803, India"
Pennagaram,Government TASMAC,11.2778354,77.251094,"77H2+5C5, Sevur, Tamil Nadu 638460, India"
Pennagaram,TASMAC Wine Shop,12.1438838,78.13261229999999,"44VM+H24, Pappinaickanahalli, Tamil Nadu 636705, India"
Pennagaram,Government tasmac,12.5785281,78.5760135,"HHHG+CC6, Unnamed Road, Parsampettai, Kudiyanakuppam, Jolarpet, Tamil Nadu 635851, India"
Pennagaram,Tasmac,12.2194483,78.1197373,"6499+QWF, pulikarai to, Pothalahalli, India"
Pennagaram,Tasmac,12.0083108,77.81386479999999,"2R57+8GH, Unnamed Road, Senganur, Tamil Nadu 636810, India"
Pennagaram,Tasmac,12.2623779,78.0664158,"7368+XH3, Dharmapuri, Tamil Nadu 636808, India"
Pennagaram,Tasmac,12.3488515,78.21192099999999,"86X6+HQ3, Sappanipatti, Tamil Nadu 635111, India"
Pennagaram,TASMAC,12.071533,78.114862,"ajithkarthickumar selvam 0, Tamil Nadu 636807, India"
Pennagaram,govt Tasmac,11.2578678,78.15988399999999,"7555+5X2, Swamy Nagar, M. K. Ramasamy Nagar, Tamil Nadu 637001, India"
Pennagaram,Tasmac jarugu,12.001624,78.0252419,"222G+J3Q, Dharmapuri - Jarugu - Hogenakkal Rd, Maniathahalli, Tamil Nadu 636811, India"
Pennagaram,TASMAC WINE SHOP,12.1366774,78.1612837,"Dharmapuri, Tamil Nadu 636701, India"
Pennagaram,Tasmac,12.5224407,78.026049,"G2CG+XCF, Pillari Agraharam, Tamil Nadu 635116, India"
Pennagaram,Tasmac wine shop,12.1607125,78.15220839999999,"5562+7VP, Unnamed Road, Tamil Nadu 636701, India"
Pennagaram,Tasmac,11.2260827,77.5778737,"6HGH+C5J, Ingur, Tamil Nadu 638058, India"
Pennagaram,Govt. Wine Shop (Tasmac),11.8204577,78.62519549999999,"RJCG+94Q, Chinnakalrayan Hills Therkkunadu, Tamil Nadu 636138, India"
Chettinad,govt tasmac,9.9923001,77.934995,"XWRP+W2J, Mudalaikulam, Tamil Nadu 625207, India"
Chettinad,Government TASMAC Wine Shop,9.8240115,78.0851703,"R3FP+J33, Soorakkulam, Tamil Nadu 625022, India"
Chettinad,Government tasmac,10.7624246,79.14006429999999,"Q46R+X28, Philomina Nagar, Thanjavur, Tamil Nadu 613007, India"
Chettinad,Government tasmac,10.541548,79.28063209999999,"G7RJ+J76, Pappanadu, Nemilithippiakudi, Tamil Nadu 614626, India"
Chettinad,Government tasmac,10.5247296,79.3578497,"G9F5+V4X, Kannugudi East, Kannugudi North, Tamil Nadu 614901, India"
Chettinad,Govt. Tasmac,11.0114413,78.71653169999999,"2P68+HJF, Edumalai Rd, Valaiyur, Tamil Nadu 621007, India"
Chettinad,Tasmac Government Wine Shop,9.3385486,78.5724855,"MDR637, Tamil Nadu 623704, India"
Chettinad,TASMAC கிக் பார் GOVERNMENT,9.344913799999999,78.8670155,"8VV8+XR, Ramanathapuram, Tamil Nadu 623504, India"
Chettinad,Govt Tasmac,9.9057271,78.13363559999999,"W44M+7FR, West Anuppanadi, Tamil Nadu Housing Board Colony, Anuppanadi, Madurai, Tamil Nadu 625009, India"
Chettinad,Government Wine Shop,10.0677036,78.767771,"3Q99+346, Kallukatti, Karaikudi, Tamil Nadu 630001, India"
Chettinad,Govt.TASMAC,11.1244625,78.9548362,"4XF3+QXJ, Tamil Nadu 621106, India"
Chettinad,TASMAC,10.1021081,78.65240779999999,"4M22+RXR, Thenkarai Rd, Thenkarai, Tamil Nadu 630207, India"
Chettinad,Govt Tasmac,10.7477303,79.0626322,"P3X7+33V, Thanjavur, Tamil Nadu 613403, India"
Chettinad,Govt Wine Shop,10.0741235,78.7820144,"3rd, 100 Feet Rd, Thilgar Nagar, Karaikudi, Tamil Nadu 630003, India"
Chettinad,TASMAC,9.841270999999999,78.5205278,"RGRC+G6M, Paiyaurpillaivayal, Tamil Nadu 630561, India"
Chettinad,TASMAC,10.1060961,78.837511,"Kandanur Puduvayal Railway Station, SH28, Tamil Nadu 630108, India"
Chettinad,Tasmac Shop,10.692628,78.5184821,"MGV9+395, Chettichatram, Tamil Nadu 621306, India"
Chettinad,Tasmac,10.5681877,79.31849129999999,"H899+79H, Thondarampattu, Tamil Nadu 614905, India"
Chettinad,TaSMaC,11.0786086,78.5929015,"3HHV+C5R, Unnamed Road, Thuraiyur Pudupatti, Tamil Nadu 621014, India"
Chettinad,Tasmac - Wineshop,9.878860399999999,78.02896849999999,"V2HH+HH2, Fourway Line.Under the Bridge, Service Rd, Thoppur, Tamil Nadu 625008, India"
Chettinad,Karur Tasmac godown,10.9593482,78.1089819,"X455+PHQ, Thozilpettai, Karur, Tamil Nadu 639004, India"
Chettinad,Tasmac,9.9336574,78.0558348,"W3M4+F89, NH 44, Nagamalaipudukottai, Tamil Nadu 625019, India"
Chettinad,TASMAC,10.1439094,78.79966209999999,"4QVX+HV7, Pallathur, Tamil Nadu 630107, India"
Chettinad,Tasmac Wines Shop - Kurinji Bar,9.936745499999999,78.1368464,"W4PP+MPX, Alagar Kovil Main Rd, Outpost, Chinna Chokikulam, Madurai, Tamil Nadu 625301, India"
Chettinad,Tasmac,9.401157099999999,78.2805537,"C72J+F68, Melaramanadhi, Tamil Nadu 623603, India"
Chettinad,Tasmac Karungulam,9.3804081,78.4273571,"9CJG+5W5, Anaiyur, Tamil Nadu 623604, India"
Chettinad,TASMAC,11.0791885,78.1211541,"34HC+MF6, Vandigate, Tamil Nadu 637015, India"
Chettinad,TASMAC,9.7427645,78.38942639999999,"P9VQ+4Q3, Vagudi, Tamil Nadu 630602, India"
Chettinad,Tasmac,10.2369179,78.2984262,"67PX+Q98, Samudrapatti, Tamil Nadu 624402, India"
Chettinad,Tasmac,9.674478299999999,78.102971,"M4F3+Q5X, Kariapatti, Tamil Nadu 626106, India"
Chettinad,TASMAC DEPO,10.7572012,78.8108252,"QR46+V94, Trichy Nit, Tamil Nadu 620014, India"
Chettinad,Tasmac,10.1061484,78.58984530000001,"4H4Q+FW5, Ranasingapuram, Tirupattur, Tamil Nadu 630211, India"
Chettinad,TASMAC,11.0567119,79.07421219999999,"334F+MPF, Keezhapalur, Tamil Nadu 621707, India"
Chettinad,TASMAC WINESHOP,9.1729919,78.4901618,"5FFR+633, Thanjavur - Kalayarkoil - Sayalkudi Rd, Kadaladi Vilakku, Kadugusandai, Tamil Nadu 623120, India"
Chettinad,Tasmac,9.7041323,77.97539379999999,"PX3G+M52, Kalligudi, Tamil Nadu 625701, India"
Chettinad,Tasmac HeadOffice Madurai,9.850197699999999,78.2272833,"V62G+3W6, Kalugerkadai, Tamil Nadu 630611, India"
Rasipuram,Tasmac,11.4670011,78.2001946,"F682+Q3X, Rasipuram, Tamil Nadu 637408, India"
Rasipuram,TasMac Mall Shop,11.4544324,78.1898172,"F53Q+PWW, Ramamoorthy Nagar, Rasipuram, Tamil Nadu 637408, India"
Rasipuram,Tasmac uallasam,11.4551923,78.1904508,"F54R+35W, Rasipuram, Tamil Nadu 637408, India"
Rasipuram,TASMAC 🍷 Shop,11.4909599,78.2492644,"F6RX+9PJ, Vadugam, Tamil Nadu 637407, India"
Rasipuram,TASMAC,11.4502689,78.15516579999999,"F524+433, Anaikattipalayam, K V Pudur, Tamil Nadu 637401, India"
Rasipuram,Tasmac wine shop,11.5357878,78.1432651,"G4PV+886, Namakkal - Rasipuram - Salem Rd, Mallur, Tamil Nadu 636203, India"
Rasipuram,டாஸ்மாக்,11.492544,78.14565209999999,"F4VW+27F, Attaiyampatti - Masakkalipatti Rd, Rasipuram, Tamil Nadu 636301, India"
Rasipuram,Tasmac Bar,11.4197402,78.0969836,"C39W+VQX PANCHAYAT OFFICE, Minnampalli, Tamil Nadu 637410, India"
Rasipuram,govt Tasmac,11.2578678,78.15988399999999,"7555+5X2, Swamy Nagar, M. K. Ramasamy Nagar, Tamil Nadu 637001, India"
Rasipuram,Tasmac,11.4489933,78.0681013,"C3X9+H6P, Mallasamudram - Vaiyappamalai Main Rd, Aathumedu, Tamil Nadu 637410, India"
Rasipuram,GOVT TASMAC,11.2511989,78.101185,"7422+FFJ, Namakkal, Tamil Nadu 637003, India"
Kangeyam,Tasmac Thirupur Rod,11.0077055,77.5589676,"2H55+5MH, Kangeyam, Tamil Nadu 638701, India"
Kangeyam,Tasmac Raja Hotel,10.998302,77.5725727,"XHXF+82G, Kangeyam, Tamil Nadu 638701, India"
Kangeyam,"Tasmac Muthur Road, Kangeyam",10.9963762,77.5815915,"XHWJ+GJQ, Tiruppur, Tamil Nadu 638701, India"
Kangeyam,Tasmac,11.0693783,77.42035170000001,"3C9C+Q45, Kangeyam Palayam - Peruntholuve Rd, South Nallur, Tamil Nadu 641606, India"
Kangeyam,TASMAC,10.8536397,77.4500745,"VF32+F24, Kangayam Rd, Kundadam, Tamil Nadu 638702, India"
Kangeyam,TASMAC,11.0112172,77.57293469999999,"554, Palayakottai Rd, Kangeyam, Tamil Nadu 638701, India"
Kodaikanal,Tasmac govt,10.239175,77.49773929999999,"6FQX+M46, Kodaikanal, Tamil Nadu 624101, India"
Kodaikanal,TaSMaC,10.2368324,77.4949489,"6FPV+PXP, Bazaar Rd, Kodaikanal, Tamil Nadu 624101, India"
Kodaikanal,Tasmac Bar,10.2346969,77.4928537,"6FMV+V4H, MDR217, Kodaikanal, Tamil Nadu 624101, India"
Tittakudi,Govt Tasmac,11.6272711,79.6712826,"JMGC+VGR, Kullanchavadi Rd, Kullanchavadi, Tamil Nadu 607301, India"
Tittakudi,Govt.TASMAC,11.1244625,78.9548362,"4XF3+QXJ, Tamil Nadu 621106, India"
Tittakudi,Government tasmac,10.5247296,79.3578497,"G9F5+V4X, Kannugudi East, Kannugudi North, Tamil Nadu 614901, India"
Tittakudi,Government tasmac,10.7624246,79.14006429999999,"Q46R+X28, Philomina Nagar, Thanjavur, Tamil Nadu 613007, India"
Tittakudi,"Govt,TASMAC டாஸ்மாக்.",11.661361,79.1610196,"M566+HCF, Kottaiyur, Seevamangalam, Tamil Nadu 606305, India"
Tittakudi,Tasmac Wine shop,11.4189775,79.1270503,"C49G+HRV, MDR814, Pulivalam, Tamil Nadu 606106, India"
Tittakudi,Govt. TASMAC,11.6920362,79.08603,"M3RP+QC, Chithalur, Tamil Nadu 606206, India"
Tittakudi,TASMAC Wine Shop,11.3959012,79.7056899,"Sivapuri Main Rd, Annamalai Nagar, Chidambaram, Tamil Nadu 608002, India"
Tittakudi,Govt TASMAC,11.393713,79.22381779999999,"96VF+FGP, Pennadam, Eraiyur, Tamil Nadu 606111, India"
Tittakudi,Pennadam government Tasmac,11.3964856,79.2368664,"96WP+HPX, Pennadam, Pe. Ponneri, Tamil Nadu 606105, India"
Tittakudi,Govt Tasmac,10.7477303,79.0626322,"P3X7+33V, Thanjavur, Tamil Nadu 613403, India"
Tittakudi,govt Tasmac,11.2578678,78.15988399999999,"7555+5X2, Swamy Nagar, M. K. Ramasamy Nagar, Tamil Nadu 637001, India"
Tittakudi,TASMAC shop Byepass,11.525624,79.3434551,"G8GV+798, ulunthurpet - Cuddalore byepass, vridhachalam, Ponneri, Tamil Nadu, India"
Tittakudi,TASMAC,11.2973678,78.9735975,"7XWF+XC5, Keelapuliyur-Ayikkudi-Kallampudhur Rd, Sirumathur, Tamil Nadu 621115, India"
Tittakudi,Government Tasmac Komangalam,11.5155121,79.2746572,"G78F+6V3, Komangalam, Tamil Nadu 606003, India"
Tittakudi,"Govt,TASMAC டாஸ்மாக்.",11.6395625,79.092106,"J3QR+RRH, Varanjaram R.F., Tamil Nadu 606203, India"
Tittakudi,Tasmac,10.5681877,79.31849129999999,"H899+79H, Thondarampattu, Tamil Nadu 614905, India"
Tittakudi,Tamil Nadu State Marketing Corporation Limited,11.2416919,78.8624921,"6VR6+MXH, SH 157, Super Nagar, Perambalur, Tamil Nadu 621212, India"
Tittakudi,TASMAC,11.6262632,79.515975,"JGG8+G95, Indhira Gandhi Road, Neyveli T.S, Tamil Nadu 607801, India"
Tittakudi,TASMAC,11.6523521,79.4494283,"MC2X+WQR, Kullanchavadi Rd, Kattukudalur, Tamil Nadu 607805, India"
Tittakudi,Govt. Wine Shop (Tasmac),11.8204577,78.62519549999999,"RJCG+94Q, Chinnakalrayan Hills Therkkunadu, Tamil Nadu 636138, India"
Tittakudi,Tasmac,11.7340933,79.6209743,"PJMC+J9R, Tamil Nadu 607102, India"
Tittakudi,Govt tasmac 10327,11.1477784,78.59488329999999,"MSK Complex, Balaji Hospital Rd, Thuraiyur, Tamil Nadu 621010, India"
Tittakudi,TASMAC Liquor Store,10.995484,78.1919765,"X5WR+5RR, Agalapadhai, Sullipalayam, Kattuputhur, Tamil Nadu 621207, India"
Tittakudi,TASMAC Godown,10.9902349,79.4299747,"XCRH+3XX, Thirubuvanam, Tamil Nadu 612103, India"
Tittakudi,GOVT TASMAC,11.2511989,78.101185,"7422+FFJ, Namakkal, Tamil Nadu 637003, India"
Tittakudi,Tasmac,11.1362868,78.4493545,"4CPX+GP, Thathaiyangarpet, Urudaiyapatti, Tamil Nadu 621214, India"
Tittakudi,TASMAC,11.3935042,79.7026782,"9PV3+C33, Railway Feeder Rd, Chidambaram, Tamil Nadu 608001, India"
Tittakudi,TASMAC,11.0567119,79.07421219999999,"334F+MPF, Keezhapalur, Tamil Nadu 621707, India"
Tittakudi,Tasmac Wine Shop,10.8427666,78.6079918,"RJV5+455, Kulumani Main Rd, Tiruchirappalli, Mullikarumbur, Tamil Nadu 639103, India"
Tittakudi,Tasmac (Wine Shop / Bar),10.7962297,78.6842956,"138 Near Daily Thanthi, Junction, Bharathiyar Salai, Sangillyandapuram, Tiruchirappalli, Tamil Nadu 620001, India"
Tittakudi,TASMAC,11.7610781,78.8801884,"QV6J+C3P, Kallakurichi - Kachirapalayam Rd, Vadakkanandal, Tamil Nadu 606201, India"
Tittakudi,Tasmac wine shop,10.7427803,78.83434369999999,"PRVM+4P3, Trichy - Tanjore Rd, Tamil Nadu 620015, India"
Tittakudi,TASMAC,11.2170002,79.7299109,"By pass road 48, Sattanathapuram, Sirkali, Tamil Nadu 609109, India"
Tittakudi,Govt. Tasmac,11.0114413,78.71653169999999,"2P68+HJF, Edumalai Rd, Valaiyur, Tamil Nadu 621007, India"
Tittakudi,Government tasmac,10.541548,79.28063209999999,"G7RJ+J76, Pappanadu, Nemilithippiakudi, Tamil Nadu 614626, India"
Athur,Tasmac,12.758575,79.952244,"QX52+CVM, Appur R.F., Tamil Nadu 603101, India"
Athur,TASMAC Government Wine Shop,13.2606756,80.2895995,"R S, Main Road, Attipattu, Chennai, Nandiambakkam, Tamil Nadu 600120, India"
Athur,Tasmac,12.6492508,79.9392795,"JWXQ+PP2, Chennai - Villupuram - Trichy - Kanyakumari Rd, Mamandur, Tamil Nadu 603111, India"
Athur,Tasmac - Govt. Wine Shop,12.4261919,79.8408527,"CRGR+F8H, Kanchipuram, Tamil Nadu 603301, India"
Athur,Tasmac,12.8666558,79.696117,"VM8W+MC9, Unnamed Road, Enathur, Tamil Nadu 631502, India"
Athur,Tasmac Warehouse,13.092475,80.172291,"600058, D-83-84, Ambattur Industrial Estate Rd, Ambattur Industrial Estate, Chennai, Tamil Nadu 600058, India"
Athur,Govt tasmac,11.9147774,79.4888498,"WF7Q+WGX, Durai Arasan Nagar, Sri Ram Nagar, Viluppuram, Tamil Nadu 605602, India"
Athur,Tasmac,13.0656166,80.2738241,"No. 19, Triplicane High Rd, Ellis Puram, Padupakkam, Triplicane, Chennai, Tamil Nadu 600005, India"
Athur,TASMAC,13.1160588,80.2249107,"468F+CXG, Kandasamy St, Masakkalipalayam, Periyar Nagar West, Perambur, Chennai, Tamil Nadu 600082, India"
Athur,Government TASMAC,11.2778354,77.251094,"77H2+5C5, Sevur, Tamil Nadu 638460, India"
Athur,TASMAC Agasthya,13.123357,80.2877961,"47FQ+84M, Sanjeevarayanpet, Old Washermanpet, Chennai, Tamil Nadu 600021, India"
Athur,Tasmac,12.6235025,79.7700971,"JQFC+C25, Unnamed Road, L.Endathur, Tamil Nadu 603406, India"
Athur,Govt. TASMAC,11.6920362,79.08603,"M3RP+QC, Chithalur, Tamil Nadu 606206, India"
Athur,TASMAC,12.7072142,79.97762329999999,"86, GST Rd, Chengalpattu, Pulipakkam, Tamil Nadu 603002, India"
Athur,Tasmac Wine Shop,12.8862464,80.0808982,"V3PJ+F9R, Vandalur, Tamil Nadu 600048, India"
Athur,TASMAC,13.0851964,80.1379401,"34PQ+35G, Periya Koladi Rd, Pachaiappan Nagar Phase I, Koladdi Village, Kil Ayanambakkam, Chennai, Tamil Nadu 600077, India"
Athur,Tasmac Wine Shop,12.8120544,79.8306506,"RR6J+R7C, Uthukadu, Tamil Nadu 631601, India"
Athur,Tamil Nadu State Marketing Corporation Limited,13.0772206,80.26506119999999,"37G8+V2M, IV Floor, CMDA Tower-II, Gandhi Irwin Bridge Road, Triplicane, Egmore, Chennai, Tamil Nadu 600008, India"
Athur,"Tasmac, Thiruporur",12.7329535,80.1812317,"P5MJ+5FQ, Kanchipuram, Tamil Nadu 603110, India"
Athur,Tasmac 2,12.7915045,80.0282801,"Q2RH+J82, Maraimalai Nagar, Tamil Nadu 603204, India"
Athur,TASMAC Wine Shop & Bar,12.8479882,80.22176139999999,"R6XC+5PR, Thalambur Rd, Navalur, Tamil Nadu 600130, India"
Athur,TASMAC,12.9812505,80.1475975,"X4JX+G25, Mallika Nagar, Meenambakkam, Chennai, Tamil Nadu 600016, India"
Athur,Tasmac,12.6866546,79.98324079999999,"MXPM+M79, Grand Southern Trunk Rd, Anna Nagar, Chengalpattu, Tamil Nadu 603001, India"
Athur,Tasmac Wine Shop,12.8532489,80.1411907,"V43R+7FW, Rathinamangalam, Kandigai, Tamil Nadu 600048, India"
Athur,Tasmac,12.9724454,79.94006739999999,"SH57, East Coast Rd, Sriperumbudur, Tamil Nadu 602105, India"
Athur,TASMAC Wine Shop,13.0442714,80.1481744,"19 & 20 Raja's Garden, Vanagaram, Chettiyar Agaram Rd, Rajas Garden, Porur, Chennai, Tamil Nadu 600095, India"
Athur,TASMAC Wine shop,13.0373992,80.2341586,"26PM+XM3, Dhandapani St, T. Nagar, Chennai, Tamil Nadu 600017, India"
Athur,TASMAC,13.0980563,80.1472233,"48, Ambattur Rd, TNHB Colony, KK Nagar, Ambattur, Chennai, Tamil Nadu 600053, India"
Athur,Tasmac,13.0045078,80.0961408,"233W+RF6, Earrikarai Rd, Kundrathur, Chennai, Sikkarayapuram, Tamil Nadu 600069, India"
Athur,Tasmac,12.8997792,80.1811436,"Naviyas Sarumathi Apartment, Gangai Amman Koil St, Noothencheri, Vengavasal, Chennai, Tamil Nadu 600100, India"
Athur,Tasmac,13.0999214,80.22601689999999,"36XG+X97, Parasurama Eswaran Koil Main St, Ramanuja Nagar, United India Nagar, Ayanavaram, Chennai, Tamil Nadu 600023, India"
Athur,Tasmac Wineshop,13.0293361,79.95891809999999,"2XH5+PHM, Kondavakkam, Tamil Nadu 602025, India"
Athur,Tasmac Wine and Bar,13.0717887,80.20230509999999,"36C2+PW7, Unnamed Road, Koyambedu, Chennai, Tamil Nadu 600107, India"
Athur,TASMAC,12.9874621,80.2555627,"X7P4+X6P, SH 49, Ranganatha Puram, Thiruvanmiyur, Chennai, Tamil Nadu 600041, India"
Athur,Tasmac outlet,13.0646695,80.2117463,"72, A , 1st floor, 100 Feet Rd, Vadapalani, Chennai, Tamil Nadu 600026, India"
Athur,TASMAC - Bar,13.1255816,80.141644,"44GR+6MJ, NH 716, Shobha Nagar, Ambattur, Chennai, Tamil Nadu 600109, India"
Athur,Tasmac,13.1709345,80.09494629999999,"53CV+9XG, Vishnu Nagar, New Vellanur, Tamil Nadu 600065, India"
Athur,Tasmac,13.167022,80.2463854,"no.r106, 2, Kamaraj Salai, MMDA, TNHB Layout, Mathur, Tamil Nadu 600068, India"
Athur,Tasmac Wine Shop,12.8935438,80.071435,"V3VC+CH8, Bharati Nagar, Perungalathur, Tamil Nadu 600048, India"
Athur,TASMAC,12.948221,80.1952214,"W5XW+73X, S. Kolathur, Kovilambakkam, Viduthalai Nagar, Kovilambakkam, Chennai, Tamil Nadu 600129, India"
Athur,TASMAC,12.7114522,80.1027807,"43/2, Chengalpattu Main Road, Viralpakkam,Vengur X road, Chengalpattu - Thiruporur Rd, Tamil Nadu 603108, India"
Gobichettipalayam,Tasmac,11.4717428,77.4341774,"FCCM+MMV, Burial Ground Rd, Gobichettipalayam, Tamil Nadu 638452, India"
Gobichettipalayam,Tasmac Elite shop,11.4530038,77.4352408,"FC3P+635, THIRUPUR MAIN ROAD, opp. ZEON THEATER, Kuthirai Vandi Theru, Gobichettipalayam, Tamil Nadu 638476, India"
Mudukulathur,Tasmac wine shop,9.359287799999999,78.52128239999999,"9G5C+PG7, Tamil Nadu 623704, India"
Mudukulathur,TASMAC கிக் பார் GOVERNMENT,9.344913799999999,78.8670155,"8VV8+XR, Ramanathapuram, Tamil Nadu 623504, India"
Mudukulathur,Tasmac Government Wine Shop,9.3385486,78.5724855,"MDR637, Tamil Nadu 623704, India"
Mudukulathur,TASMAC WINE SHOP,9.3478265,78.4846803,"8FXM+4V, Melamudukulathur, Tamil Nadu 623704, India"
Mudukulathur,Tasmac Kulathur,9.004940699999999,78.2046806,"2633+XVF, Thoothukudi, Kulathur East, Tamil Nadu 628903, India"
Mudukulathur,Government TASMAC Wine Shop,9.8240115,78.0851703,"R3FP+J33, Soorakkulam, Tamil Nadu 625022, India"
Mudukulathur,govt tasmac,9.9923001,77.934995,"XWRP+W2J, Mudalaikulam, Tamil Nadu 625207, India"
Mudukulathur,Government tasmac bar,9.723424999999999,77.8497246,"PRFX+9VG, Kilangulam, Tamil Nadu 625702, India"
Mudukulathur,Ramnad tasmac godown,9.359598499999999,78.85313339999999,"9V53+R65, Nehru Nagar, Ramanathapuram, Tamil Nadu 623504, India"
Mudukulathur,Government TASMAC,11.2778354,77.251094,"77H2+5C5, Sevur, Tamil Nadu 638460, India"
Mudukulathur,Tasmac Govt,8.8376421,78.1421847,"R4QR+3V3, Davis Puram, Thoothukudi, Tamil Nadu 628002, India"
Mudukulathur,tasmac whine shop,9.3781594,78.85558999999999,"9VH4+768, Ramanathapuram, Tamil Nadu 623504, India"
Mudukulathur,Tasmac,9.1973419,78.5920082,"5HWR+WRM, Melakidaram, Tamil Nadu 623528, India"
Mudukulathur,Tasmac Karungulam,9.3804081,78.4273571,"9CJG+5W5, Anaiyur, Tamil Nadu 623604, India"
Mudukulathur,TASMAC,9.6256582,78.8642842,"NH536, Tamil Nadu 623525, India"
Mudukulathur,அரசு மதுபானக்கடை (TASMAC),9.296659499999999,78.9588873,"7XW5+JHR, irutoorani, Tamil Nadu 623524, India"
Mudukulathur,TASMAC,9.3656279,78.8366137,"139, Master Plan Complex Madurai Rameswaram Road Sakkarakottai Village, Ramanathapuram, Coimbatore, Tamil Nadu 623503, India"
Thiruvadanai,TASMAC கிக் பார் GOVERNMENT,9.344913799999999,78.8670155,"8VV8+XR, Ramanathapuram, Tamil Nadu 623504, India"
Thiruvadanai,Tasmac Government Wine Shop,9.3385486,78.5724855,"MDR637, Tamil Nadu 623704, India"
Thiruvadanai,govt tasmac,9.9923001,77.934995,"XWRP+W2J, Mudalaikulam, Tamil Nadu 625207, India"
Thiruvadanai,TASMAC,9.4251168,78.61799599999999,"CJG9+25X, Tiruvarangam, Tamil Nadu 623712, India"
Thiruvadanai,Government TASMAC Wine Shop,9.8240115,78.0851703,"R3FP+J33, Soorakkulam, Tamil Nadu 625022, India"
Thiruvadanai,Tasmac Wine Shop,10.3623809,79.1966345,"956W+XM2, Thiruchitrambalam, Tiruchitrambalam East, Tamil Nadu 614628, India"
Thiruvadanai,Ramnad tasmac godown,9.359598499999999,78.85313339999999,"9V53+R65, Nehru Nagar, Ramanathapuram, Tamil Nadu 623504, India"
Thiruvadanai,tasmac whine shop,9.3781594,78.85558999999999,"9VH4+768, Ramanathapuram, Tamil Nadu 623504, India"
Thiruvadanai,TASMAC PAMBAN,9.2790971,79.21585569999999,"76H8+J8Q, Unnamed Road, Pamban, Tamil Nadu 623521, India"
Thiruvadanai,Govt TASMAC,11.393713,79.22381779999999,"96VF+FGP, Pennadam, Eraiyur, Tamil Nadu 606111, India"
Thiruvadanai,Govt. Tasmac,11.0114413,78.71653169999999,"2P68+HJF, Edumalai Rd, Valaiyur, Tamil Nadu 621007, India"
Thiruvadanai,TASMAC,9.6256582,78.8642842,"NH536, Tamil Nadu 623525, India"
Thiruvadanai,Govt Tasmac,9.9057271,78.13363559999999,"W44M+7FR, West Anuppanadi, Tamil Nadu Housing Board Colony, Anuppanadi, Madurai, Tamil Nadu 625009, India"
Thiruvadanai,tasmac,9.7745259,78.33339819999999,"Q8FM+R92, Thiruppachethi, Tamil Nadu 630610, India"
Thiruvadanai,TASMAC Wine Shop - டாஸ்மாக்,9.3660819,78.8355163,"9R8P+C6J, Durairaj Chatthira Street, Rose Nagar, Velipattinam, Ramanathapuram, Tamil Nadu 623504, India"
Thiruvadanai,TASMAC,9.8214221,78.8260658,"RRCG+HC, Kadainendal, Tamil Nadu 623402, India"
Thiruvadanai,TASMAC - WINE SHOP,9.273350299999999,78.8801294,"7VFJ+83R, Vannangundu, Tamil Nadu 623523, India"
Thiruvadanai,TASMAC,10.1060961,78.837511,"Kandanur Puduvayal Railway Station, SH28, Tamil Nadu 630108, India"
Thiruvadanai,TASMAC,9.4533016,78.8933838,"FV3V+89C, Devipattinam-Chittarkottai Rd, Devipattinam, Ilanthaikuttam, Tamil Nadu 623513, India"
Thiruvadanai,Pennadam government Tasmac,11.3964856,79.2368664,"96WP+HPX, Pennadam, Pe. Ponneri, Tamil Nadu 606105, India"
Thiruvadanai,TASMAC A1Bar,9.3781304,78.8595799,"9VH5+7R3, Ramanathapuram, Tamil Nadu 623504, India"
Thiruvadanai,Tasmac,9.1973419,78.5920082,"5HWR+WRM, Melakidaram, Tamil Nadu 623528, India"
Thiruvadanai,Tasmac,10.2216076,78.9674529,"6XC8+JXW, SH 26, Narpavalakkudi, Tamil Nadu 614622, India"
Thiruvadanai,TASMAC,9.622059799999999,78.83505389999999,"SH 34A, Tamil Nadu 623525, India"
Thiruvadanai,TASMAC,9.3656279,78.8366137,"139, Master Plan Complex Madurai Rameswaram Road Sakkarakottai Village, Ramanathapuram, Coimbatore, Tamil Nadu 623503, India"
Thiruvadanai,TASMAC,10.136699,79.1941679,"Attani, Tamil Nadu 614630, India"
Thiruvadanai,TASMAC,10.1021081,78.65240779999999,"4M22+RXR, Thenkarai Rd, Thenkarai, Tamil Nadu 630207, India"
Thiruvadanai,Tasmac Wine Shop,9.984867399999999,77.9957731,"XXMW+W8, Thenur, Tamil Nadu 625234, India"
Thiruvadanai,TASMAC,9.5389837,78.6261957,"GJQG+HFV, Perumbacheri, Urappuli, Tamil Nadu 623701, India"
Thiruvadanai,TASMAC,9.9628827,79.1782711,"X57H+475, Jegathapattinam, Periyamadaippaychchal, Tamil Nadu 614619, India"
Thiruvadanai,Tasmac Thiruvadanai,9.782855999999999,78.91517569999999,"QWM8+43V, Soochani, Tamil Nadu 623407, India"
Thiruvadanai,Tasmac 7035,9.783696500000001,78.9154975,"QWM8+F5H, Mela St, Thiruvadanai, Tamil Nadu 623407, India"
Thittakudi,Government tasmac,10.5247296,79.3578497,"G9F5+V4X, Kannugudi East, Kannugudi North, Tamil Nadu 614901, India"
Thittakudi,Govt.TASMAC,11.1244625,78.9548362,"4XF3+QXJ, Tamil Nadu 621106, India"
Thittakudi,"Govt,TASMAC டாஸ்மாக்.",11.661361,79.1610196,"M566+HCF, Kottaiyur, Seevamangalam, Tamil Nadu 606305, India"
Thittakudi,Govt. TASMAC,11.6920362,79.08603,"M3RP+QC, Chithalur, Tamil Nadu 606206, India"
Thittakudi,Tasmac Government Wine Shop,9.3385486,78.5724855,"MDR637, Tamil Nadu 623704, India"
Thittakudi,Tasmac Narikudi,9.5926613,78.3019753,"H8V2+3Q5, Kandukondanmanickam, Tamil Nadu 626607, India"
Thittakudi,Tasmac Govt,8.8376421,78.1421847,"R4QR+3V3, Davis Puram, Thoothukudi, Tamil Nadu 628002, India"
Thittakudi,Tasmac,10.2216076,78.9674529,"6XC8+JXW, SH 26, Narpavalakkudi, Tamil Nadu 614622, India"
Thittakudi,TASMAC,11.2973678,78.9735975,"7XWF+XC5, Keelapuliyur-Ayikkudi-Kallampudhur Rd, Sirumathur, Tamil Nadu 621115, India"
Thittakudi,Tasmac Wine shop,11.4189775,79.1270503,"C49G+HRV, MDR814, Pulivalam, Tamil Nadu 606106, India"
Thittakudi,Tasmac,9.9015423,79.13132940000001,"W42J+HHM, Nattanipurasakudi, Tamil Nadu 614621, India"
Thittakudi,Tasmac - Thuppakudi,8.765688299999999,77.443849,"QC8V+7F, Anaindaperumalnadanur, Tamil Nadu 627413, India"
Thittakudi,Tasmac Wine Shop,11.2755258,79.52781039999999,"7GGH+647, Nattarmangalam, Tamil Nadu 608301, India"
Thittakudi,TASMAC Wine Shop,11.7444317,79.756676,"PQV4+QMF, Thirupapuliyur, Cuddalore, Tamil Nadu 607002, India"
Thittakudi,TASMAC shop Byepass,11.525624,79.3434551,"G8GV+798, ulunthurpet - Cuddalore byepass, vridhachalam, Ponneri, Tamil Nadu, India"
Thittakudi,TASMAC,10.9926815,79.4907064,"XFVR+37G, Aduthurai, Aduthurai alias Maruthuvakudi, Tamil Nadu 612101, India"
Thittakudi,Tasmac,10.6670869,79.4487407,"MC8X+RFX, Mela Raja Veedhi, Mannargudi, Tamil Nadu 614001, India"
Thittakudi,tasmac,9.1642054,78.4417483,"5C7R+MMP, Sayalgudi, Tamil Nadu 623135, India"
Thittakudi,அரசு மதுபானக்கடை.செம்மங்குடி,10.9152943,79.13117609999999,"W48J+4F7, Okkakudi, Tamil Nadu 613204, India"
Thittakudi,TASMAC WINESHOP,9.1729919,78.4901618,"5FFR+633, Thanjavur - Kalayarkoil - Sayalkudi Rd, Kadaladi Vilakku, Kadugusandai, Tamil Nadu 623120, India"
Thittakudi,Tasmac,8.5018988,78.11468769999999,"G427+QV4, Thoothukudi, Thiruchendur, Tamil Nadu 628215, India"
Thittakudi,TASMAC,11.6523521,79.4494283,"MC2X+WQR, Kullanchavadi Rd, Kattukudalur, Tamil Nadu 607805, India"
Thittakudi,TASMAC,9.7427645,78.38942639999999,"P9VQ+4Q3, Vagudi, Tamil Nadu 630602, India"
Thittakudi,Tasmac,11.3926344,79.17031999999999,"95VC+342, Avinangudi, Tamil Nadu 606111, India"
Thittakudi,TASMAC,11.684085,79.7563662,"MQM4+MH7, Kudikadu, Tamil Nadu 607003, India"
Thittakudi,Government tasmac,10.541548,79.28063209999999,"G7RJ+J76, Pappanadu, Nemilithippiakudi, Tamil Nadu 614626, India"
Thittakudi,Tasmac kangalancheri,10.8161843,79.6357647,"RJ8P+F86, Surakkudi, Tamil Nadu 610101, India"
Cheyyur,Tasmac - Govt. Wine Shop,12.4261919,79.8408527,"CRGR+F8H, Kanchipuram, Tamil Nadu 603301, India"
Cheyyur,TASMAC Government Wine Shop,13.2606756,80.2895995,"R S, Main Road, Attipattu, Chennai, Nandiambakkam, Tamil Nadu 600120, India"
Cheyyur,TASMAC,12.9874621,80.2555627,"X7P4+X6P, SH 49, Ranganatha Puram, Thiruvanmiyur, Chennai, Tamil Nadu 600041, India"
Cheyyur,Tasmac,12.6492508,79.9392795,"JWXQ+PP2, Chennai - Villupuram - Trichy - Kanyakumari Rd, Mamandur, Tamil Nadu 603111, India"
Cheyyur,Tasmac elite shop,12.9762175,80.258871,"68, SH 49, ecr road, Valmiki Nagar, Netaji Nagar, Thiruvanmiyur, Chennai, Tamil Nadu 600041, India"
Cheyyur,TASMAC,12.3898556,79.88925549999999,"9VQQ+WPR, Kanchipuram, Tamil Nadu 603313, India"
Cheyyur,Govt tasmac,11.9147774,79.4888498,"WF7Q+WGX, Durai Arasan Nagar, Sri Ram Nagar, Viluppuram, Tamil Nadu 605602, India"
Cheyyur,Govt. TASMAC,11.6920362,79.08603,"M3RP+QC, Chithalur, Tamil Nadu 606206, India"
Cheyyur,Tasmac,12.4890331,80.1220294,"F4QC+JR6, Unnamed Road, Vayalur, Vittalapuram I, Tamil Nadu 603102, India"
Cheyyur,Tasmac,12.2177273,79.52372369999999,"6G9F+3FX, Kilaiyur, Tamil Nadu 604306, India"
Cheyyur,"Tasmac, Thiruporur",12.7329535,80.1812317,"P5MJ+5FQ, Kanchipuram, Tamil Nadu 603110, India"
Cheyyur,Tasmac,13.0656166,80.2738241,"No. 19, Triplicane High Rd, Ellis Puram, Padupakkam, Triplicane, Chennai, Tamil Nadu 600005, India"
Cheyyur,Tasmac Wine Shop,12.8862464,80.0808982,"V3PJ+F9R, Vandalur, Tamil Nadu 600048, India"
Cheyyur,Tasmac,12.3717323,79.7787215,"9QCH+MFX, Perumbairkandigai, Tamil Nadu 603201, India"
Acharapakkam,Tasmac - Govt. Wine Shop,12.4261919,79.8408527,"CRGR+F8H, Kanchipuram, Tamil Nadu 603301, India"
Acharapakkam,Tasmac,12.3717323,79.7787215,"9QCH+MFX, Perumbairkandigai, Tamil Nadu 603201, India"
Acharapakkam,TASMAC,12.3898556,79.88925549999999,"9VQQ+WPR, Kanchipuram, Tamil Nadu 603313, India"
Acharapakkam,TASMAC WINE SHOP,12.4103932,79.90301149999999,"CW63+562, Saravambakam, Tamil Nadu 603313, India"
Acharapakkam,TASMAC Government Wine Shop,13.2606756,80.2895995,"R S, Main Road, Attipattu, Chennai, Nandiambakkam, Tamil Nadu 600120, India"
Acharapakkam,BAR (TAS MAC),12.4146448,79.8080848,"CR75+V64, Elapakkam salai, Thirumukkadu, Tamil Nadu 603319, India"
Singampunari,Tasmac,10.1625508,78.4164442,"5C78+2HG, Melur-Singampunari Rd, Sukkampatti, Kannamangalapatti, Tamil Nadu 630502, India"
Singampunari,Tasmac Government Wine Shop,9.3385486,78.5724855,"MDR637, Tamil Nadu 623704, India"
Singampunari,Government Tasmac,9.8608138,77.8154587,"VR68+85G, Perungamanallur, Tamil Nadu 625527, India"
Singampunari,Government tasmac bar,9.723424999999999,77.8497246,"PRFX+9VG, Kilangulam, Tamil Nadu 625702, India"
Singampunari,Government TASMAC Wine Shop,9.8240115,78.0851703,"R3FP+J33, Soorakkulam, Tamil Nadu 625022, India"
Singampunari,TASMAC,10.1021081,78.65240779999999,"4M22+RXR, Thenkarai Rd, Thenkarai, Tamil Nadu 630207, India"
Singampunari,Tasmac Government Liquor Shop,10.2341544,78.45029939999999,"6FM2+M43, Sirumarudhur, Tamil Nadu 630502, India"
Manamadurai,TASMAC,9.698315200000001,78.4526514,"MFX3+83C, Manamadurai, Tamil Nadu 630606, India"
